station,valid,lon,lat,elevation,tmpf,dwpf,relh,drct,sknt,p01i,alti,mslp,vsby,gust,skyc1,skyc2,skyc3,skyc4,skyl1,skyl2,skyl3,skyl4,wxcodes,ice_accretion_1hr,ice_accretion_3hr,ice_accretion_6hr,peak_wind_gust,peak_wind_drct,peak_wind_time,feel,metar
HSSK,2021-03-20 12:00,32.5530,15.5890,390.08,104.00,32.00,8.27,30.00,14.00,0.00,29.71,M,6.21,M,M,M,M,M,M,M,M,M,M,M,M,M,M,M,M,97.28,HSSK 201200Z 03014KT CAVOK 40/00 Q1006 NOSIG
HSSK,2021-03-21 07:30,32.5530,15.5890,390.08,95.00,33.80,11.67,30.00,17.00,0.00,29.77,M,1.24,M,M,M,M,M,M,M,M,M,BLSA,M,M,M,M,M,M,89.97,HSSK 210730Z 03017KT 2000M BLSA 35/01 Q1008 TEMPO 0800M DS
HSSK,2021-03-21 08:00,32.5530,15.5890,390.08,96.80,35.60,11.86,70.00,14.00,0.00,29.77,M,1.24,M,M,M,M,M,M,M,M,M,BLSA,M,M,M,M,M,M,91.72,HSSK 210800Z 07014KT 2000M BLSA 36/02 Q1008 TEMPO 0800M DS
HSSK,2021-03-21 08:30,32.5530,15.5890,390.08,98.60,32.00,9.72,60.00,15.00,0.00,29.77,M,0.62,M,M,M,M,M,M,M,M,M,BLSA,M,M,M,M,M,M,92.69,HSSK 210830Z 06015KT 1000M BLSA 37/00 Q1008 TEMPO 0800M DS
HSSK,2021-03-21 09:00,32.5530,15.5890,390.08,100.40,37.40,11.41,50.00,16.00,0.00,29.74,M,0.62,M,M,M,M,M,M,M,M,M,DS,M,M,M,M,M,M,95.08,HSSK 210900Z 05016KT 1000M DS 38/03 Q1007 NOSIG
HSSK,2021-03-21 09:30,32.5530,15.5890,390.08,102.20,24.80,6.49,70.00,10.00,0.00,29.74,M,0.62,M,M,M,M,M,M,M,M,M,DS,M,M,M,M,M,M,94.91,HSSK 210930Z 07010KT 1000M DS 39/M04 Q1007 NOSIG
HSSK,2021-03-21 10:30,32.5530,15.5890,390.08,102.20,24.80,6.49,90.00,12.00,0.00,29.74,M,3.73,M,M,M,M,M,M,M,M,M,M,M,M,M,M,M,M,94.91,HSSK 211030Z 09012KT 6000 39/M04 Q1007 NOSIG
HSSK,2021-03-21 11:00,32.5530,15.5890,390.08,105.80,28.40,6.77,30.00,16.00,0.00,29.68,M,3.73,M,M,M,M,M,M,M,M,M,M,M,M,M,M,M,M,98.33,HSSK 211100Z 03016KT 6000 41/M02 Q1005 NOSIG
HSSK,2021-03-21 12:00,32.5530,15.5890,390.08,107.60,28.40,6.42,80.00,11.00,0.00,29.65,M,4.97,M,M,M,M,M,M,M,M,M,M,M,M,M,M,M,M,99.86,HSSK 211200Z 08011KT 8000 42/M02 Q1004 NOSIG
HSSK,2021-03-21 12:30,32.5530,15.5890,390.08,107.60,28.40,6.42,70.00,11.00,0.00,29.62,M,3.73,M,M,M,M,M,M,M,M,M,M,M,M,M,M,M,M,99.86,HSSK 211230Z 07011KT 6000 42/M02 Q1003 NOSIG
HSSK,2021-03-21 13:00,32.5530,15.5890,390.08,107.60,24.80,5.53,70.00,13.00,0.00,29.62,M,3.73,M,M,M,M,M,M,M,M,M,M,M,M,M,M,M,M,99.43,HSSK 211300Z 07013KT 6000 42/M04 Q1003 NOSIG
HSSK,2021-03-21 13:20,32.5530,15.5890,390.08,107.60,24.80,5.53,100.00,15.00,0.00,29.62,M,1.86,M,M,M,M,M,M,M,M,M,BLSA,M,M,M,M,M,M,99.43,HSSK 211320Z 10015KT 3000 BLSA 42/M04 Q1003 NOSIG
HSSK,2021-03-21 13:30,32.5530,15.5890,390.08,107.60,26.60,5.96,70.00,14.00,0.00,29.62,M,1.86,M,M,M,M,M,M,M,M,M,BLSA,M,M,M,M,M,M,99.63,HSSK 211330Z 07014KT 3000 BLSA 42/M03 Q1003 NOSIG
HSSK,2021-03-21 14:00,32.5530,15.5890,390.08,107.60,23.00,5.13,60.00,8.00,0.00,29.62,M,1.86,M,M,M,M,M,M,M,M,M,BLSA,M,M,M,M,M,M,99.25,HSSK 211400Z 06008KT 3000 BLSA 42/M05 Q1003 NOSIG
HSSK,2021-03-21 14:30,32.5530,15.5890,390.08,107.60,26.60,5.96,50.00,10.00,0.00,29.62,M,2.49,M,M,M,M,M,M,M,M,M,HZ,M,M,M,M,M,M,99.63,HSSK 211430Z 05010KT 4000 HZ 42/M03 Q1003 NOSIG
HSSK,2021-03-21 15:00,32.5530,15.5890,390.08,105.80,23.00,5.41,60.00,10.00,0.00,29.62,M,2.49,M,M,M,M,M,M,M,M,M,HZ,M,M,M,M,M,M,97.75,HSSK 211500Z 06010KT 4000 HZ 41/M05 Q1003 NOSIG
HSSK,2021-03-21 15:30,32.5530,15.5890,390.08,105.80,26.60,6.29,40.00,10.00,0.00,29.62,M,2.49,M,M,M,M,M,M,M,M,M,HZ,M,M,M,M,M,M,98.12,HSSK 211530Z 04010KT 4000 HZ 41/M03 Q1003 NOSIG
HSSK,2021-03-21 16:00,32.5530,15.5890,390.08,104.00,26.60,6.63,40.00,10.00,0.00,29.62,M,2.49,M,M,M,M,M,M,M,M,M,HZ,M,M,M,M,M,M,96.60,HSSK 211600Z 04010KT 4000 HZ 40/M03 Q1003 NOSIG
HSSK,2021-03-21 16:30,32.5530,15.5890,390.08,102.20,28.40,7.53,40.00,10.00,0.00,29.65,M,3.73,M,M,M,M,M,M,M,M,M,M,M,M,M,M,M,M,95.28,HSSK 211630Z 04010KT 6000 39/M02 Q1004 NOSIG
HSSK,2021-03-21 17:00,32.5530,15.5890,390.08,102.20,28.40,7.53,40.00,10.00,0.00,29.65,M,6.21,M,M,M,M,M,M,M,M,M,M,M,M,M,M,M,M,95.28,HSSK 211700Z 04010KT CAVOK 39/M02 Q1004 NOSIG
HSSK,2021-03-21 17:30,32.5530,15.5890,390.08,100.40,28.40,7.95,30.00,10.00,0.00,29.65,M,6.21,M,M,M,M,M,M,M,M,M,M,M,M,M,M,M,M,93.77,HSSK 211730Z 03010KT CAVOK 38/M02 Q1004 NOSIG
HSSK,2021-03-21 18:00,32.5530,15.5890,390.08,100.40,28.40,7.95,40.00,10.00,0.00,29.68,M,6.21,M,M,M,M,M,M,M,M,M,M,M,M,M,M,M,M,93.77,HSSK 211800Z 04010KT CAVOK 38/M02 Q1005 NOSIG
HSSK,2021-03-21 18:30,32.5530,15.5890,390.08,98.60,28.40,8.40,40.00,13.00,0.00,29.68,M,6.21,M,M,M,M,M,M,M,M,M,M,M,M,M,M,M,M,92.25,HSSK 211830Z 04013KT CAVOK 37/M02 Q1005 NOSIG
HSSK,2021-03-21 19:00,32.5530,15.5890,390.08,98.60,28.40,8.40,40.00,11.00,0.00,29.68,M,6.21,M,M,M,M,M,M,M,M,M,M,M,M,M,M,M,M,92.25,HSSK 211900Z 04011KT CAVOK 37/M02 Q1005 NOSIG
HSSK,2021-03-21 19:30,32.5530,15.5890,390.08,98.60,28.40,8.40,70.00,11.00,0.00,29.68,M,6.21,M,M,M,M,M,M,M,M,M,M,M,M,M,M,M,M,92.25,HSSK 211930Z 07011KT CAVOK 37/M02 Q1005 NOSIG
HSSK,2021-03-21 20:00,32.5530,15.5890,390.08,96.80,30.20,9.55,50.00,11.00,0.00,29.71,M,6.21,M,M,M,M,M,M,M,M,M,M,M,M,M,M,M,M,90.96,HSSK 212000Z 05011KT CAVOK 36/M01 Q1006 NOSIG
HSSK,2021-03-21 20:30,32.5530,15.5890,390.08,96.80,30.20,9.55,50.00,10.00,0.00,29.71,M,6.21,M,M,M,M,M,M,M,M,M,M,M,M,M,M,M,M,90.96,HSSK 212030Z 05010KT CAVOK 36/M01 Q1006 NOSIG
HSSK,2021-03-21 21:00,32.5530,15.5890,390.08,95.00,30.20,10.09,40.00,8.00,0.00,29.71,M,6.21,M,M,M,M,M,M,M,M,M,M,M,M,M,M,M,M,89.48,HSSK 212100Z 04008KT CAVOK 35/M01 Q1006 NOSIG
HSSK,2021-03-21 21:30,32.5530,15.5890,390.08,93.20,30.20,10.67,40.00,7.00,0.00,29.71,M,6.21,M,M,M,M,M,M,M,M,M,M,M,M,M,M,M,M,88.09,HSSK 212130Z 04007KT CAVOK 34/M01 Q1006 NOSIG
HSSK,2021-03-21 22:00,32.5530,15.5890,390.08,93.20,30.20,10.67,20.00,10.00,0.00,29.71,M,6.21,M,M,M,M,M,M,M,M,M,M,M,M,M,M,M,M,88.09,HSSK 212200Z 02010KT CAVOK 34/M01 Q1006 NOSIG
HSSK,2021-03-21 22:30,32.5530,15.5890,390.08,89.60,30.20,11.94,20.00,10.00,0.00,29.71,M,6.21,M,M,M,M,M,M,M,M,M,M,M,M,M,M,M,M,85.34,HSSK 212230Z 02010KT CAVOK 32/M01 Q1006 NOSIG
HSSK,2021-03-21 23:00,32.5530,15.5890,390.08,89.60,26.60,10.30,30.00,10.00,0.00,29.68,M,6.21,M,M,M,M,M,M,M,M,M,M,M,M,M,M,M,M,85.02,HSSK 212300Z 03010KT CAVOK 32/M03 Q1005 NOSIG
HSSK,2021-03-21 23:30,32.5530,15.5890,390.08,89.60,26.60,10.30,30.00,7.00,0.00,29.68,M,6.21,M,M,M,M,M,M,M,M,M,M,M,M,M,M,M,M,85.02,HSSK 212330Z 03007KT CAVOK 32/M03 Q1005 NOSIG
HSSK,2021-03-22 00:00,32.5530,15.5890,390.08,87.80,33.80,14.61,40.00,5.00,0.00,29.68,M,6.21,M,M,M,M,M,M,M,M,M,M,M,M,M,M,M,M,84.10,HSSK 220000Z 04005KT CAVOK 31/01 Q1005 NOSIG
HSSK,2021-03-22 00:30,32.5530,15.5890,390.08,86.00,33.80,15.48,20.00,5.00,0.00,29.68,M,6.21,M,M,M,M,M,M,M,M,M,M,M,M,M,M,M,M,82.66,HSSK 220030Z 02005KT CAVOK 30/01 Q1005 NOSIG
HSSK,2021-03-22 01:00,32.5530,15.5890,390.08,86.00,33.80,15.48,30.00,7.00,0.00,29.68,M,6.21,M,M,M,M,M,M,M,M,M,M,M,M,M,M,M,M,82.66,HSSK 220100Z 03007KT CAVOK 30/01 Q1005 NOSIG
HSSK,2021-03-22 01:30,32.5530,15.5890,390.08,86.00,35.60,16.63,30.00,6.00,0.00,29.68,M,6.21,M,M,M,M,M,M,M,M,M,M,M,M,M,M,M,M,82.69,HSSK 220130Z 03006KT CAVOK 30/02 Q1005 NOSIG
HSSK,2021-03-22 02:00,32.5530,15.5890,390.08,82.40,35.60,18.67,360.00,5.00,0.00,29.68,M,6.21,M,M,M,M,M,M,M,M,M,M,M,M,M,M,M,M,80.08,HSSK 220200Z 36005KT CAVOK 28/02 Q1005 NOSIG
HSSK,2021-03-22 02:30,32.5530,15.5890,390.08,80.60,35.60,19.79,10.00,4.00,0.00,29.68,M,6.21,M,M,M,M,M,M,M,M,M,M,M,M,M,M,M,M,78.94,HSSK 220230Z 01004KT CAVOK 27/02 Q1005 NOSIG
HSSK,2021-03-22 03:00,32.5530,15.5890,390.08,78.80,35.60,21.00,360.00,4.00,0.00,29.71,M,6.21,M,M,M,M,M,M,M,M,M,M,M,M,M,M,M,M,M,HSSK 220300Z 36004KT CAVOK 26/02 Q1006 NOSIG
HSSK,2021-03-22 03:30,32.5530,15.5890,390.08,77.00,33.80,20.74,10.00,4.00,0.00,29.71,M,6.21,M,M,M,M,M,M,M,M,M,M,M,M,M,M,M,M,M,HSSK 220330Z 01004KT CAVOK 25/01 Q1006 NOSIG
HSSK,2021-03-22 04:00,32.5530,15.5890,390.08,75.20,33.80,22.02,360.00,5.00,0.00,29.74,M,6.21,M,M,M,M,M,M,M,M,M,M,M,M,M,M,M,M,M,HSSK 220400Z 36005KT CAVOK 24/01 Q1007 NOSIG
HSSK,2021-03-22 04:30,32.5530,15.5890,390.08,75.20,33.80,22.02,360.00,5.00,0.00,29.74,M,6.21,M,M,M,M,M,M,M,M,M,M,M,M,M,M,M,M,M,HSSK 220430Z 36005KT CAVOK 24/01 Q1007 NOSIG
HSSK,2021-03-22 05:00,32.5530,15.5890,390.08,80.60,37.40,21.25,360.00,7.00,0.00,29.77,M,6.21,M,M,M,M,M,M,M,M,M,M,M,M,M,M,M,M,79.02,HSSK 220500Z 36007KT CAVOK 27/03 Q1008 NOSIG
HSSK,2021-03-22 05:30,32.5530,15.5890,390.08,82.40,37.40,20.04,30.00,9.00,0.00,29.77,M,6.21,M,M,M,M,M,M,M,M,M,M,M,M,M,M,M,M,80.14,HSSK 220530Z 03009KT CAVOK 28/03 Q1008 NOSIG
HSSK,2021-03-22 06:00,32.5530,15.5890,390.08,84.20,37.40,18.91,20.00,10.00,0.00,29.77,M,6.21,M,M,M,M,M,M,M,M,M,M,M,M,M,M,M,M,81.38,HSSK 220600Z 02010KT CAVOK 29/03 Q1008 NOSIG
HSSK,2021-03-22 06:30,32.5530,15.5890,390.08,86.00,39.20,19.15,20.00,11.00,0.00,29.77,M,6.21,M,M,M,M,M,M,M,M,M,M,M,M,M,M,M,M,82.79,HSSK 220630Z 02011KT CAVOK 30/04 Q1008 NOSIG
HSSK,2021-03-22 07:00,32.5530,15.5890,390.08,87.80,41.00,19.40,30.00,11.00,0.00,29.80,M,6.21,M,M,M,M,M,M,M,M,M,M,M,M,M,M,M,M,84.30,HSSK 220700Z 03011KT CAVOK 31/05 Q1009 NOSIG
HSSK,2021-03-22 18:00,32.5530,15.5890,390.08,93.20,24.80,8.54,360.00,4.00,0.00,29.71,M,6.21,M,M,M,M,M,M,M,M,M,M,M,M,M,M,M,M,87.56,HSSK 221800Z 36004KT CAVOK 34/M04 Q1006 NOSIG
HSSK,2021-03-22 18:30,32.5530,15.5890,390.08,89.60,21.20,8.22,360.00,4.00,0.00,29.71,M,6.21,M,M,M,M,M,M,M,M,M,M,M,M,M,M,M,M,84.64,HSSK 221830Z 36004KT CAVOK 32/M06 Q1006 NOSIG
HSSK,2021-03-22 19:00,32.5530,15.5890,390.08,89.60,21.20,8.22,340.00,4.00,0.00,29.74,M,6.21,M,M,M,M,M,M,M,M,M,M,M,M,M,M,M,M,84.64,HSSK 221900Z 34004KT CAVOK 32/M06 Q1007 NOSIG
HSSK,2021-03-22 19:30,32.5530,15.5890,390.08,87.80,26.60,10.91,360.00,6.00,0.00,29.74,M,6.21,M,M,M,M,M,M,M,M,M,M,M,M,M,M,M,M,83.69,HSSK 221930Z 36006KT CAVOK 31/M03 Q1007 NOSIG
HSSK,2021-03-22 20:00,32.5530,15.5890,390.08,86.00,30.20,13.38,10.00,3.00,0.00,29.74,M,6.21,M,M,M,M,M,M,M,M,M,M,M,M,M,M,M,M,82.64,HSSK 222000Z 01003KT CAVOK 30/M01 Q1007 NOSIG
HSSK,2021-03-22 20:30,32.5530,15.5890,390.08,86.00,30.20,13.38,360.00,4.00,0.00,29.74,M,6.21,M,M,M,M,M,M,M,M,M,M,M,M,M,M,M,M,82.64,HSSK 222030Z 36004KT CAVOK 30/M01 Q1007 NOSIG
HSSK,2021-03-22 21:00,32.5530,15.5890,390.08,86.00,30.20,13.38,360.00,5.00,0.00,29.74,M,6.21,M,M,M,M,M,M,M,M,M,M,M,M,M,M,M,M,82.64,HSSK 222100Z 36005KT CAVOK 30/M01 Q1007 NOSIG
HSSK,2021-03-22 21:30,32.5530,15.5890,390.08,82.40,19.40,9.58,360.00,5.00,0.00,29.74,M,6.21,M,M,M,M,M,M,M,M,M,M,M,M,M,M,M,M,79.45,HSSK 222130Z 36005KT CAVOK 28/M07 Q1007 NOSIG
HSSK,2021-03-22 22:00,32.5530,15.5890,390.08,84.20,24.80,11.35,10.00,2.00,0.00,29.74,M,6.21,M,M,M,M,M,M,M,M,M,M,M,M,M,M,M,M,81.00,HSSK 222200Z 01002KT CAVOK 29/M04 Q1007 NOSIG
HSSK,2021-03-22 22:30,32.5530,15.5890,390.08,84.20,24.80,11.35,360.00,3.00,0.00,29.71,M,6.21,M,M,M,M,M,M,M,M,M,M,M,M,M,M,M,M,81.00,HSSK 222230Z 36003KT CAVOK 29/M04 Q1006 NOSIG
HSSK,2021-03-22 23:00,32.5530,15.5890,390.08,82.40,19.40,9.58,360.00,3.00,0.00,29.71,M,6.21,M,M,M,M,M,M,M,M,M,M,M,M,M,M,M,M,79.45,HSSK 222300Z 36003KT CAVOK 28/M07 Q1006 NOSIG
HSSK,2021-03-22 23:30,32.5530,15.5890,390.08,82.40,28.40,13.96,10.00,3.00,0.00,29.71,M,6.21,M,M,M,M,M,M,M,M,M,M,M,M,M,M,M,M,79.94,HSSK 222330Z 01003KT CAVOK 28/M02 Q1006 NOSIG
HSSK,2021-03-23 05:30,32.5530,15.5890,390.08,86.00,26.60,11.55,0.00,0.00,0.00,29.80,M,2.49,M,M,M,M,M,M,M,M,M,HZ,M,M,M,M,M,M,82.39,HSSK 230530Z 00000KT 4000M HZ 30/M03 Q1009 NOSIG
HSSK,2021-03-23 06:00,32.5530,15.5890,390.08,89.60,21.20,8.22,0.00,0.00,0.00,29.80,M,2.49,M,M,M,M,M,M,M,M,M,HZ,M,M,M,M,M,M,84.64,HSSK 230600Z 00000KT 4000M HZ 32/M06 Q1009 NOSIG
HSSK,2021-03-23 06:30,32.5530,15.5890,390.08,93.20,24.80,8.54,0.00,0.00,0.00,29.80,M,1.24,M,M,M,M,M,M,M,M,M,HZ,M,M,M,M,M,M,87.56,HSSK 230630Z 00000KT 2000M HZ 34/M04 Q1009 NOSIG
HSSK,2021-03-23 07:00,32.5530,15.5890,390.08,95.00,30.20,10.09,0.00,0.00,0.00,29.80,M,1.24,M,M,M,M,M,M,M,M,M,HZ,M,M,M,M,M,M,89.48,HSSK 230700Z 00000KT 2000M HZ 35/M01 Q1009 NOSIG
HSSK,2021-03-23 07:30,32.5530,15.5890,390.08,98.60,33.80,10.45,0.00,0.00,0.00,29.80,M,2.49,M,M,M,M,M,M,M,M,M,HZ,M,M,M,M,M,M,92.94,HSSK 230730Z 00000KT 4000M HZ 37/01 Q1009 NOSIG
HSSK,2021-03-25 06:30,32.5530,15.5890,390.08,M,M,M,350.00,18.00,0.00,29.83,M,2.49,M,M,M,M,M,M,M,M,M,BLSA,M,M,M,M,M,M,M,HSSK 250630Z 35018KT 4000 BLSA 28 M03 Q1010 NOSIG
HSSK,2021-03-25 07:30,32.5530,15.5890,390.08,84.20,28.40,13.18,350.00,20.00,0.00,29.83,M,2.49,M,M,M,M,M,M,M,M,M,BLSA,M,M,M,M,M,M,81.25,HSSK 250730Z 35020KT 4000 BLSA 29/M02 Q1010 NOSIG
HSSK,2021-03-25 10:30,32.5530,15.5890,390.08,96.80,35.60,11.86,10.00,15.00,0.00,29.77,M,1.86,M,M,M,M,M,M,M,M,M,BLSA,M,M,M,M,M,M,91.72,HSSK 251030Z 01015KT 3000 BLSA 36/02 Q1008 NOSIG
HSSK,2021-03-25 11:00,32.5530,15.5890,390.08,98.60,39.20,12.94,350.00,15.00,0.00,29.77,M,M,M,M,M,M,M,M,M,M,M,M,M,M,M,M,M,M,93.89,HSSK 251100Z 35015KT 3000BISA 37/04 Q1008 NOSIG
HSSK,2021-03-26 07:45,32.5530,15.5890,390.08,82.40,26.60,12.97,360.00,18.00,0.00,29.88,M,0.62,M,M,M,M,M,M,M,M,M,BLSA,M,M,M,M,M,M,79.92,HSSK 260745Z 36018KT 1000M BLSA 28/M03 Q1012 NOSIG
HSSK,2021-03-26 08:00,32.5530,15.5890,390.08,84.20,26.60,12.23,350.00,17.00,0.00,29.88,M,0.62,M,M,M,M,M,M,M,M,M,BLSA,M,M,M,M,M,M,81.13,HSSK 260800Z 35017KT 1000M BLSA 29/M03 Q1012 NOSIG
HSSK,2021-03-26 08:30,32.5530,15.5890,390.08,84.20,28.40,13.18,360.00,16.00,0.00,29.88,M,0.62,M,M,M,M,M,M,M,M,M,BLSA,M,M,M,M,M,M,81.25,HSSK 260830Z 36016KT 1000M BLSA 29/M02 Q1012 NOSIG
HSSK,2021-03-26 09:00,32.5530,15.5890,390.08,86.00,30.20,13.38,360.00,15.00,0.00,29.88,M,0.62,M,M,M,M,M,M,M,M,M,M,M,M,M,M,M,M,82.64,HSSK 260900Z 36015KT 1000 30/M01 Q1012 NOSIG
HSSK,2021-03-26 09:30,32.5530,15.5890,390.08,89.60,30.20,11.94,330.00,16.00,0.00,29.88,M,1.55,M,M,M,M,M,M,M,M,M,BLSA,M,M,M,M,M,M,85.34,HSSK 260930Z 33016KT 2500M BLSA 32/M01 Q1012 NOSIG
HSSK,2021-03-26 10:00,32.5530,15.5890,390.08,91.40,32.00,12.14,330.00,14.00,0.00,29.85,M,1.24,M,M,M,M,M,M,M,M,M,BLSA,M,M,M,M,M,M,86.91,HSSK 261000Z 33014KT 2000M BLSA 33/00 Q1011 NOSIG
HSSK,2021-03-26 10:15,32.5530,15.5890,390.08,93.20,33.80,12.34,330.00,14.00,0.00,29.85,M,0.62,M,M,M,M,M,M,M,M,M,BLSA,M,M,M,M,M,M,88.55,HSSK 261015Z 33014KT 1000M BLSA 34/01 Q1011 TEMPO 0800M SS
HSSK,2021-03-26 10:30,32.5530,15.5890,390.08,93.20,33.80,12.34,330.00,20.00,0.00,29.83,M,0.62,M,M,M,M,M,M,M,M,M,BLSA,M,M,M,M,M,M,88.55,HSSK 261030Z 33020KT 1000M BLSA 34/01 Q1010 NOSIG
HSSK,2021-03-26 11:00,32.5530,15.5890,390.08,93.20,33.80,12.34,330.00,20.00,0.00,29.83,M,0.62,M,M,M,M,M,M,M,M,M,BLSA,M,M,M,M,M,M,88.55,HSSK 261100Z 33020KT 1000M BLSA 34/01 Q1010 NOSIG
HSSK,2021-03-26 11:30,32.5530,15.5890,390.08,95.00,35.60,12.53,340.00,20.00,0.00,29.80,M,0.62,M,M,M,M,M,M,M,M,M,BLSA,M,M,M,M,M,M,90.25,HSSK 261130Z 34020KT 1000M BLSA 35/02 Q1009 NOSIG
HSSK,2021-03-26 12:00,32.5530,15.5890,390.08,96.80,35.60,11.86,340.00,22.00,0.00,29.80,M,0.62,M,M,M,M,M,M,M,M,M,BLSA,M,M,M,M,M,M,91.72,HSSK 261200Z 34022KT 1000M BLSA 36/02 Q1009 NOSIG
HSSK,2021-03-26 13:00,32.5530,15.5890,390.08,98.60,30.20,9.04,350.00,21.00,0.00,29.77,M,0.62,M,M,M,M,M,M,M,M,M,BLSA,M,M,M,M,M,M,92.46,HSSK 261300Z 35021KT 1000 BLSA 37/M01 Q1008 NOSIG
HSSK,2021-03-26 13:30,32.5530,15.5890,390.08,98.60,32.00,9.72,350.00,17.00,0.00,29.77,M,0.62,M,M,M,M,M,M,M,M,M,BLSA,M,M,M,M,M,M,92.69,HSSK 261330Z 35017KT 1000 BLSA 37/00 Q1008 NOSIG
HSSK,2021-03-26 14:00,32.5530,15.5890,390.08,98.60,30.20,9.04,360.00,19.00,0.00,29.77,M,1.86,M,M,M,M,M,M,M,M,M,BLSA,M,M,M,M,M,M,92.46,HSSK 261400Z 36019KT 3000 BLSA 37/M01 Q1008 NOSIG
HSSK,2021-03-26 14:30,32.5530,15.5890,390.08,98.60,30.20,9.04,360.00,14.00,0.00,29.77,M,1.86,M,M,M,M,M,M,M,M,M,BLSA,M,M,M,M,M,M,92.46,HSSK 261430Z 36014KT 3000 BLSA 37/M01 Q1008 NOSIG
HSSK,2021-03-26 15:00,32.5530,15.5890,390.08,96.80,30.20,9.55,360.00,18.00,0.00,29.77,M,1.86,M,M,M,M,M,M,M,M,M,BLSA,M,M,M,M,M,M,90.96,HSSK 261500Z 36018KT 3000 BLSA 36/M01 Q1008 NOSIG
HSSK,2021-03-26 15:30,32.5530,15.5890,390.08,95.00,30.20,10.09,360.00,13.00,0.00,29.77,M,1.86,M,M,M,M,M,M,M,M,M,BLSA,M,M,M,M,M,M,89.48,HSSK 261530Z 36013KT 3000 BLSA 35/M01 Q1008 NOSIG
HSSK,2021-03-26 16:00,32.5530,15.5890,390.08,95.00,30.20,10.09,360.00,16.00,0.00,29.77,M,1.86,M,M,M,M,M,M,M,M,M,BLSA,M,M,M,M,M,M,89.48,HSSK 261600Z 36016KT 3000 BLSA 35/M01 Q1008 NOSIG
HSSK,2021-03-26 16:30,32.5530,15.5890,390.08,93.20,28.40,9.91,340.00,14.00,0.00,29.80,M,1.86,M,M,M,M,M,M,M,M,M,BLSA,M,M,M,M,M,M,87.89,HSSK 261630Z 34014KT 3000 BLSA 34/M02 Q1009 NOSIG
HSSK,2021-03-26 17:00,32.5530,15.5890,390.08,91.40,28.40,10.48,340.00,14.00,0.00,29.80,M,3.73,M,M,M,M,M,M,M,M,M,M,M,M,M,M,M,M,86.53,HSSK 261700Z 34014KT 6000 33/M02 Q1009 NOSIG
HSSK,2021-03-26 17:30,32.5530,15.5890,390.08,91.40,28.40,10.48,340.00,15.00,0.00,29.83,M,3.73,M,M,M,M,M,M,M,M,M,M,M,M,M,M,M,M,86.53,HSSK 261730Z 34015KT 6000 33/M02 Q1010 NOSIG
HSSK,2021-03-26 18:00,32.5530,15.5890,390.08,91.40,28.40,10.48,340.00,14.00,0.00,29.83,M,3.73,M,M,M,M,M,M,M,M,M,M,M,M,M,M,M,M,86.53,HSSK 261800Z 34014KT 6000 33/M02 Q1010 NOSIG
HSSK,2021-03-26 18:30,32.5530,15.5890,390.08,89.60,26.60,10.30,340.00,18.00,0.00,29.85,M,3.73,M,M,M,M,M,M,M,M,M,M,M,M,M,M,M,M,85.02,HSSK 261830Z 34018KT 6000 32/M03 Q1011 NOSIG
HSSK,2021-03-26 19:00,32.5530,15.5890,390.08,87.80,24.80,10.12,340.00,18.00,0.00,29.85,M,4.97,M,M,M,M,M,M,M,M,M,M,M,M,M,M,M,M,83.56,HSSK 261900Z 34018KT 8000 31/M04 Q1011 NOSIG
HSSK,2021-03-26 19:30,32.5530,15.5890,390.08,86.00,21.20,9.21,340.00,18.00,0.00,29.88,M,4.97,M,M,M,M,M,M,M,M,M,M,M,M,M,M,M,M,82.04,HSSK 261930Z 34018KT 8000 30/M06 Q1012 NOSIG
HSSK,2021-03-26 20:00,32.5530,15.5890,390.08,86.00,21.20,9.21,340.00,16.00,0.00,29.88,M,4.97,M,M,M,M,M,M,M,M,M,M,M,M,M,M,M,M,82.04,HSSK 262000Z 34016KT 8000 30/M06 Q1012 NOSIG
HSSK,2021-03-26 20:30,32.5530,15.5890,390.08,84.20,23.00,10.53,340.00,17.00,0.00,29.88,M,6.21,M,M,M,M,M,M,M,M,M,M,M,M,M,M,M,M,80.88,HSSK 262030Z 34017KT CAVOK 29/M05 Q1012 NOSIG
HSSK,2021-03-26 21:00,32.5530,15.5890,390.08,82.40,19.40,9.58,330.00,18.00,0.00,29.88,M,6.21,M,M,M,M,M,M,M,M,M,M,M,M,M,M,M,M,79.45,HSSK 262100Z 33018KT CAVOK 28/M07 Q1012 NOSIG
HSSK,2021-03-27 04:30,32.5530,15.5890,390.08,69.80,24.80,18.30,350.00,15.00,0.00,29.91,M,4.97,M,M,M,M,M,M,M,M,M,M,M,M,M,M,M,M,M,HSSK 270430Z 35015KT 8000 21/M04 Q1013 NOSIG
HSSK,2021-03-27 05:00,32.5530,15.5890,390.08,69.80,24.80,18.30,340.00,14.00,0.00,29.91,M,6.21,M,M,M,M,M,M,M,M,M,M,M,M,M,M,M,M,M,HSSK 270500Z 34014KT CAVOK 21/M04 Q1013 NOSIG
HSSK,2021-03-27 05:30,32.5530,15.5890,390.08,71.60,24.80,17.22,350.00,16.00,0.00,29.94,M,6.21,M,M,M,M,M,M,M,M,M,M,M,M,M,M,M,M,M,HSSK 270530Z 35016KT CAVOK 22/M04 Q1014 NOSIG
HSSK,2021-03-27 06:00,32.5530,15.5890,390.08,73.40,21.20,13.93,340.00,18.00,0.00,29.94,M,6.21,28.00,M,M,M,M,M,M,M,M,M,M,M,M,M,M,M,M,HSSK 270600Z 34018G28KT CAVOK 23/M06 Q1014 NOSIG
HSSK,2021-03-27 06:30,32.5530,15.5890,390.08,75.20,23.00,14.15,340.00,17.00,0.00,29.94,M,6.21,M,M,M,M,M,M,M,M,M,M,M,M,M,M,M,M,M,HSSK 270630Z 34017KT CAVOK 24/M05 Q1014 NOSIG
HSSK,2021-03-27 07:00,32.5530,15.5890,390.08,77.00,23.00,13.32,350.00,18.00,0.00,29.97,M,6.21,M,M,M,M,M,M,M,M,M,M,M,M,M,M,M,M,M,HSSK 270700Z 35018KT CAVOK 25/M05 Q1015 NOSIG
HSSK,2021-03-27 07:30,32.5530,15.5890,390.08,78.80,24.80,13.54,360.00,18.00,0.00,29.97,M,6.21,M,M,M,M,M,M,M,M,M,M,M,M,M,M,M,M,M,HSSK 270730Z 36018KT CAVOK 26/M04 Q1015 NOSIG
HSSK,2021-03-27 08:00,32.5530,15.5890,390.08,80.60,23.00,11.83,360.00,19.00,0.00,29.97,M,6.21,M,M,M,M,M,M,M,M,M,M,M,M,M,M,M,M,78.80,HSSK 270800Z 36019KT CAVOK 27/M05 Q1015 NOSIG
HSSK,2021-03-27 08:30,32.5530,15.5890,390.08,82.40,26.60,12.97,360.00,16.00,0.00,29.97,M,6.21,M,M,M,M,M,M,M,M,M,M,M,M,M,M,M,M,79.92,HSSK 270830Z 36016KT CAVOK 28/M03 Q1015 NOSIG
HSSK,2021-03-27 09:00,32.5530,15.5890,390.08,84.20,33.80,16.39,360.00,16.00,0.00,29.94,M,6.21,M,M,M,M,M,M,M,M,M,M,M,M,M,M,M,M,81.30,HSSK 270900Z 36016KT CAVOK 29/01 Q1014 NOSIG
HSSK,2021-03-27 09:30,32.5530,15.5890,390.08,86.00,30.20,13.38,10.00,14.00,0.00,29.94,M,6.21,M,M,M,M,M,M,M,M,M,M,M,M,M,M,M,M,82.64,HSSK 270930Z 01014KT CAVOK 30/M01 Q1014 NOSIG
HSSK,2021-03-27 10:00,32.5530,15.5890,390.08,87.80,30.20,12.64,340.00,16.00,0.00,29.91,M,6.21,M,M,M,M,M,M,M,M,M,M,M,M,M,M,M,M,84.01,HSSK 271000Z 34016KT CAVOK 31/M01 Q1013 NOSIG
HSSK,2021-03-27 10:30,32.5530,15.5890,390.08,89.60,33.80,13.80,340.00,14.00,0.00,29.91,M,3.73,M,M,M,M,M,M,M,M,M,M,M,M,M,M,M,M,85.59,HSSK 271030Z 34014KT 6000 32/01 Q1013 TEMPO 4000 BLSA
HSSK,2021-03-27 11:00,32.5530,15.5890,390.08,91.40,35.60,14.02,340.00,19.00,0.00,29.88,M,1.55,32.00,M,M,M,M,M,M,M,M,BLSA,M,M,M,M,M,M,87.17,HSSK 271100Z 34019G32KT 2500 BLSA 33/02 Q1012 TEMPO 1500 BLSA
HSSK,2021-03-27 11:30,32.5530,15.5890,390.08,91.40,33.80,13.05,350.00,17.00,0.00,29.88,M,1.55,M,M,M,M,M,M,M,M,M,BLSA,M,M,M,M,M,M,87.13,HSSK 271130Z 35017KT 2500 BLSA 33/01 Q1012 NOSIG
HSSK,2021-03-27 12:00,32.5530,15.5890,390.08,93.20,33.80,12.34,340.00,16.00,0.00,29.85,M,0.93,M,M,M,M,M,M,M,M,M,BLSA,M,M,M,M,M,M,88.55,HSSK 271200Z 34016KT 1500 BLSA 34/01 Q1011 NOSIG
HSSK,2021-03-27 12:30,32.5530,15.5890,390.08,95.00,33.80,11.67,350.00,17.00,0.00,29.85,M,0.93,M,M,M,M,M,M,M,M,M,BLSA,M,M,M,M,M,M,89.97,HSSK 271230Z 35017KT 1500M BLSA 35/01 Q1011 NOSIG
HSSK,2021-03-27 13:00,32.5530,15.5890,390.08,95.00,33.80,11.67,350.00,21.00,0.00,29.85,M,0.93,M,M,M,M,M,M,M,M,M,BLSA,M,M,M,M,M,M,89.97,HSSK 271300Z 35021KT 1500M BLSA 35/01 Q1011 NOSIG
HSSK,2021-03-27 13:30,32.5530,15.5890,390.08,95.00,33.80,11.67,360.00,17.00,0.00,29.83,M,0.93,M,M,M,M,M,M,M,M,M,BLSA,M,M,M,M,M,M,89.97,HSSK 271330Z 36017KT 1500M BLSA 35/01 Q1010 NOSIG
HSSK,2021-03-27 14:00,32.5530,15.5890,390.08,95.00,30.20,10.09,360.00,19.00,0.00,29.83,M,0.93,M,M,M,M,M,M,M,M,M,BLSA,M,M,M,M,M,M,89.48,HSSK 271400Z 36019KT 1500M BLSA 35/M01 Q1010 NOSIG
HSSK,2021-03-27 14:30,32.5530,15.5890,390.08,95.00,30.20,10.09,360.00,17.00,0.00,29.83,M,0.93,M,M,M,M,M,M,M,M,M,BLSA,M,M,M,M,M,M,89.48,HSSK 271430Z 36017KT 1500M BLSA 35/M01 Q1010 NOSIG
HSSK,2021-03-27 15:00,32.5530,15.5890,390.08,93.20,33.80,12.34,360.00,17.00,0.00,29.83,M,0.93,M,M,M,M,M,M,M,M,M,BLSA,M,M,M,M,M,M,88.55,HSSK 271500Z 36017KT 1500M BLSA 34/01 Q1010 NOSIG
HSSK,2021-03-27 15:30,32.5530,15.5890,390.08,93.20,30.20,10.67,360.00,17.00,0.00,29.85,M,1.55,M,M,M,M,M,M,M,M,M,BLSA,M,M,M,M,M,M,88.09,HSSK 271530Z 36017KT 2500M BLSA 34/M01 Q1011 NOSIG
HSSK,2021-03-27 16:00,32.5530,15.5890,390.08,91.40,30.20,11.28,350.00,13.00,0.00,29.85,M,1.55,M,M,M,M,M,M,M,M,M,BLSA,M,M,M,M,M,M,86.71,HSSK 271600Z 35013KT 2500M BLSA 33/M01 Q1011 NOSIG
HSSK,2021-03-27 16:15,32.5530,15.5890,390.08,91.40,30.20,11.28,350.00,13.00,0.00,29.85,M,3.73,M,M,M,M,M,M,M,M,M,M,M,M,M,M,M,M,86.71,HSSK 271615Z 35013KT 6000 33/M01 Q1011 NOSIG
HSSK,2021-03-27 16:30,32.5530,15.5890,390.08,89.60,30.20,11.94,350.00,10.00,0.00,29.88,M,4.97,M,M,M,M,M,M,M,M,M,M,M,M,M,M,M,M,85.34,HSSK 271630Z 35010KT 8000 32/M01 Q1012 NOSIG
HSSK,2021-03-27 17:00,32.5530,15.5890,390.08,89.60,28.40,11.09,350.00,13.00,0.00,29.88,M,6.21,M,M,M,M,M,M,M,M,M,M,M,M,M,M,M,M,85.17,HSSK 271700Z 35013KT CAVOK 32/M02 Q1012 NOSIG
HSSK,2021-03-27 17:30,32.5530,15.5890,390.08,87.80,26.60,10.91,340.00,16.00,0.00,29.88,M,6.21,M,M,M,M,M,M,M,M,M,M,M,M,M,M,M,M,83.69,HSSK 271730Z 34016KT CAVOK 31/M03 Q1012 NOSIG
HSSK,2021-03-27 18:00,32.5530,15.5890,390.08,87.80,26.60,10.91,350.00,18.00,0.00,29.88,M,6.21,M,M,M,M,M,M,M,M,M,M,M,M,M,M,M,M,83.69,HSSK 271800Z 35018KT CAVOK 31/M03 Q1012 NOSIG
HSSK,2021-03-27 18:30,32.5530,15.5890,390.08,86.00,21.20,9.21,340.00,12.00,0.00,29.91,M,6.21,M,M,M,M,M,M,M,M,M,M,M,M,M,M,M,M,82.04,HSSK 271830Z 34012KT CAVOK 30/M06 Q1013 NOSIG
HSSK,2021-03-27 19:00,32.5530,15.5890,390.08,84.20,24.80,11.35,340.00,14.00,0.00,29.91,M,6.21,M,M,M,M,M,M,M,M,M,M,M,M,M,M,M,M,81.00,HSSK 271900Z 34014KT CAVOK 29/M04 Q1013 NOSIG
HSSK,2021-03-27 19:30,32.5530,15.5890,390.08,84.20,24.80,11.35,330.00,18.00,0.00,29.94,M,6.21,M,M,M,M,M,M,M,M,M,M,M,M,M,M,M,M,81.00,HSSK 271930Z 33018KT CAVOK 29/M04 Q1014 NOSIG
HSSK,2021-03-27 20:00,32.5530,15.5890,390.08,82.40,23.00,11.16,350.00,11.00,0.00,29.94,M,6.21,M,M,M,M,M,M,M,M,M,M,M,M,M,M,M,M,79.67,HSSK 272000Z 35011KT CAVOK 28/M05 Q1014 NOSIG
HSSK,2021-03-27 20:30,32.5530,15.5890,390.08,80.60,23.00,11.83,330.00,18.00,0.00,29.94,M,6.21,M,M,M,M,M,M,M,M,M,M,M,M,M,M,M,M,78.80,HSSK 272030Z 33018KT CAVOK 27/M05 Q1014 NOSIG
HSSK,2021-03-27 21:00,32.5530,15.5890,390.08,80.60,23.00,11.83,330.00,17.00,0.00,29.94,M,6.21,M,M,M,M,M,M,M,M,M,M,M,M,M,M,M,M,78.80,HSSK 272100Z 33017KT CAVOK 27/M05 Q1014 NOSIG
HSSK,2021-03-27 21:30,32.5530,15.5890,390.08,78.80,21.20,11.64,340.00,15.00,0.00,29.91,M,6.21,M,M,M,M,M,M,M,M,M,M,M,M,M,M,M,M,M,HSSK 272130Z 34015KT CAVOK 26/M06 Q1013 NOSIG
HSSK,2021-03-27 22:00,32.5530,15.5890,390.08,77.00,23.00,13.32,340.00,15.00,0.00,29.91,M,6.21,M,M,M,M,M,M,M,M,M,M,M,M,M,M,M,M,M,HSSK 272200Z 34015KT CAVOK 25/M05 Q1013 NOSIG
HSSK,2021-03-27 22:30,32.5530,15.5890,390.08,77.00,23.00,13.32,340.00,16.00,0.00,29.91,M,6.21,M,M,M,M,M,M,M,M,M,M,M,M,M,M,M,M,M,HSSK 272230Z 34016KT CAVOK 25/M05 Q1013 NOSIG
HSSK,2021-03-27 23:00,32.5530,15.5890,390.08,75.20,26.60,16.43,343.00,16.00,0.00,29.91,M,6.21,M,M,M,M,M,M,M,M,M,M,M,M,M,M,M,M,M,HSSK 272300Z 343016KT CAVOK 24/M03 Q1013 NOSIG
HSSK,2021-03-27 23:30,32.5530,15.5890,390.08,75.20,26.60,16.43,340.00,18.00,0.00,29.91,M,6.21,M,M,M,M,M,M,M,M,M,M,M,M,M,M,M,M,M,HSSK 272330Z 34018KT CAVOK 24/M03 Q1013 NOSIG
HSSK,2021-03-28 00:00,32.5530,15.5890,390.08,73.40,21.20,13.93,330.00,14.00,0.00,29.91,M,6.21,M,M,M,M,M,M,M,M,M,M,M,M,M,M,M,M,M,HSSK 280000Z 33014KT CAVOK 23/M06 Q1013 NOSIG
HSSK,2021-03-28 00:30,32.5530,15.5890,390.08,73.40,26.60,17.46,350.00,16.00,0.00,29.91,M,6.21,M,M,M,M,M,M,M,M,M,M,M,M,M,M,M,M,M,HSSK 280030Z 35016KT CAVOK 23/M03 Q1013 NOSIG
HSSK,2021-03-28 01:00,32.5530,15.5890,390.08,71.60,24.80,17.22,350.00,14.00,0.00,29.91,M,6.21,M,M,M,M,M,M,M,M,M,M,M,M,M,M,M,M,M,HSSK 280100Z 35014KT CAVOK 22/M04 Q1013 NOSIG
HSSK,2021-03-28 01:30,32.5530,15.5890,390.08,71.60,26.60,18.55,330.00,20.00,0.00,29.91,M,4.97,M,M,M,M,M,M,M,M,M,M,M,M,M,M,M,M,M,HSSK 280130Z 33020KT 8000 22/M03 Q1013 NOSIG
HSSK,2021-03-28 02:00,32.5530,15.5890,390.08,69.80,24.80,18.30,350.00,21.00,0.00,29.91,M,3.73,M,M,M,M,M,M,M,M,M,M,M,M,M,M,M,M,M,HSSK 280200Z 35021KT 6000 21/M04 Q1013 TEMPO 4000 BLSA
HSSK,2021-03-28 02:30,32.5530,15.5890,390.08,69.80,24.80,18.30,330.00,23.00,0.00,29.91,M,3.73,M,M,M,M,M,M,M,M,M,M,M,M,M,M,M,M,M,HSSK 280230Z 33023KT 6000 21/M04 Q1013 NOSIG
HSSK,2021-03-28 03:00,32.5530,15.5890,390.08,69.80,24.80,18.30,350.00,18.00,0.00,29.94,M,3.73,M,M,M,M,M,M,M,M,M,M,M,M,M,M,M,M,M,HSSK 280300Z 35018KT 6000 21/M04 Q1014 NOSIG
HSSK,2021-03-28 03:30,32.5530,15.5890,390.08,68.00,23.00,18.06,350.00,18.00,0.00,29.94,M,2.49,M,M,M,M,M,M,M,M,M,M,M,M,M,M,M,M,M,HSSK 280330Z 35018KT 4000 20/M05 Q1014 NOSIG
HSSK,2021-03-28 04:00,32.5530,15.5890,390.08,68.00,19.40,15.50,350.00,18.00,0.00,29.94,M,0.62,M,M,M,M,M,M,M,M,M,M,M,M,M,M,M,M,M,HSSK 280400Z 35018KT 1000 20/M07 Q1014 NOSIG
HSSK,2021-03-28 04:30,32.5530,15.5890,390.08,68.00,19.40,15.50,330.00,18.00,0.00,29.97,M,0.62,M,M,M,M,M,M,M,M,M,SA,M,M,M,M,M,M,M,HSSK 280430Z 33018KT 1000 SA 20/M07 Q1015 NOSIG
HSSK,2021-03-28 05:00,32.5530,15.5890,390.08,68.00,15.80,13.27,330.00,23.00,0.00,29.97,M,0.62,M,M,M,M,M,M,M,M,M,BLSA,M,M,M,M,M,M,M,HSSK 280500Z 33023KT 1000 BLSA 20/M09 Q1015 NOSIG
HSSK,2021-03-28 05:30,32.5530,15.5890,390.08,68.00,19.40,15.50,330.00,23.00,0.00,29.97,M,0.50,M,M,M,M,M,M,M,M,M,DS,M,M,M,M,M,M,M,HSSK 280530Z 33023KT 0800M DS 20/M07 Q1015 NOSIG
HSSK,2021-03-28 06:00,32.5530,15.5890,390.08,69.80,21.20,15.73,330.00,18.00,0.00,29.97,M,0.50,M,M,M,M,M,M,M,M,M,DS,M,M,M,M,M,M,M,HSSK 280600Z 33018KT 0800M DS 21/M06 Q1015 NOSIG
HSSK,2021-03-28 06:30,32.5530,15.5890,390.08,71.60,21.20,14.80,330.00,22.00,0.00,30.00,M,0.50,M,M,M,M,M,M,M,M,M,DS,M,M,M,M,M,M,M,HSSK 280630Z 33022KT 0800M DS 22/M06 Q1016 NOSIG
HSSK,2021-03-28 07:00,32.5530,15.5890,390.08,73.40,21.20,13.93,330.00,20.00,0.00,30.00,M,0.50,M,M,M,M,M,M,M,M,M,DS,M,M,M,M,M,M,M,HSSK 280700Z 33020KT 0800M DS 23/M06 Q1016 NOSIG
HSSK,2021-03-28 07:30,32.5530,15.5890,390.08,75.20,26.60,16.43,10.00,17.00,0.00,30.00,M,0.50,M,M,M,M,M,M,M,M,M,M,M,M,M,M,M,M,M,HSSK 280730Z 01017KT 0800M 24/M03 Q1016 NOSIG
HSSK,2021-03-28 08:00,32.5530,15.5890,390.08,77.00,30.20,17.94,320.00,17.00,0.00,30.00,M,0.50,M,M,M,M,M,M,M,M,M,DS,M,M,M,M,M,M,M,HSSK 280800Z 32017KT 0800M DS 25/M01 Q1016 NOSIG
HSSK,2021-03-28 08:30,32.5530,15.5890,390.08,78.80,26.60,14.59,350.00,17.00,0.00,30.00,M,0.50,M,M,M,M,M,M,M,M,M,DS,M,M,M,M,M,M,M,HSSK 280830Z 35017KT 0800M DS 26/M03 Q1016 NOSIG
HSSK,2021-03-28 09:00,32.5530,15.5890,390.08,80.60,32.00,17.14,340.00,18.00,0.00,30.00,M,0.50,M,M,M,M,M,M,M,M,M,DS,M,M,M,M,M,M,78.82,HSSK 280900Z 34018KT 0800M DS 27/00 Q1016 NOSIG
HSSK,2021-03-28 09:30,32.5530,15.5890,390.08,84.20,33.80,16.39,360.00,16.00,0.00,29.97,M,0.50,M,M,M,M,M,M,M,M,M,DS,M,M,M,M,M,M,81.30,HSSK 280930Z 36016KT 0800M DS 29/01 Q1015 NOSIG
HSSK,2021-03-28 10:00,32.5530,15.5890,390.08,86.00,30.20,13.38,360.00,16.00,0.00,29.97,M,0.50,M,M,M,M,M,M,M,M,M,DS,M,M,M,M,M,M,82.64,HSSK 281000Z 36016KT 0800M DS 30/M01 Q1015 NOSIG
HSSK,2021-03-28 11:00,32.5530,15.5890,390.08,89.60,32.00,12.84,10.00,12.00,0.00,29.91,M,0.93,M,M,M,M,M,M,M,M,M,DS,M,M,M,M,M,M,85.54,HSSK 281100Z 01012KT 1500M DS 32/00 Q1013 NOSIG
HSSK,2021-03-28 11:30,32.5530,15.5890,390.08,89.60,32.00,12.84,330.00,11.00,0.00,29.91,M,0.93,M,M,M,M,M,M,M,M,M,DS,M,M,M,M,M,M,85.54,HSSK 281130Z 33011KT 1500M DS 32/00 Q1013 NOSIG
HSSK,2021-03-28 12:00,32.5530,15.5890,390.08,91.40,32.00,12.14,350.00,19.00,0.00,29.88,M,0.93,M,M,M,M,M,M,M,M,M,DS,M,M,M,M,M,M,86.91,HSSK 281200Z 35019KT 1500M DS 33/00 Q1012 NOSIG
HSSK,2021-03-28 12:30,32.5530,15.5890,390.08,91.40,32.00,12.14,350.00,16.00,0.00,29.88,M,0.93,M,M,M,M,M,M,M,M,M,BLSA,M,M,M,M,M,M,86.91,HSSK 281230Z 35016KT 1500M BLSA 33/00 Q1012 NOSIG
HSSK,2021-03-28 16:00,32.5530,15.5890,390.08,87.80,26.60,10.91,330.00,14.00,0.00,29.88,M,3.11,M,M,M,M,M,M,M,M,M,M,M,M,M,M,M,M,83.69,HSSK 281600Z 33014KT 5000 31/M03 Q1012 NOSIG
HSSK,2021-03-28 16:30,32.5530,15.5890,390.08,86.00,26.60,11.55,340.00,14.00,0.00,29.88,M,4.97,M,M,M,M,M,M,M,M,M,M,M,M,M,M,M,M,82.39,HSSK 281630Z 34014KT 8000 30/M03 Q1012 NOSIG
HSSK,2021-03-28 17:00,32.5530,15.5890,390.08,86.00,24.80,10.72,340.00,12.00,0.00,29.88,M,4.97,M,M,M,M,M,M,M,M,M,M,M,M,M,M,M,M,82.26,HSSK 281700Z 34012KT 8000 30/M04 Q1012 NOSIG
HSSK,2021-03-28 17:30,32.5530,15.5890,390.08,84.20,23.00,10.53,310.00,12.00,0.00,29.91,M,4.97,M,M,M,M,M,M,M,M,M,M,M,M,M,M,M,M,80.88,HSSK 281730Z 31012KT 8000 29/M05 Q1013 NOSIG
HSSK,2021-03-28 18:00,32.5530,15.5890,390.08,84.20,24.80,11.35,M,M,0.00,29.91,M,6.21,M,M,M,M,M,M,M,M,M,M,M,M,M,M,M,M,M,HSSK 281800Z 3401KT CAVOK 29/M04 Q1013 NOSIG
HSSK,2021-03-28 18:30,32.5530,15.5890,390.08,82.40,21.20,10.34,330.00,16.00,0.00,29.94,M,6.21,M,M,M,M,M,M,M,M,M,M,M,M,M,M,M,M,79.55,HSSK 281830Z 33016KT CAVOK 28/M06 Q1014 NOSIG
HSSK,2021-03-28 19:00,32.5530,15.5890,390.08,80.60,12.20,7.43,330.00,15.00,0.00,29.94,M,6.21,M,M,M,M,M,M,M,M,M,M,M,M,M,M,M,M,78.16,HSSK 281900Z 33015KT CAVOK 27/M11 Q1014 NOSIG
HSSK,2021-03-28 21:00,32.5530,15.5890,390.08,78.80,17.60,9.98,320.00,12.00,0.00,29.94,M,6.21,M,M,M,M,M,M,M,M,M,M,M,M,M,M,M,M,M,HSSK 282100Z 32012KT CAVOK 26/M08 1014 NOSIG
HSSK,2021-03-29 00:30,32.5530,15.5890,390.08,73.40,15.80,11.05,340.00,16.00,0.00,29.91,M,6.21,M,M,M,M,M,M,M,M,M,M,M,M,M,M,M,M,M,HSSK 290030Z 34016KT CAVOK 23/M09 Q1013 NOSIG
HSSK,2021-03-29 01:00,32.5530,15.5890,390.08,71.60,15.80,11.74,350.00,16.00,0.00,29.88,M,6.21,M,M,M,M,M,M,M,M,M,M,M,M,M,M,M,M,M,HSSK 290100Z 35016KT CAVOK 22/M09 Q1012 NOSIG
HSSK,2021-03-29 01:30,32.5530,15.5890,390.08,71.60,17.60,12.69,340.00,17.00,0.00,29.88,M,6.21,M,M,M,M,M,M,M,M,M,M,M,M,M,M,M,M,M,HSSK 290130Z 34017KT CAVOK 22/M08 Q1012 NOSIG
HSSK,2021-03-29 02:00,32.5530,15.5890,390.08,69.80,15.80,12.48,340.00,18.00,0.00,29.88,M,6.21,M,M,M,M,M,M,M,M,M,M,M,M,M,M,M,M,M,HSSK 290200Z 34018KT CAVOK 21/M09 Q1012 NOSIG
HSSK,2021-03-29 02:30,32.5530,15.5890,390.08,69.80,15.80,12.48,340.00,17.00,0.00,29.88,M,6.21,M,M,M,M,M,M,M,M,M,M,M,M,M,M,M,M,M,HSSK 290230Z 34017KT CAVOK 21/M09 Q1012 NOSIG
HSSK,2021-03-29 03:00,32.5530,15.5890,390.08,69.80,21.20,15.73,330.00,16.00,0.00,29.88,M,6.21,M,M,M,M,M,M,M,M,M,M,M,M,M,M,M,M,M,HSSK 290300Z 33016KT CAVOK 21/M06 Q1012 NOSIG
HSSK,2021-03-29 03:30,32.5530,15.5890,390.08,69.80,21.20,15.73,350.00,19.00,0.00,29.91,M,6.21,M,M,M,M,M,M,M,M,M,M,M,M,M,M,M,M,M,HSSK 290330Z 35019KT CAVOK 21/M06 Q1013 NOSIG
HSSK,2021-03-29 04:30,32.5530,15.5890,390.08,68.00,21.20,16.74,340.00,14.00,0.00,29.91,M,6.21,M,M,M,M,M,M,M,M,M,M,M,M,M,M,M,M,M,HSSK 290430Z 34014KT CAVOK 20/M06 Q1013 NOSIG
HSSK,2021-03-29 12:30,32.5530,15.5890,390.08,93.20,41.00,16.37,10.00,15.00,0.00,29.83,M,6.21,M,M,M,M,M,M,M,M,M,M,M,M,M,M,M,M,89.03,HSSK 291230Z 01015KT CAVOK 34/05 Q1010 NOSIG
HSSK,2021-03-29 13:00,32.5530,15.5890,390.08,95.00,37.40,13.46,360.00,16.00,0.00,29.80,M,6.21,M,M,M,M,M,M,M,M,M,M,M,M,M,M,M,M,90.46,HSSK 291300Z 36016KT CAVOK 35/03 Q1009 NOSIG
HSSK,2021-03-29 13:30,32.5530,15.5890,390.08,93.20,33.80,12.34,340.00,14.00,0.00,29.80,M,6.21,M,M,M,M,M,M,M,M,M,M,M,M,M,M,M,M,88.55,HSSK 291330Z 34014KT CAVOK 34/01 Q1009 NOSIG
HSSK,2021-03-29 14:00,32.5530,15.5890,390.08,93.20,33.80,12.34,330.00,14.00,0.00,29.80,M,6.21,M,M,M,M,M,M,M,M,M,M,M,M,M,M,M,M,88.55,HSSK 291400Z 33014KT CAVOK 34/01 Q1009 NOSIG
HSSK,2021-03-29 15:00,32.5530,15.5890,390.08,91.40,35.60,14.02,340.00,14.00,0.00,29.80,M,6.21,M,M,M,M,M,M,M,M,M,M,M,M,M,M,M,M,87.17,HSSK 291500Z 34014KT CAVOK 33/02 Q1009 NOSIG
HSSK,2021-03-29 15:30,32.5530,15.5890,390.08,91.40,35.60,14.02,320.00,14.00,0.00,29.80,M,6.21,M,M,M,M,M,M,M,M,M,M,M,M,M,M,M,M,87.17,HSSK 291530Z 32014KT CAVOK 33/02 Q1009 NOSIG
HSSK,2021-03-30 03:30,32.5530,15.5890,390.08,69.80,21.20,15.73,330.00,12.00,0.00,29.85,M,6.21,M,M,M,M,M,M,M,M,M,M,M,M,M,M,M,M,M,HSSK 300330Z 33012KT CAVOK 21/M06 Q1011 NOSIG
HSSK,2021-03-30 04:00,32.5530,15.5890,390.08,69.80,21.20,15.73,340.00,13.00,0.00,29.88,M,6.21,M,M,M,M,M,M,M,M,M,M,M,M,M,M,M,M,M,HSSK 300400Z 34013KT CAVOK 21/M06 Q1012 NOSIG
HSSK,2021-03-30 04:30,32.5530,15.5890,390.08,69.80,28.40,21.24,330.00,12.00,0.00,29.88,M,6.21,M,M,M,M,M,M,M,M,M,M,M,M,M,M,M,M,M,HSSK 300430Z 33012KT CAVOK 21/M02 Q1012 NOSIG
HSSK,2021-03-31 07:30,32.5530,15.5890,390.08,78.80,24.80,13.54,360.00,9.00,0.00,29.97,M,6.21,M,M,M,M,M,M,M,M,M,M,M,M,M,M,M,M,M,HSSK 310730Z 36009KT CAVOK 26/M04 Q1015 NOSIG
HSSK,2021-03-31 08:00,32.5530,15.5890,390.08,82.40,24.80,12.03,360.00,12.00,0.00,29.97,M,6.21,M,M,M,M,M,M,M,M,M,M,M,M,M,M,M,M,79.79,HSSK 310800Z 36012KT CAVOK 28/M04 Q1015 NOSIG
HSSK,2021-03-31 08:30,32.5530,15.5890,390.08,80.60,24.80,12.76,360.00,9.00,0.00,29.94,M,6.21,M,M,M,M,M,M,M,M,M,M,M,M,M,M,M,M,78.94,HSSK 310830Z 36009KT CAVOK 27/M04 Q1014 NOSIG
HSSK,2021-03-31 09:00,32.5530,15.5890,390.08,82.40,28.40,13.96,360.00,12.00,0.00,29.94,M,6.21,M,M,M,M,M,M,M,M,M,M,M,M,M,M,M,M,79.94,HSSK 310900Z 36012KT CAVOK 28/M02 Q1014 NOSIG
HSSK,2021-03-31 09:30,32.5530,15.5890,390.08,84.20,28.40,13.18,360.00,9.00,0.00,29.94,M,6.21,M,M,M,M,M,M,M,M,M,M,M,M,M,M,M,M,81.25,HSSK 310930Z 36009KT CAVOK 29/M02 Q1014 NOSIG
HSSK,2021-03-31 10:00,32.5530,15.5890,390.08,86.00,23.00,9.94,340.00,12.00,0.00,29.91,M,6.21,M,M,M,M,M,M,M,M,M,M,M,M,M,M,M,M,82.14,HSSK 311000Z 34012KT CAVOK 30/M05 Q1013 NOSIG
HSSK,2021-03-31 10:30,32.5530,15.5890,390.08,87.80,26.60,10.91,330.00,12.00,0.00,29.91,M,6.21,M,M,M,M,M,M,M,M,M,M,M,M,M,M,M,M,83.69,HSSK 311030Z 33012KT CAVOK 31/M03 Q1013 NOSIG
HSSK,2021-03-31 11:00,32.5530,15.5890,390.08,87.80,26.60,10.91,360.00,12.00,0.00,29.88,M,6.21,M,M,M,M,M,M,M,M,M,M,M,M,M,M,M,M,83.69,HSSK 311100Z 36012KT CAVOK 31/M03 Q1012 NOSIG
HSSK,2021-03-31 11:30,32.5530,15.5890,390.08,91.40,26.60,9.74,300.00,10.00,0.00,29.85,M,6.21,M,M,M,M,M,M,M,M,M,M,M,M,M,M,M,M,86.36,HSSK 311130Z 30010KT CAVOK 33/M03 Q1011 NOSIG
HSSK,2021-03-31 12:00,32.5530,15.5890,390.08,91.40,28.40,10.48,360.00,10.00,0.00,29.85,M,6.21,M,M,M,M,M,M,M,M,M,M,M,M,M,M,M,M,86.53,HSSK 311200Z 36010KT CAVOK 33/M02 Q1011 NOSIG
HSSK,2021-03-31 12:30,32.5530,15.5890,390.08,91.40,21.20,7.77,350.00,13.00,0.00,29.83,M,6.21,M,M,M,M,M,M,M,M,M,M,M,M,M,M,M,M,85.96,HSSK 311230Z 35013KT CAVOK 33/M06 Q1010 NOSIG
HSSK,2021-03-31 17:30,32.5530,15.5890,390.08,84.20,21.20,9.76,310.00,8.00,0.00,29.85,M,6.21,M,M,M,M,M,M,M,M,M,M,M,M,M,M,M,M,80.77,HSSK 311730Z 31008KT CAVOK 29/M06 Q1011 NOSIG
HSSK,2021-04-01 08:00,32.5530,15.5890,390.08,82.40,23.00,11.16,340.00,8.00,0.00,2.98,M,6.21,M,M,M,M,M,M,M,M,M,M,M,M,M,M,M,M,79.67,HSSK 010800Z 34008KT CAVOK 28/M05 Q101 NOSIG
HSSK,2021-04-01 09:30,32.5530,15.5890,390.08,87.80,21.20,8.70,340.00,13.00,0.00,29.88,M,6.21,M,M,M,M,M,M,M,M,M,M,M,M,M,M,M,M,83.33,HSSK 010930Z 34013KT CAVOK 31/M06 Q1012 NOSIG
HSSK,2021-04-01 10:00,32.5530,15.5890,390.08,91.40,17.60,6.66,340.00,13.00,0.00,29.91,M,6.21,M,M,M,M,M,M,M,M,M,M,M,M,M,M,M,M,85.76,HSSK 011000Z 34013KT CAVOK 33/M08 Q1013 NOSIG
HSSK,2021-04-01 10:30,32.5530,15.5890,390.08,95.00,17.60,5.96,360.00,11.00,0.00,29.85,M,6.21,M,M,M,M,M,M,M,M,M,M,M,M,M,M,M,M,88.39,HSSK 011030Z 36011KT CAVOK 35/M08 Q1011 NOSIG
HSSK,2021-04-01 11:00,32.5530,15.5890,390.08,93.20,15.80,5.82,340.00,9.00,0.00,29.88,M,6.21,M,M,M,M,M,M,M,M,M,M,M,M,M,M,M,M,86.99,HSSK 011100Z 34009KT CAVOK 34/M09 Q1012 NOSIG
HSSK,2021-04-01 12:00,32.5530,15.5890,390.08,95.00,19.40,6.43,360.00,9.00,0.00,29.85,M,6.21,M,M,M,M,M,M,M,M,M,M,M,M,M,M,M,M,88.50,HSSK 011200Z 36009KT CAVOK 35/M07 Q1011 NOSIG
HSSK,2021-04-01 12:30,32.5530,15.5890,390.08,95.00,19.40,6.43,360.00,9.00,0.00,29.85,M,6.21,M,M,M,M,M,M,M,M,M,M,M,M,M,M,M,M,88.50,HSSK 011230Z 36009KT CAVOK 35/M07 Q1011 NOSIG
HSSK,2021-04-01 13:00,32.5530,15.5890,390.08,96.80,19.40,6.09,360.00,14.00,0.00,29.83,M,6.21,M,M,M,M,M,M,M,M,M,M,M,M,M,M,M,M,89.99,HSSK 011300Z 36014KT CAVOK 36/M07 Q1010 NOSIG
HSSK,2021-04-01 13:30,32.5530,15.5890,390.08,96.80,15.80,5.21,360.00,12.00,0.00,29.83,M,6.21,M,M,M,M,M,M,M,M,M,M,M,M,M,M,M,M,89.78,HSSK 011330Z 36012KT CAVOK 36/M09 Q1010 NOSIG
HSSK,2021-04-01 14:00,32.5530,15.5890,390.08,96.80,19.40,6.09,350.00,13.00,0.00,29.83,M,6.21,M,M,M,M,M,M,M,M,M,M,M,M,M,M,M,M,89.99,HSSK 011400Z 35013KT CAVOK 36/M07 Q1010 NOSIG
HSSK,2021-04-01 14:30,32.5530,15.5890,390.08,95.00,19.40,6.43,340.00,12.00,0.00,29.83,M,6.21,M,M,M,M,M,M,M,M,M,M,M,M,M,M,M,M,88.50,HSSK 011430Z 34012KT CAVOK 35/M07 Q1010 NOSIG
HSSK,2021-04-01 15:00,32.5530,15.5890,390.08,95.00,19.40,6.43,360.00,13.00,0.00,29.83,M,6.21,M,M,M,M,M,M,M,M,M,M,M,M,M,M,M,M,88.50,HSSK 011500Z 36013KT CAVOK 35/M07 Q1010 NOSIG
HSSK,2021-04-01 15:30,32.5530,15.5890,390.08,93.20,17.60,6.30,360.00,11.00,0.00,29.85,M,6.21,M,M,M,M,M,M,M,M,M,M,M,M,M,M,M,M,87.08,HSSK 011530Z 36011KT CAVOK 34/M08 Q1011 NOSIG
HSSK,2021-04-01 16:00,32.5530,15.5890,390.08,93.20,19.40,6.80,340.00,12.00,0.00,29.85,M,6.21,M,M,M,M,M,M,M,M,M,M,M,M,M,M,M,M,87.18,HSSK 011600Z 34012KT CAVOK 34/M07 Q1011 NOSIG
HSSK,2021-04-01 16:30,32.5530,15.5890,390.08,91.40,19.40,7.19,330.00,12.00,0.00,29.85,M,6.21,M,M,M,M,M,M,M,M,M,M,M,M,M,M,M,M,85.86,HSSK 011630Z 33012KT CAVOK 33/M07 Q1011 NOSIG
HSSK,2021-04-01 17:00,32.5530,15.5890,390.08,89.60,17.60,7.05,330.00,10.00,0.00,29.85,M,6.21,M,M,M,M,M,M,M,M,M,M,M,M,M,M,M,M,84.45,HSSK 011700Z 33010KT CAVOK 32/M08 Q1011 NOSIG
HSSK,2021-04-01 17:30,32.5530,15.5890,390.08,89.60,21.20,8.22,330.00,10.00,0.00,29.88,M,6.21,M,M,M,M,M,M,M,M,M,M,M,M,M,M,M,M,84.64,HSSK 011730Z 33010KT CAVOK 32/M06 Q1012 NOSIG
HSSK,2021-04-01 18:00,32.5530,15.5890,390.08,87.80,19.40,8.06,340.00,11.00,0.00,29.88,M,6.21,M,M,M,M,M,M,M,M,M,M,M,M,M,M,M,M,83.23,HSSK 011800Z 34011KT CAVOK 31/M07 Q1012 NOSIG
HSSK,2021-04-01 19:00,32.5530,15.5890,390.08,86.00,19.40,8.53,340.00,12.00,0.00,29.91,M,6.21,M,M,M,M,M,M,M,M,M,M,M,M,M,M,M,M,81.94,HSSK 011900Z 34012KT CAVOK 30/M07 Q1013 NOSIG
HSSK,2021-04-01 19:30,32.5530,15.5890,390.08,86.00,19.40,8.53,340.00,13.00,0.00,29.91,M,6.21,M,M,M,M,M,M,M,M,M,M,M,M,M,M,M,M,81.94,HSSK 011930Z 34013KT CAVOK 30/M07 Q1013 NOSIG
HSSK,2021-04-01 20:00,32.5530,15.5890,390.08,86.00,17.60,7.90,340.00,14.00,0.00,29.94,M,6.21,M,M,M,M,M,M,M,M,M,M,M,M,M,M,M,M,81.85,HSSK 012000Z 34014KT CAVOK 30/M08 Q1014 NOSIG
HSSK,2021-04-01 20:30,32.5530,15.5890,390.08,84.20,17.60,8.37,350.00,14.00,0.00,29.91,M,6.21,M,M,M,M,M,M,M,M,M,M,M,M,M,M,M,M,80.59,HSSK 012030Z 35014KT CAVOK 29/M08 Q1013 NOSIG
HSSK,2021-04-01 21:00,32.5530,15.5890,390.08,82.40,15.80,8.20,350.00,13.00,0.00,29.91,M,6.21,M,M,M,M,M,M,M,M,M,M,M,M,M,M,M,M,79.28,HSSK 012100Z 35013KT CAVOK 28/M09 Q1013 NOSIG
HSSK,2021-04-01 21:30,32.5530,15.5890,390.08,82.40,15.80,8.20,340.00,14.00,0.00,29.91,M,6.21,M,M,M,M,M,M,M,M,M,M,M,M,M,M,M,M,79.28,HSSK 012130Z 34014KT CAVOK 28/M09 Q1013 NOSIG
HSSK,2021-04-01 22:00,32.5530,15.5890,390.08,80.60,12.20,7.43,360.00,13.00,0.00,29.91,M,6.21,M,M,M,M,M,M,M,M,M,M,M,M,M,M,M,M,78.16,HSSK 012200Z 36013KT CAVOK 27/M11 Q1013 NOSIG
HSSK,2021-04-01 22:30,32.5530,15.5890,390.08,80.60,14.00,8.04,330.00,14.00,0.00,29.91,M,6.21,M,M,M,M,M,M,M,M,M,M,M,M,M,M,M,M,78.25,HSSK 012230Z 33014KT CAVOK 27/M10 Q1013 NOSIG
HSSK,2021-04-01 23:00,32.5530,15.5890,390.08,80.60,14.00,8.04,330.00,14.00,0.00,29.91,M,6.21,M,M,M,M,M,M,M,M,M,M,M,M,M,M,M,M,78.25,HSSK 012300Z 33014KT CAVOK 27/M10 Q1013 NOSIG
HSSK,2021-04-01 23:30,32.5530,15.5890,390.08,78.80,17.60,9.98,360.00,14.00,0.00,29.91,M,6.21,M,M,M,M,M,M,M,M,M,M,M,M,M,M,M,M,M,HSSK 012330Z 36014KT CAVOK 26/M08 Q1013 NOSIG
HSSK,2021-04-02 00:00,32.5530,15.5890,390.08,78.80,17.60,9.98,360.00,14.00,0.00,29.91,M,6.21,M,M,M,M,M,M,M,M,M,M,M,M,M,M,M,M,M,HSSK 020000Z 36014KT CAVOK 26/M08 Q1013 NOSIG
HSSK,2021-04-02 00:30,32.5530,15.5890,390.08,78.80,17.60,9.98,360.00,14.00,0.00,29.91,M,6.21,M,M,M,M,M,M,M,M,M,M,M,M,M,M,M,M,M,HSSK 020030Z 36014KT CAVOK 26/M08 Q1013 NOSIG
HSSK,2021-04-02 01:00,32.5530,15.5890,390.08,77.00,17.60,10.59,360.00,14.00,0.00,29.88,M,6.21,M,M,M,M,M,M,M,M,M,M,M,M,M,M,M,M,M,HSSK 020100Z 36014KT CAVOK 25/M08 Q1012 NOSIG
HSSK,2021-04-02 01:30,32.5530,15.5890,390.08,77.00,17.60,10.59,360.00,12.00,0.00,29.91,M,6.21,M,M,M,M,M,M,M,M,M,M,M,M,M,M,M,M,M,HSSK 020130Z 36012KT CAVOK 25/M08 Q1013 NOSIG
HSSK,2021-04-02 02:00,32.5530,15.5890,390.08,77.00,23.00,13.32,360.00,12.00,0.00,29.91,M,6.21,M,M,M,M,M,M,M,M,M,M,M,M,M,M,M,M,M,HSSK 020200Z 36012KT CAVOK 25/M05 Q1013 NOSIG
HSSK,2021-04-02 03:00,32.5530,15.5890,390.08,75.20,19.40,12.14,360.00,12.00,0.00,29.91,M,6.21,M,M,M,M,M,M,M,M,M,M,M,M,M,M,M,M,M,HSSK 020300Z 36012KT CAVOK 24/M07 Q1013 NOSIG
HSSK,2021-04-02 03:30,32.5530,15.5890,390.08,75.20,19.40,12.14,340.00,12.00,0.00,29.91,M,6.21,M,M,M,M,M,M,M,M,M,M,M,M,M,M,M,M,M,HSSK 020330Z 34012KT CAVOK 24/M07 Q1013 NOSIG
HSSK,2021-04-02 06:00,32.5530,15.5890,390.08,78.80,17.60,9.98,360.00,13.00,0.00,29.97,M,6.21,M,M,M,M,M,M,M,M,M,M,M,M,M,M,M,M,M,HSSK 020600Z 36013KT CAVOK 26/M08 Q1015 NOSIG
HSSK,2021-04-02 06:30,32.5530,15.5890,390.08,80.60,23.00,11.83,360.00,16.00,0.00,29.97,M,6.21,M,M,M,M,M,M,M,M,M,M,M,M,M,M,M,M,78.80,HSSK 020630Z 36016KT CAVOK 27/M05 Q1015 NOSIG
HSSK,2021-04-02 07:00,32.5530,15.5890,390.08,82.40,21.20,10.34,360.00,13.00,0.00,29.97,M,6.21,M,M,M,M,M,M,M,M,M,M,M,M,M,M,M,M,79.55,HSSK 020700Z 36013KT CAVOK 28/M06 Q1015 NOSIG
HSSK,2021-04-02 16:30,32.5530,15.5890,390.08,87.80,17.60,7.46,350.00,12.00,0.00,29.88,M,6.21,M,M,M,M,M,M,M,M,M,M,M,M,M,M,M,M,83.14,HSSK 021630Z 35012KT CAVOK 31/M08 Q1012 NOSIG
HSSK,2021-04-02 17:00,32.5530,15.5890,390.08,87.80,15.80,6.90,360.00,12.00,0.00,29.91,M,6.21,M,M,M,M,M,M,M,M,M,M,M,M,M,M,M,M,83.07,HSSK 021700Z 36012KT CAVOK 31/M09 Q1013 NOSIG
HSSK,2021-04-02 17:30,32.5530,15.5890,390.08,86.00,19.40,8.53,360.00,12.00,0.00,29.91,M,6.21,M,M,M,M,M,M,M,M,M,M,M,M,M,M,M,M,81.94,HSSK 021730Z 36012KT CAVOK 30/M07 Q1013 NOSIG
HSSK,2021-04-02 18:00,32.5530,15.5890,390.08,86.00,21.20,9.21,360.00,12.00,0.00,29.91,M,6.21,M,M,M,M,M,M,M,M,M,M,M,M,M,M,M,M,82.04,HSSK 021800Z 36012KT CAVOK 30/M06 Q1013 NOSIG
HSSK,2021-04-02 18:30,32.5530,15.5890,390.08,86.00,21.20,9.21,360.00,11.00,0.00,29.91,M,6.21,M,M,M,M,M,M,M,M,M,M,M,M,M,M,M,M,82.04,HSSK 021830Z 36011KT CAVOK 30/M06 Q1013 NOSIG
HSSK,2021-04-02 19:00,32.5530,15.5890,390.08,84.20,19.40,9.04,360.00,9.00,0.00,29.94,M,6.21,M,M,M,M,M,M,M,M,M,M,M,M,M,M,M,M,80.68,HSSK 021900Z 36009KT CAVOK 29/M07 Q1014 NOSIG
HSSK,2021-04-02 19:30,32.5530,15.5890,390.08,84.20,23.00,10.53,360.00,8.00,0.00,29.94,M,6.21,M,M,M,M,M,M,M,M,M,M,M,M,M,M,M,M,80.88,HSSK 021930Z 36008KT CAVOK 29/M05 Q1014 NOSIG
HSSK,2021-04-02 20:00,32.5530,15.5890,390.08,84.20,24.80,11.35,360.00,9.00,0.00,29.94,M,6.21,M,M,M,M,M,M,M,M,M,M,M,M,M,M,M,M,81.00,HSSK 022000Z 36009KT CAVOK 29/M04 Q1014 NOSIG
HSSK,2021-04-02 20:30,32.5530,15.5890,390.08,82.40,23.00,11.16,360.00,7.00,0.00,29.94,M,6.21,M,M,M,M,M,M,M,M,M,M,M,M,M,M,M,M,79.67,HSSK 022030Z 36007KT CAVOK 28/M05 Q1014 NOSIG
HSSK,2021-04-02 21:00,32.5530,15.5890,390.08,82.40,19.40,9.58,350.00,7.00,0.00,29.94,M,6.21,M,M,M,M,M,M,M,M,M,M,M,M,M,M,M,M,79.45,HSSK 022100Z 35007KT CAVOK 28/M07 Q1014 NOSIG
HSSK,2021-04-02 23:00,32.5530,15.5890,390.08,78.80,17.60,9.98,340.00,9.00,0.00,29.91,M,6.21,M,M,M,M,M,M,M,M,M,M,M,M,M,M,M,M,M,HSSK 022300Z 34009KT CAVOK 26/M08 Q1013 NOSIG
HSSK,2021-04-03 11:30,32.5530,15.5890,390.08,95.00,24.80,8.08,340.00,18.00,0.00,29.88,M,6.21,M,M,M,M,M,M,M,M,M,M,M,M,M,M,M,M,88.91,HSSK 031130Z 34018KT CAVOK 35/M04 Q1012 NOSIG
HSSK,2021-04-03 12:30,32.5530,15.5890,390.08,96.80,26.60,8.24,10.00,16.00,0.00,29.85,M,6.21,M,M,M,M,M,M,M,M,M,M,M,M,M,M,M,M,90.57,HSSK 031230Z 01016KT CAVOK 36/M03 Q1011 NOSIG
HSSK,2021-04-03 13:00,32.5530,15.5890,390.08,96.80,26.60,8.24,340.00,19.00,0.00,29.83,M,6.21,M,M,M,M,M,M,M,M,M,M,M,M,M,M,M,M,90.57,HSSK 031300Z 34019KT CAVOK 36/M03 Q1010 NOSIG
HSSK,2021-04-03 13:30,32.5530,15.5890,390.08,96.80,26.60,8.24,340.00,18.00,0.00,29.83,M,4.97,M,M,M,M,M,M,M,M,M,M,M,M,M,M,M,M,90.57,HSSK 031330Z 34018KT 8000 36/M03 Q1010 NOSIG
HSSK,2021-04-03 14:00,32.5530,15.5890,390.08,96.80,26.60,8.24,350.00,19.00,0.00,29.83,M,4.97,M,M,M,M,M,M,M,M,M,M,M,M,M,M,M,M,90.57,HSSK 031400Z 35019KT 8000 36/M03 Q1010 NOSIG
HSSK,2021-04-03 15:00,32.5530,15.5890,390.08,95.00,19.40,6.43,350.00,10.00,0.00,29.85,M,4.97,M,M,M,M,M,M,M,M,M,M,M,M,M,M,M,M,88.50,HSSK 031500Z 35010KT 8000 35/M07 Q1011 NOSIG
HSSK,2021-04-03 15:30,32.5530,15.5890,390.08,93.20,24.80,8.54,340.00,16.00,0.00,29.85,M,4.97,M,M,M,M,M,M,M,M,M,M,M,M,M,M,M,M,87.56,HSSK 031530Z 34016KT 8000 34/M04 Q1011 NOSIG
HSSK,2021-04-04 00:30,32.5530,15.5890,390.08,77.00,23.00,13.32,360.00,14.00,0.00,29.85,M,6.21,M,M,M,M,M,M,M,M,M,M,M,M,M,M,M,M,M,HSSK 040030Z 36014KT CAVOK 25/M05 Q1011 NOSIG
HSSK,2021-04-04 01:00,32.5530,15.5890,390.08,77.00,23.00,13.32,350.00,18.00,0.00,29.85,M,6.21,M,M,M,M,M,M,M,M,M,M,M,M,M,M,M,M,M,HSSK 040100Z 35018KT CAVOK 25/M05 Q1011 NOSIG
HSSK,2021-04-04 01:30,32.5530,15.5890,390.08,75.20,17.60,11.24,350.00,15.00,0.00,29.85,M,6.21,M,M,M,M,M,M,M,M,M,M,M,M,M,M,M,M,M,HSSK 040130Z 35015KT CAVOK 24/M08 Q1011 NOSIG
HSSK,2021-04-04 02:00,32.5530,15.5890,390.08,75.20,17.60,11.24,350.00,13.00,0.00,29.88,M,6.21,M,M,M,M,M,M,M,M,M,M,M,M,M,M,M,M,M,HSSK 040200Z 35013KT CAVOK 24/M08 Q1012 NOSIG
HSSK,2021-04-04 02:30,32.5530,15.5890,390.08,73.40,21.20,13.93,360.00,10.00,0.00,29.88,M,6.21,M,M,M,M,M,M,M,M,M,M,M,M,M,M,M,M,M,HSSK 040230Z 36010KT CAVOK 23/M06 Q1012 NOSIG
HSSK,2021-04-04 03:00,32.5530,15.5890,390.08,71.60,15.80,11.74,360.00,10.00,0.00,29.91,M,6.21,M,M,M,M,M,M,M,M,M,M,M,M,M,M,M,M,M,HSSK 040300Z 36010KT CAVOK 22/M09 Q1013 NOSIG
HSSK,2021-04-06 11:30,32.5530,15.5890,390.08,100.40,12.20,3.99,340.00,12.00,0.00,29.80,M,6.21,M,M,M,M,M,M,M,M,M,M,M,M,M,M,M,M,92.58,HSSK 061130Z 34012KT CAVOK 38/M11 Q1009 NOSIG
HSSK,2021-04-06 12:00,32.5530,15.5890,390.08,98.60,8.60,3.59,360.00,12.00,0.00,29.80,M,6.21,M,M,M,M,M,M,M,M,M,M,M,M,M,M,M,M,90.96,HSSK 061200Z 36012KT CAVOK 37/M13 Q1009 NOSIG
HSSK,2021-04-06 12:30,32.5530,15.5890,390.08,102.20,6.80,2.97,300.00,5.00,0.00,29.77,M,6.21,M,M,M,M,M,M,M,M,M,M,M,M,M,M,M,M,93.83,HSSK 061230Z 30005KT CAVOK 39/M14 Q1008 NOSIG
HSSK,2021-04-06 13:00,32.5530,15.5890,390.08,102.20,10.40,3.49,360.00,10.00,0.00,29.77,M,6.21,M,M,M,M,M,M,M,M,M,M,M,M,M,M,M,M,93.97,HSSK 061300Z 36010KT CAVOK 39/M12 Q1008 NOSIG
HSSK,2021-04-06 13:30,32.5530,15.5890,390.08,102.20,-0.40,2.13,330.00,10.00,0.00,29.77,M,6.21,M,M,M,M,M,M,M,M,M,M,M,M,M,M,M,M,93.61,HSSK 061330Z 33010KT CAVOK 39/M18 Q1008 NOSIG
HSSK,2021-04-06 14:00,32.5530,15.5890,390.08,102.20,-2.20,1.95,330.00,10.00,0.00,29.77,M,6.21,M,M,M,M,M,M,M,M,M,M,M,M,M,M,M,M,93.57,HSSK 061400Z 33010KT CAVOK 39/M19 Q1008 NOSIG
HSSK,2021-04-06 14:30,32.5530,15.5890,390.08,102.20,-0.40,2.13,330.00,12.00,0.00,29.77,M,6.21,M,M,M,M,M,M,M,M,M,M,M,M,M,M,M,M,93.61,HSSK 061430Z 33012KT CAVOK 39/M18 Q1008 NOSIG
HSSK,2021-04-06 15:30,32.5530,15.5890,390.08,98.60,8.60,3.59,330.00,12.00,0.00,29.77,M,6.21,M,M,M,M,M,M,M,M,M,M,M,M,M,M,M,M,90.96,HSSK 061530Z 33012KT CAVOK 37/M13 Q1008 NOSIG
HSSK,2021-04-06 16:00,32.5530,15.5890,390.08,95.00,3.20,3.13,320.00,10.00,0.00,29.77,M,6.21,M,M,M,M,M,M,M,M,M,M,M,M,M,M,M,M,87.81,HSSK 061600Z 32010KT CAVOK 35/M16 Q1008 NOSIG
HSSK,2021-04-06 16:30,32.5530,15.5890,390.08,95.00,8.60,4.01,320.00,10.00,0.00,29.77,M,6.21,M,M,M,M,M,M,M,M,M,M,M,M,M,M,M,M,87.97,HSSK 061630Z 32010KT CAVOK 35/M13 Q1008 NOSIG
HSSK,2021-04-06 17:00,32.5530,15.5890,390.08,93.20,10.40,4.59,300.00,9.00,0.00,29.80,M,6.21,M,M,M,M,M,M,M,M,M,M,M,M,M,M,M,M,86.76,HSSK 061700Z 30009KT CAVOK 34/M12 Q1009 NOSIG
HSSK,2021-04-06 17:30,32.5530,15.5890,390.08,91.40,1.40,3.22,320.00,8.00,0.00,29.80,M,6.21,M,M,M,M,M,M,M,M,M,M,M,M,M,M,M,M,85.24,HSSK 061730Z 32008KT CAVOK 33/M17 Q1009 NOSIG
HSSK,2021-04-06 18:00,32.5530,15.5890,390.08,91.40,6.80,4.13,320.00,10.00,0.00,29.83,M,6.21,M,M,M,M,M,M,M,M,M,M,M,M,M,M,M,M,85.36,HSSK 061800Z 32010KT CAVOK 33/M14 Q1010 NOSIG
HSSK,2021-04-06 18:30,32.5530,15.5890,390.08,89.60,8.60,4.74,320.00,9.00,0.00,29.83,M,6.21,M,M,M,M,M,M,M,M,M,M,M,M,M,M,M,M,84.12,HSSK 061830Z 32009KT CAVOK 32/M13 Q1010 NOSIG
HSSK,2021-04-06 19:00,32.5530,15.5890,390.08,89.60,8.60,4.74,340.00,9.00,0.00,29.83,M,6.21,M,M,M,M,M,M,M,M,M,M,M,M,M,M,M,M,84.12,HSSK 061900Z 34009KT CAVOK 32/M13 Q1010 NOSIG
HSSK,2021-04-06 19:30,32.5530,15.5890,390.08,87.80,-4.00,2.80,340.00,7.00,0.00,29.83,M,6.21,M,M,M,M,M,M,M,M,M,M,M,M,M,M,M,M,82.58,HSSK 061930Z 34007KT CAVOK 31/M20 Q1010 NOSIG
HSSK,2021-04-06 20:30,32.5530,15.5890,390.08,86.00,6.80,4.90,340.00,7.00,0.00,29.85,M,6.21,M,M,M,M,M,M,M,M,M,M,M,M,M,M,M,M,81.49,HSSK 062030Z 34007KT CAVOK 30/M14 Q1011 NOSIG
HSSK,2021-04-06 21:00,32.5530,15.5890,390.08,86.00,6.80,4.90,360.00,17.49,0.00,29.85,M,6.21,M,M,M,M,M,M,M,M,M,M,M,M,M,M,M,M,81.49,HSSK 062100Z 36009 KT CAVOK 30/M14 Q1011 NOSIG
HSSK,2021-04-06 21:30,32.5530,15.5890,390.08,84.20,14.00,7.16,340.00,8.00,0.00,29.83,M,6.21,M,M,M,M,M,M,M,M,M,M,M,M,M,M,M,M,80.44,HSSK 062130Z 34008KT CAVOK 29/M10 Q1010 NOSIG
HSSK,2021-04-06 22:00,32.5530,15.5890,390.08,84.20,14.00,7.16,320.00,8.00,0.00,29.83,M,6.21,M,M,M,M,M,M,M,M,M,M,M,M,M,M,M,M,80.44,HSSK 062200Z 32008KT CAVOK 29/M10 Q1010 NOSIG
HSSK,2021-04-06 22:30,32.5530,15.5890,390.08,78.80,10.40,7.28,360.00,7.00,0.00,29.83,M,6.21,M,M,M,M,M,M,M,M,M,M,M,M,M,M,M,M,M,HSSK 062230Z 36007KT CAVOK 26/M12 Q1010 NOSIG
HSSK,2021-04-06 23:00,32.5530,15.5890,390.08,77.00,10.40,7.72,360.00,12.00,0.00,29.83,M,6.21,M,M,M,M,M,M,M,M,M,M,M,M,M,M,M,M,M,HSSK 062300Z 36012KT CAVOK 25/M12 Q1010 NOSIG
HSSK,2021-04-06 23:30,32.5530,15.5890,390.08,77.00,10.40,7.72,360.00,12.00,0.00,29.83,M,6.21,M,M,M,M,M,M,M,M,M,M,M,M,M,M,M,M,M,HSSK 062330Z 36012KT CAVOK 25/M12 Q1010 NOSIG
HSSK,2021-04-07 00:00,32.5530,15.5890,390.08,77.00,10.40,7.72,360.00,12.00,0.00,29.83,M,6.21,M,M,M,M,M,M,M,M,M,M,M,M,M,M,M,M,M,HSSK 070000Z 36012KT CAVOK 25/M12 Q1010 NOSIG
HSSK,2021-04-07 00:30,32.5530,15.5890,390.08,77.00,10.40,7.72,360.00,12.00,0.00,29.83,M,6.21,M,M,M,M,M,M,M,M,M,M,M,M,M,M,M,M,M,HSSK 070030Z 36012KT CAVOK 25/M12 Q1010 NOSIG
HSSK,2021-04-07 01:00,32.5530,15.5890,390.08,77.00,10.40,7.72,350.00,12.00,0.00,29.80,M,6.21,M,M,M,M,M,M,M,M,M,M,M,M,M,M,M,M,M,HSSK 070100Z 35012KT CAVOK 25/M12 Q1009 NOSIG
HSSK,2021-04-07 01:30,32.5530,15.5890,390.08,77.00,10.40,7.72,360.00,10.00,0.00,29.80,M,6.21,M,M,M,M,M,M,M,M,M,M,M,M,M,M,M,M,M,HSSK 070130Z 36010KT CAVOK 25/M12 Q1009 NOSIG
HSSK,2021-04-07 02:30,32.5530,15.5890,390.08,78.80,6.80,6.19,M,M,0.00,29.83,M,6.21,M,M,M,M,M,M,M,M,M,M,M,M,M,M,M,M,M,HSSK 070230Z 3512KT CAVOK 26/M14 Q1010 NOSIG
HSSK,2021-04-07 03:00,32.5530,15.5890,390.08,78.80,17.60,9.98,350.00,14.00,0.00,29.83,M,6.21,M,M,M,M,M,M,M,M,M,M,M,M,M,M,M,M,M,HSSK 070300Z 35014KT CAVOK 26/M08 Q1010 NOSIG
HSSK,2021-04-07 03:30,32.5530,15.5890,390.08,78.80,10.40,7.28,350.00,9.00,0.00,29.83,M,6.21,M,M,M,M,M,M,M,M,M,M,M,M,M,M,M,M,M,HSSK 070330Z 35009KT CAVOK 26/M12 Q1010 NOSIG
HSSK,2021-04-07 04:00,32.5530,15.5890,390.08,75.20,10.40,8.20,360.00,9.00,0.00,29.85,M,6.21,M,M,M,M,M,M,M,M,M,M,M,M,M,M,M,M,M,HSSK 070400Z 36009KT CAVOK 24/M12 Q1011 NOSIG
HSSK,2021-04-07 04:30,32.5530,15.5890,390.08,75.20,10.40,8.20,360.00,7.00,0.00,29.85,M,6.21,M,M,M,M,M,M,M,M,M,M,M,M,M,M,M,M,M,HSSK 070430Z 36007KT CAVOK 24/M12 Q1011 NOSIG
HSSK,2021-04-07 05:00,32.5530,15.5890,390.08,75.20,12.20,8.88,360.00,10.00,0.00,29.88,M,6.21,M,M,M,M,M,M,M,M,M,M,M,M,M,M,M,M,M,HSSK 070500Z 36010KT CAVOK 24/M11 Q1012 NOSIG
HSSK,2021-04-07 05:30,32.5530,15.5890,390.08,82.40,12.20,7.01,360.00,12.00,0.00,29.88,M,6.21,M,M,M,M,M,M,M,M,M,M,M,M,M,M,M,M,79.13,HSSK 070530Z 36012KT CAVOK 28/M11 Q1012 NOSIG
HSSK,2021-04-07 06:00,32.5530,15.5890,390.08,84.20,14.00,7.16,360.00,12.00,0.00,29.88,M,6.21,M,M,M,M,M,M,M,M,M,M,M,M,M,M,M,M,80.44,HSSK 070600Z 36012KT CAVOK 29/M10 Q1012 NOSIG
HSSK,2021-04-07 06:30,32.5530,15.5890,390.08,86.00,12.20,6.24,360.00,12.00,0.00,29.88,M,6.21,M,M,M,M,M,M,M,M,M,M,M,M,M,M,M,M,81.64,HSSK 070630Z 36012KT CAVOK 30/M11 Q1012 NOSIG
HSSK,2021-04-07 07:00,32.5530,15.5890,390.08,87.80,15.80,6.90,350.00,12.00,0.00,29.91,M,6.21,M,M,M,M,M,M,M,M,M,M,M,M,M,M,M,M,83.07,HSSK 070700Z 35012KT CAVOK 31/M09 Q1013 NOSIG
HSSK,2021-04-07 07:30,32.5530,15.5890,390.08,91.40,15.80,6.16,360.00,12.00,0.00,29.91,M,6.21,M,M,M,M,M,M,M,M,M,M,M,M,M,M,M,M,85.68,HSSK 070730Z 36012KT CAVOK 33/M09 Q1013 NOSIG
HSSK,2021-04-07 08:00,32.5530,15.5890,390.08,91.40,15.80,6.16,10.00,11.00,0.00,29.91,M,6.21,M,M,M,M,M,M,M,M,M,M,M,M,M,M,M,M,85.68,HSSK 070800Z 01011KT CAVOK 33/M09 Q1013 NOSIG
HSSK,2021-04-07 08:30,32.5530,15.5890,390.08,95.00,17.60,5.96,360.00,7.00,0.00,29.91,M,6.21,M,M,M,M,M,M,M,M,M,M,M,M,M,M,M,M,88.39,HSSK 070830Z 36007KT CAVOK 35/M08 Q1013 NOSIG
HSSK,2021-04-07 09:00,32.5530,15.5890,390.08,95.00,19.40,6.43,360.00,10.00,0.00,29.91,M,6.21,M,M,M,M,M,M,M,M,M,M,M,M,M,M,M,M,88.50,HSSK 070900Z 36010KT CAVOK 35/M07 Q1013 NOSIG
HSSK,2021-04-07 09:30,32.5530,15.5890,390.08,98.60,19.40,5.76,360.00,10.00,0.00,29.88,M,6.21,M,M,M,M,M,M,M,M,M,M,M,M,M,M,M,M,91.49,HSSK 070930Z 36010KT CAVOK 37/M07 Q1012 NOSIG
HSSK,2021-04-07 12:00,32.5530,15.5890,390.08,100.40,17.60,5.05,40.00,5.00,0.00,29.80,M,6.21,M,M,M,M,M,M,M,M,M,M,M,M,M,M,M,M,92.87,HSSK 071200Z 04005KT CAVOK 38/M08 Q1009 NOSIG
HSSK,2021-04-07 12:30,32.5530,15.5890,390.08,102.20,15.80,4.43,20.00,5.00,0.00,29.80,M,6.21,M,M,M,M,M,M,M,M,M,M,M,M,M,M,M,M,94.24,HSSK 071230Z 02005KT CAVOK 39/M09 Q1009 NOSIG
HSSK,2021-04-07 13:00,32.5530,15.5890,390.08,102.20,12.20,3.78,20.00,6.00,0.00,29.80,M,6.21,M,M,M,M,M,M,M,M,M,M,M,M,M,M,M,M,94.05,HSSK 071300Z 02006KT CAVOK 39/M11 Q1009 NOSIG
HSSK,2021-04-07 13:30,32.5530,15.5890,390.08,102.20,12.20,3.78,340.00,6.00,0.00,29.77,M,6.21,M,M,M,M,M,M,M,M,M,M,M,M,M,M,M,M,94.05,HSSK 071330Z 34006KT CAVOK 39/M11 Q1008 NOSIG
HSSK,2021-04-07 14:00,32.5530,15.5890,390.08,102.20,12.20,3.78,320.00,9.00,0.00,29.77,M,6.21,M,M,M,M,M,M,M,M,M,M,M,M,M,M,M,M,94.05,HSSK 071400Z 32009KT CAVOK 39/M11 Q1008 NOSIG
HSSK,2021-04-07 14:30,32.5530,15.5890,390.08,102.20,12.20,3.78,350.00,10.00,0.00,29.77,M,6.21,M,M,M,M,M,M,M,M,M,M,M,M,M,M,M,M,94.05,HSSK 071430Z 35010KT CAVOK 39/M11 Q1008 NOSIG
HSSK,2021-04-07 15:00,32.5530,15.5890,390.08,102.20,12.20,3.78,320.00,6.00,0.00,29.77,M,6.21,M,M,M,M,M,M,M,M,M,M,M,M,M,M,M,M,94.05,HSSK 071500Z 32006KT CAVOK 39/M11 Q1008 NOSIG
HSSK,2021-04-07 22:00,32.5530,15.5890,390.08,84.20,14.00,7.16,330.00,6.00,0.00,29.83,M,6.21,M,M,M,M,M,M,M,M,M,M,M,M,M,M,M,M,80.44,HSSK 072200Z 33006KT CAVOK 29/M10 Q1010 NOSIG
HSSK,2021-04-07 22:30,32.5530,15.5890,390.08,84.20,14.00,7.16,330.00,8.00,0.00,29.80,M,6.21,M,M,M,M,M,M,M,M,M,M,M,M,M,M,M,M,80.44,HSSK 072230Z 33008KT CAVOK 29/M10 Q1009 NOSIG
HSSK,2021-04-07 23:00,32.5530,15.5890,390.08,84.20,14.00,7.16,340.00,9.00,0.00,29.80,M,6.21,M,M,M,M,M,M,M,M,M,M,M,M,M,M,M,M,80.44,HSSK 072300Z 34009KT CAVOK 29/M10 Q1009 NOSIG
HSSK,2021-04-07 23:30,32.5530,15.5890,390.08,84.20,14.00,7.16,340.00,9.00,0.00,29.80,M,6.21,M,M,M,M,M,M,M,M,M,M,M,M,M,M,M,M,80.44,HSSK 072330Z 34009KT CAVOK 29/M10 Q1009 NOSIG
HSSK,2021-04-08 00:00,32.5530,15.5890,390.08,84.20,14.00,7.16,330.00,9.00,0.00,29.77,M,6.21,M,M,M,M,M,M,M,M,M,M,M,M,M,M,M,M,80.44,HSSK 080000Z 33009KT CAVOK 29/M10 Q1008 NOSIG
HSSK,2021-04-08 06:00,32.5530,15.5890,390.08,84.20,14.00,7.16,340.00,9.00,0.00,29.85,M,6.21,M,M,M,M,M,M,M,M,M,M,M,M,M,M,M,M,80.44,HSSK 080600Z 34009KT CAVOK 29/M10 Q1011 NOSIG
HSSK,2021-04-08 09:00,32.5530,15.5890,390.08,96.80,26.60,8.24,10.00,11.00,0.00,29.83,M,6.21,M,M,M,M,M,M,M,M,M,M,M,M,M,M,M,M,90.57,HSSK 080900Z 01011KT CAVOK 36/M03 Q1010 NOSIG
HSSK,2021-04-08 13:00,32.5530,15.5890,390.08,105.80,28.40,6.77,350.00,10.00,0.00,29.71,M,6.21,M,M,M,M,M,M,M,M,M,M,M,M,M,M,M,M,98.33,HSSK 081300Z 35010KT CAVOK 41/M02 Q1006 NOSIG
HSSK,2021-04-08 13:30,32.5530,15.5890,390.08,105.80,28.40,6.77,10.00,11.00,0.00,29.71,M,6.21,M,M,M,M,M,M,M,M,M,M,M,M,M,M,M,M,98.33,HSSK 081330Z 01011KT CAVOK 41/M02 Q1006 NOSIG
HSSK,2021-04-08 14:00,32.5530,15.5890,390.08,105.80,28.40,6.77,350.00,6.00,0.00,29.68,M,6.21,M,M,M,M,M,M,M,M,M,M,M,M,M,M,M,M,98.33,HSSK 081400Z 35006KT CAVOK 41/M02 Q1005 NOSIG
HSSK,2021-04-08 14:30,32.5530,15.5890,390.08,105.80,28.40,6.77,350.00,8.00,0.00,29.68,M,6.21,M,M,M,M,M,M,M,M,M,M,M,M,M,M,M,M,98.33,HSSK 081430Z 35008KT CAVOK 41/M02 Q1005 NOSIG
HSSK,2021-04-08 15:00,32.5530,15.5890,390.08,104.00,28.40,7.14,350.00,9.00,0.00,29.68,M,6.21,M,M,M,M,M,M,M,M,M,M,M,M,M,M,M,M,96.81,HSSK 081500Z 35009KT CAVOK 40/M02 Q1005 NOSIG
HSSK,2021-04-08 15:30,32.5530,15.5890,390.08,104.00,32.00,8.27,330.00,7.00,0.00,29.68,M,6.21,M,M,M,M,M,M,M,M,M,M,M,M,M,M,M,M,97.28,HSSK 081530Z 33007KT CAVOK 40/00 Q1005 NOSIG
HSSK,2021-04-08 16:00,32.5530,15.5890,390.08,102.20,26.60,7.00,M,M,0.00,29.71,M,6.21,M,M,M,M,M,M,M,M,M,M,M,M,M,M,M,M,M,HSSK 081600Z 3306KT CAVOK 39/M03 Q1006 NOSIG
HSSK,2021-04-08 16:30,32.5530,15.5890,390.08,100.40,21.20,5.89,320.00,5.00,0.00,29.71,M,6.21,M,M,M,M,M,M,M,M,M,M,M,M,M,M,M,M,93.11,HSSK 081630Z 32005KT CAVOK 38/M06 Q1006 NOSIG
HSSK,2021-04-08 17:00,32.5530,15.5890,390.08,98.60,21.20,6.22,310.00,5.00,0.00,29.71,M,6.21,M,M,M,M,M,M,M,M,M,M,M,M,M,M,M,M,91.61,HSSK 081700Z 31005KT CAVOK 37/M06 Q1006 NOSIG
HSSK,2021-04-08 17:30,32.5530,15.5890,390.08,96.80,19.40,6.09,310.00,6.00,0.00,29.74,M,6.21,M,M,M,M,M,M,M,M,M,M,M,M,M,M,M,M,89.99,HSSK 081730Z 31006KT CAVOK 36/M07 Q1007 NOSIG
HSSK,2021-04-08 18:00,32.5530,15.5890,390.08,96.80,19.40,6.09,310.00,7.00,0.00,29.74,M,6.21,M,M,M,M,M,M,M,M,M,M,M,M,M,M,M,M,89.99,HSSK 081800Z 31007KT CAVOK 36/M07 Q1007 NOSIG
HSSK,2021-04-08 18:30,32.5530,15.5890,390.08,95.00,19.40,6.43,320.00,10.00,0.00,29.74,M,6.21,M,M,M,M,M,M,M,M,M,M,M,M,M,M,M,M,88.50,HSSK 081830Z 32010KT CAVOK 35/M07 Q1007 NOSIG
HSSK,2021-04-08 19:00,32.5530,15.5890,390.08,95.00,17.60,5.96,310.00,7.00,0.00,29.74,M,6.21,M,M,M,M,M,M,M,M,M,M,M,M,M,M,M,M,88.39,HSSK 081900Z 31007KT CAVOK 35/M08 Q1007 NOSIG
HSSK,2021-04-08 19:30,32.5530,15.5890,390.08,93.20,17.60,6.30,320.00,9.00,0.00,29.77,M,6.21,M,M,M,M,M,M,M,M,M,M,M,M,M,M,M,M,87.08,HSSK 081930Z 32009KT CAVOK 34/M08 Q1008 NOSIG
HSSK,2021-04-08 20:00,32.5530,15.5890,390.08,93.20,17.60,6.30,330.00,9.00,0.00,29.77,M,6.21,M,M,M,M,M,M,M,M,M,M,M,M,M,M,M,M,87.08,HSSK 082000Z 33009KT CAVOK 34/M08 Q1008 NOSIG
HSSK,2021-04-08 20:30,32.5530,15.5890,390.08,91.40,15.80,6.16,330.00,9.00,0.00,29.74,M,6.21,M,M,M,M,M,M,M,M,M,M,M,M,M,M,M,M,85.68,HSSK 082030Z 33009KT CAVOK 33/M09 Q1007 NOSIG
HSSK,2021-04-08 21:00,32.5530,15.5890,390.08,91.40,15.80,6.16,320.00,8.00,0.00,29.74,M,6.21,M,M,M,M,M,M,M,M,M,M,M,M,M,M,M,M,85.68,HSSK 082100Z 32008KT CAVOK 33/M09 Q1007 NOSIG
HSSK,2021-04-09 01:00,32.5530,15.5890,390.08,86.00,21.20,9.21,350.00,13.00,0.00,29.68,M,6.21,M,M,M,M,M,M,M,M,M,M,M,M,M,M,M,M,82.04,HSSK 090100Z 35013KT CAVOK 30/M06 Q1005 NOSIG
HSSK,2021-04-09 01:30,32.5530,15.5890,390.08,86.00,21.20,9.21,330.00,14.00,0.00,29.71,M,6.21,M,M,M,M,M,M,M,M,M,M,M,M,M,M,M,M,82.04,HSSK 090130Z 33014KT CAVOK 30/M06 Q1006 NOSIG
HSSK,2021-04-09 02:00,32.5530,15.5890,390.08,84.20,14.00,7.16,340.00,13.00,0.00,29.71,M,6.21,M,M,M,M,M,M,M,M,M,M,M,M,M,M,M,M,80.44,HSSK 090200Z 34013KT CAVOK 29/M10 Q1006 NOSIG
HSSK,2021-04-09 02:30,32.5530,15.5890,390.08,84.20,14.00,7.16,350.00,13.00,0.00,29.71,M,6.21,M,M,M,M,M,M,M,M,M,M,M,M,M,M,M,M,80.44,HSSK 090230Z 35013KT CAVOK 29/M10 Q1006 NOSIG
HSSK,2021-04-09 03:00,32.5530,15.5890,390.08,84.20,14.00,7.16,350.00,12.00,0.00,29.74,M,6.21,M,M,M,M,M,M,M,M,M,M,M,M,M,M,M,M,80.44,HSSK 090300Z 35012KT CAVOK 29/M10 Q1007 NOSIG
HSSK,2021-04-09 03:30,32.5530,15.5890,390.08,82.40,14.00,7.58,350.00,12.00,0.00,29.74,M,6.21,M,M,M,M,M,M,M,M,M,M,M,M,M,M,M,M,79.20,HSSK 090330Z 35012KT CAVOK 28/M10 Q1007 NOSIG
HSSK,2021-04-09 04:00,32.5530,15.5890,390.08,82.40,19.40,9.58,340.00,11.00,0.00,29.74,M,6.21,M,M,M,M,M,M,M,M,M,M,M,M,M,M,M,M,79.45,HSSK 090400Z 34011KT CAVOK 28/M07 Q1007 NOSIG
HSSK,2021-04-09 04:30,32.5530,15.5890,390.08,84.20,14.00,7.16,340.00,10.00,0.00,29.74,M,6.21,M,M,M,M,M,M,M,M,M,M,M,M,M,M,M,M,80.44,HSSK 090430Z 34010KT CAVOK 29/M10 Q1007 NOSIG
HSSK,2021-04-09 05:00,32.5530,15.5890,390.08,86.00,21.20,9.21,350.00,12.00,0.00,29.74,M,6.21,M,M,M,M,M,M,M,M,M,M,M,M,M,M,M,M,82.04,HSSK 090500Z 35012KT CAVOK 30/M06 Q1007 NOSIG
HSSK,2021-04-09 05:30,32.5530,15.5890,390.08,87.80,19.40,8.06,340.00,11.00,0.00,29.77,M,6.21,M,M,M,M,M,M,M,M,M,M,M,M,M,M,M,M,83.23,HSSK 090530Z 34011KT CAVOK 31/M07 Q1008 NOSIG
HSSK,2021-04-09 06:00,32.5530,15.5890,390.08,89.60,21.20,8.22,350.00,12.00,0.00,29.77,M,6.21,M,M,M,M,M,M,M,M,M,M,M,M,M,M,M,M,84.64,HSSK 090600Z 35012KT CAVOK 32/M06 Q1008 NOSIG
HSSK,2021-04-09 06:30,32.5530,15.5890,390.08,91.40,23.00,8.38,360.00,15.00,0.00,29.77,M,6.21,M,M,M,M,M,M,M,M,M,M,M,M,M,M,M,M,86.08,HSSK 090630Z 36015KT CAVOK 33/M05 Q1008 NOSIG
HSSK,2021-04-10 18:00,32.5530,15.5890,390.08,93.20,10.40,4.59,360.00,11.00,0.00,29.77,M,4.97,M,M,M,M,M,M,M,M,M,M,M,M,M,M,M,M,86.76,HSSK 101800Z 36011KT 8000 34/M12 Q1008 NOSIG
HSSK,2021-04-10 18:30,32.5530,15.5890,390.08,93.20,12.20,4.97,10.00,12.00,0.00,29.77,M,4.97,M,M,M,M,M,M,M,M,M,M,M,M,M,M,M,M,86.83,HSSK 101830Z 01012KT 8000 34/M11 Q1008 NOSIG
HSSK,2021-04-10 19:00,32.5530,15.5890,390.08,93.20,10.40,4.59,10.00,12.00,0.00,29.80,M,4.97,M,M,M,M,M,M,M,M,M,M,M,M,M,M,M,M,86.76,HSSK 101900Z 01012KT 8000 34/M12 Q1009 NOSIG
HSSK,2021-04-10 19:30,32.5530,15.5890,390.08,89.60,15.80,6.52,30.00,13.00,0.00,29.80,M,4.97,M,M,M,M,M,M,M,M,M,M,M,M,M,M,M,M,84.37,HSSK 101930Z 03013KT 8000 32/M09 Q1009 NOSIG
HSSK,2021-04-10 20:00,32.5530,15.5890,390.08,89.60,14.00,6.03,20.00,12.00,0.00,29.80,M,6.21,M,M,M,M,M,M,M,M,M,M,M,M,M,M,M,M,84.30,HSSK 102000Z 02012KT CAVOK 32/M10 Q1009 NOSIG
HSSK,2021-04-10 20:30,32.5530,15.5890,390.08,89.60,14.00,6.03,20.00,10.00,0.00,29.80,M,6.21,M,M,M,M,M,M,M,M,M,M,M,M,M,M,M,M,84.30,HSSK 102030Z 02010KT CAVOK 32/M10 Q1009 NOSIG
HSSK,2021-04-10 21:00,32.5530,15.5890,390.08,87.80,15.80,6.90,20.00,10.00,0.00,29.83,M,6.21,M,M,M,M,M,M,M,M,M,M,M,M,M,M,M,M,83.07,HSSK 102100Z 02010KT CAVOK 31/M09 Q1010 NOSIG
HSSK,2021-04-10 21:30,32.5530,15.5890,390.08,86.00,15.80,7.31,20.00,11.00,0.00,29.80,M,6.21,M,M,M,M,M,M,M,M,M,M,M,M,M,M,M,M,81.78,HSSK 102130Z 02011KT CAVOK 30/M09 Q1009 NOSIG
HSSK,2021-04-10 22:00,32.5530,15.5890,390.08,86.00,14.00,6.75,30.00,12.00,0.00,29.80,M,6.21,M,M,M,M,M,M,M,M,M,M,M,M,M,M,M,M,81.71,HSSK 102200Z 03012KT CAVOK 30/M10 Q1009 NOSIG
HSSK,2021-04-10 22:30,32.5530,15.5890,390.08,86.00,14.00,6.75,30.00,12.00,0.00,29.80,M,6.21,M,M,M,M,M,M,M,M,M,M,M,M,M,M,M,M,81.71,HSSK 102230Z 03012KT CAVOK 30/M10 Q1009 NOSIG
HSSK,2021-04-10 23:00,32.5530,15.5890,390.08,84.20,19.40,9.04,20.00,15.00,0.00,29.80,M,6.21,M,M,M,M,M,M,M,M,M,M,M,M,M,M,M,M,80.68,HSSK 102300Z 02015KT CAVOK 29/M07 Q1009 NOSIG
HSSK,2021-04-10 23:30,32.5530,15.5890,390.08,84.20,19.40,9.04,10.00,15.00,0.00,29.80,M,6.21,M,M,M,M,M,M,M,M,M,M,M,M,M,M,M,M,80.68,HSSK 102330Z 01015KT CAVOK 29/M07 Q1009 NOSIG
HSSK,2021-04-11 10:00,32.5530,15.5890,390.08,96.80,30.20,9.55,20.00,17.00,0.00,29.85,M,1.86,M,M,M,M,M,M,M,M,M,BLSA,M,M,M,M,M,M,90.96,HSSK 111000Z 02017KT 3000 BLSA 36/M01 Q1011 NOSIG
HSSK,2021-04-11 10:30,32.5530,15.5890,390.08,98.60,30.20,9.04,360.00,17.00,0.00,29.85,M,1.86,M,M,M,M,M,M,M,M,M,BLSA,M,M,M,M,M,M,92.46,HSSK 111030Z 36017KT 3000 BLSA 37/M01 Q1011 WS ALL RWA
HSSK,2021-04-11 11:00,32.5530,15.5890,390.08,98.60,32.00,9.72,360.00,17.00,0.00,29.83,M,1.86,M,M,M,M,M,M,M,M,M,BLSA,M,M,M,M,M,M,92.69,HSSK 111100Z 36017KT 3000 BLSA 37/00 Q1010 NOSIG
HSSK,2021-04-11 11:30,32.5530,15.5890,390.08,98.60,32.00,9.72,20.00,20.00,0.00,29.83,M,1.86,M,M,M,M,M,M,M,M,M,BLSA,M,M,M,M,M,M,92.69,HSSK 111130Z 02020KT 3000 BLSA 37/00 Q1010 NOSIG
HSSK,2021-04-11 12:00,32.5530,15.5890,390.08,98.60,23.00,6.71,360.00,20.00,0.00,29.80,M,1.86,M,M,M,M,M,M,M,M,M,BLSA,M,M,M,M,M,M,91.75,HSSK 111200Z 36020KT 3000 BLSA 37/M05 Q1009 NOSIG
HSSK,2021-04-11 12:30,32.5530,15.5890,390.08,98.60,24.80,7.24,360.00,17.00,0.00,29.80,M,1.86,M,M,M,M,M,M,M,M,M,BLSA,M,M,M,M,M,M,91.90,HSSK 111230Z 36017KT 3000 BLSA 37/M04 Q1009 WS ALL RWA TEMPO 4000 BLSA
HSSK,2021-04-11 13:00,32.5530,15.5890,390.08,98.60,24.80,7.24,360.00,17.00,0.00,29.80,M,1.86,M,M,M,M,M,M,M,M,M,BLSA,M,M,M,M,M,M,91.90,HSSK 111300Z 36017KT 3000 BLSA 37/M04 Q1009 NOSIG
HSSK,2021-04-11 13:30,32.5530,15.5890,390.08,98.60,24.80,7.24,20.00,20.00,0.00,29.80,M,1.86,M,M,M,M,M,M,M,M,M,BLSA,M,M,M,M,M,M,91.90,HSSK 111330Z 02020KT 3000 BLSA 37/M04 Q1009 NOSIG
HSSK,2021-04-11 13:45,32.5530,15.5890,390.08,98.60,24.80,7.24,350.00,17.00,0.00,29.80,M,3.11,M,M,M,M,M,M,M,M,M,M,M,M,M,M,M,M,91.90,HSSK 111345Z 35017KT 5000 37/M04 Q1009 TEMPO 6000
HSSK,2021-04-11 14:00,32.5530,15.5890,390.08,98.60,24.80,7.24,360.00,17.00,0.00,29.80,M,3.73,M,M,M,M,M,M,M,M,M,M,M,M,M,M,M,M,91.90,HSSK 111400Z 36017KT 6000 37/M04 Q1009 NOSIG
HSSK,2021-04-11 14:30,32.5530,15.5890,390.08,98.60,24.80,7.24,350.00,14.00,0.00,29.80,M,4.97,M,M,M,M,M,M,M,M,M,M,M,M,M,M,M,M,91.90,HSSK 111430Z 35014KT 8000 37/M04 Q1009 NOSIG
HSSK,2021-04-11 15:00,32.5530,15.5890,390.08,96.80,26.60,8.24,350.00,12.00,0.00,29.80,M,4.97,M,M,M,M,M,M,M,M,M,M,M,M,M,M,M,M,90.57,HSSK 111500Z 35012KT 8000 36/M03 Q1009 NOSIG
HSSK,2021-04-11 15:30,32.5530,15.5890,390.08,95.00,23.00,7.49,360.00,12.00,0.00,29.80,M,4.97,M,M,M,M,M,M,M,M,M,M,M,M,M,M,M,M,88.76,HSSK 111530Z 36012KT 8000 35/M05 Q1009 NOSIG
HSSK,2021-04-11 16:00,32.5530,15.5890,390.08,93.20,24.80,8.54,360.00,12.00,0.00,29.83,M,4.97,M,M,M,M,M,M,M,M,M,M,M,M,M,M,M,M,87.56,HSSK 111600Z 36012KT 8000 34/M04 Q1010 NOSIG
HSSK,2021-04-11 16:30,32.5530,15.5890,390.08,93.20,23.00,7.92,360.00,12.00,0.00,29.83,M,5.59,M,M,M,M,M,M,M,M,M,M,M,M,M,M,M,M,87.42,HSSK 111630Z 36012KT 9000 34/M05 Q1010 NOSIG
HSSK,2021-04-11 17:00,32.5530,15.5890,390.08,89.60,23.00,8.87,360.00,10.00,0.00,29.83,M,5.59,M,M,M,M,M,M,M,M,M,M,M,M,M,M,M,M,84.75,HSSK 111700Z 36010KT 9000 32/M05 Q1010 NOSIG
HSSK,2021-04-11 17:30,32.5530,15.5890,390.08,87.80,23.00,9.39,360.00,8.00,0.00,29.85,M,6.21,M,M,M,M,M,M,M,M,M,M,M,M,M,M,M,M,83.43,HSSK 111730Z 36008KT CAVOK 31/M05 Q1011 NOSIG
HSSK,2021-04-11 18:00,32.5530,15.5890,390.08,87.80,23.00,9.39,360.00,8.00,0.00,29.85,M,6.21,M,M,M,M,M,M,M,M,M,M,M,M,M,M,M,M,83.43,HSSK 111800Z 36008KT CAVOK 31/M05 Q1011 NOSIG
HSSK,2021-04-11 18:30,32.5530,15.5890,390.08,89.60,21.20,8.22,350.00,9.00,0.00,29.85,M,6.21,M,M,M,M,M,M,M,M,M,M,M,M,M,M,M,M,84.64,HSSK 111830Z 35009KT CAVOK 32/M06 Q1011 NOSIG
HSSK,2021-04-11 19:00,32.5530,15.5890,390.08,87.80,23.00,9.39,340.00,9.00,0.00,29.88,M,6.21,M,M,M,M,M,M,M,M,M,M,M,M,M,M,M,M,83.43,HSSK 111900Z 34009KT CAVOK 31/M05 Q1012 NOSIG
HSSK,2021-04-11 19:30,32.5530,15.5890,390.08,86.00,21.20,9.21,340.00,10.00,0.00,29.88,M,6.21,M,M,M,M,M,M,M,M,M,M,M,M,M,M,M,M,82.04,HSSK 111930Z 34010KT CAVOK 30/M06 Q1012 NOSIG
HSSK,2021-04-11 20:00,32.5530,15.5890,390.08,86.00,21.20,9.21,340.00,13.00,0.00,29.88,M,6.21,M,M,M,M,M,M,M,M,M,M,M,M,M,M,M,M,82.04,HSSK 112000Z 34013KT CAVOK 30/M06 Q1012 NOSIG
HSSK,2021-04-11 20:30,32.5530,15.5890,390.08,84.20,19.40,9.04,340.00,11.00,0.00,29.88,M,6.21,M,M,M,M,M,M,M,M,M,M,M,M,M,M,M,M,80.68,HSSK 112030Z 34011KT CAVOK 29/M07 Q1012 NOSIG
HSSK,2021-04-11 21:00,32.5530,15.5890,390.08,84.20,24.80,11.35,340.00,10.00,0.00,29.88,M,6.21,M,M,M,M,M,M,M,M,M,M,M,M,M,M,M,M,81.00,HSSK 112100Z 34010KT CAVOK 29/M04 Q1012 NOSIG
HSSK,2021-04-11 21:30,32.5530,15.5890,390.08,82.40,19.40,9.58,350.00,14.00,0.00,29.88,M,6.21,M,M,M,M,M,M,M,M,M,M,M,M,M,M,M,M,79.45,HSSK 112130Z 35014KT CAVOK 28/M07 Q1012 NOSIG
HSSK,2021-04-11 22:00,32.5530,15.5890,390.08,80.60,12.20,7.43,360.00,12.00,0.00,29.88,M,6.21,M,M,M,M,M,M,M,M,M,M,M,M,M,M,M,M,78.16,HSSK 112200Z 36012KT CAVOK 27/M11 Q1012 NOSIG
HSSK,2021-04-11 22:30,32.5530,15.5890,390.08,80.60,12.20,7.43,340.00,10.00,0.00,29.88,M,6.21,M,M,M,M,M,M,M,M,M,M,M,M,M,M,M,M,78.16,HSSK 112230Z 34010KT CAVOK 27/M11 Q1012 NOSIG
HSSK,2021-04-11 23:00,32.5530,15.5890,390.08,78.80,17.60,9.98,360.00,11.00,0.00,29.88,M,6.21,M,M,M,M,M,M,M,M,M,M,M,M,M,M,M,M,M,HSSK 112300Z 36011KT CAVOK 26/M08 Q1012 NOSIG
HSSK,2021-04-11 23:30,32.5530,15.5890,390.08,78.80,14.00,8.53,350.00,12.00,0.00,29.85,M,6.21,M,M,M,M,M,M,M,M,M,M,M,M,M,M,M,M,M,HSSK 112330Z 35012KT CAVOK 26/M10 Q1011 NOSIG
HSSK,2021-04-12 00:00,32.5530,15.5890,390.08,78.80,17.60,9.98,350.00,10.00,0.00,29.85,M,6.21,M,M,M,M,M,M,M,M,M,M,M,M,M,M,M,M,M,HSSK 120000Z 35010KT CAVOK 26/M08 Q1011 NOSIG
HSSK,2021-04-12 00:30,32.5530,15.5890,390.08,77.00,10.40,7.72,350.00,11.00,0.00,29.85,M,6.21,M,M,M,M,M,M,M,M,M,M,M,M,M,M,M,M,M,HSSK 120030Z 35011KT CAVOK 25/M12 Q1011 NOSIG
HSSK,2021-04-12 01:00,32.5530,15.5890,390.08,75.20,8.60,7.56,340.00,9.00,0.00,29.85,M,6.21,M,M,M,M,M,M,M,M,M,M,M,M,M,M,M,M,M,HSSK 120100Z 34009KT CAVOK 24/M13 Q1011 NOSIG
HSSK,2021-04-12 01:30,32.5530,15.5890,390.08,75.20,8.60,7.56,340.00,16.00,0.00,29.85,M,6.21,M,M,M,M,M,M,M,M,M,M,M,M,M,M,M,M,M,HSSK 120130Z 34016KT CAVOK 24/M13 Q1011 NOSIG
HSSK,2021-04-12 02:00,32.5530,15.5890,390.08,75.20,8.60,7.56,350.00,14.00,0.00,29.85,M,6.21,M,M,M,M,M,M,M,M,M,M,M,M,M,M,M,M,M,HSSK 120200Z 35014KT CAVOK 24/M13 Q1011 NOSIG
HSSK,2021-04-12 02:30,32.5530,15.5890,390.08,73.40,10.40,8.71,340.00,12.00,0.00,29.85,M,6.21,M,M,M,M,M,M,M,M,M,M,M,M,M,M,M,M,M,HSSK 120230Z 34012KT CAVOK 23/M12 Q1011 NOSIG
HSSK,2021-04-12 03:00,32.5530,15.5890,390.08,73.40,10.40,8.71,360.00,12.00,0.00,29.88,M,6.21,M,M,M,M,M,M,M,M,M,M,M,M,M,M,M,M,M,HSSK 120300Z 36012KT CAVOK 23/M12 Q1012 NOSIG
HSSK,2021-04-12 03:30,32.5530,15.5890,390.08,71.60,10.40,9.25,360.00,10.00,0.00,29.88,M,6.21,M,M,M,M,M,M,M,M,M,M,M,M,M,M,M,M,M,HSSK 120330Z 36010KT CAVOK 22/M12 Q1012 NOSIG
HSSK,2021-04-12 04:00,32.5530,15.5890,390.08,69.80,10.40,9.84,360.00,10.00,0.00,29.91,M,6.21,M,M,M,M,M,M,M,M,M,M,M,M,M,M,M,M,M,HSSK 120400Z 36010KT CAVOK 21/M12 Q1013 NOSIG
HSSK,2021-04-12 04:30,32.5530,15.5890,390.08,71.60,10.40,9.25,360.00,11.00,0.00,29.91,M,6.21,M,M,M,M,M,M,M,M,M,M,M,M,M,M,M,M,M,HSSK 120430Z 36011KT CAVOK 22/M12 Q1013 NOSIG
HSSK,2021-04-12 05:00,32.5530,15.5890,390.08,73.40,10.40,8.71,350.00,13.00,0.00,29.91,M,6.21,M,M,M,M,M,M,M,M,M,M,M,M,M,M,M,M,M,HSSK 120500Z 35013KT CAVOK 23/M12 Q1013 NOSIG
HSSK,2021-04-12 05:30,32.5530,15.5890,390.08,73.40,10.40,8.71,350.00,13.00,0.00,29.91,M,6.21,M,M,M,M,M,M,M,M,M,M,M,M,M,M,M,M,M,HSSK 120530Z 35013KT CAVOK 23/M12 Q1013 NOSIG
HSSK,2021-04-12 06:00,32.5530,15.5890,390.08,75.20,17.60,11.24,350.00,12.00,0.00,29.94,M,6.21,M,M,M,M,M,M,M,M,M,M,M,M,M,M,M,M,M,HSSK 120600Z 35012KT CAVOK 24/M08 Q1014 NOSIG
HSSK,2021-04-12 06:30,32.5530,15.5890,390.08,75.20,17.60,11.24,350.00,12.00,0.00,29.97,M,6.21,M,M,M,M,M,M,M,M,M,M,M,M,M,M,M,M,M,HSSK 120630Z 35012KT CAVOK 24/M08 Q1015 NOSIG
HSSK,2021-04-12 07:30,32.5530,15.5890,390.08,80.60,12.20,7.43,350.00,12.00,0.00,29.94,M,6.21,M,M,M,M,M,M,M,M,M,M,M,M,M,M,M,M,78.16,HSSK 120730Z 35012KT CAVOK 27/M11 Q1014 NOSIG
HSSK,2021-04-12 08:00,32.5530,15.5890,390.08,86.00,17.60,7.90,350.00,10.00,0.00,29.94,M,6.21,M,M,M,M,M,M,M,M,M,M,M,M,M,M,M,M,81.85,HSSK 120800Z 35010KT CAVOK 30/M08 Q1014 NOSIG
HSSK,2021-04-12 08:30,32.5530,15.5890,390.08,86.00,23.00,9.94,350.00,11.00,0.00,29.94,M,6.21,M,M,M,M,M,M,M,M,M,M,M,M,M,M,M,M,82.14,HSSK 120830Z 35011KT CAVOK 30/M05 Q1014 NOSIG
HSSK,2021-04-12 09:00,32.5530,15.5890,390.08,87.80,26.60,10.91,330.00,10.00,0.00,29.94,M,6.21,M,M,M,M,M,M,M,M,M,M,M,M,M,M,M,M,83.69,HSSK 120900Z 33010KT CAVOK 31/M03 Q1014 NOSIG
HSSK,2021-04-12 09:30,32.5530,15.5890,390.08,91.40,23.00,8.38,350.00,14.00,0.00,29.94,M,6.21,M,M,M,M,M,M,M,M,M,M,M,M,M,M,M,M,86.08,HSSK 120930Z 35014KT CAVOK 33/M05 Q1014 NOSIG
HSSK,2021-04-12 10:00,32.5530,15.5890,390.08,93.20,10.40,4.59,350.00,12.00,0.00,29.91,M,6.21,M,M,M,M,M,M,M,M,M,M,M,M,M,M,M,M,86.76,HSSK 121000Z 35012KT CAVOK 34/M12 Q1013 NOSIG
HSSK,2021-04-12 10:30,32.5530,15.5890,390.08,93.20,21.20,7.34,340.00,7.00,0.00,29.91,M,6.21,M,M,M,M,M,M,M,M,M,M,M,M,M,M,M,M,87.29,HSSK 121030Z 34007KT CAVOK 34/M06 Q1013 NOSIG
HSSK,2021-04-13 19:00,32.5530,15.5890,390.08,82.40,19.40,9.58,360.00,6.00,0.00,29.91,M,6.21,M,M,M,M,M,M,M,M,M,M,M,M,M,M,M,M,79.45,HSSK 131900Z 36006KT CAVOK 28/M07 Q1013 NOSIG
HSSK,2021-04-13 19:30,32.5530,15.5890,390.08,82.40,19.40,9.58,340.00,7.00,0.00,29.91,M,6.21,M,M,M,M,M,M,M,M,M,M,M,M,M,M,M,M,79.45,HSSK 131930Z 34007KT CAVOK 28/M07 Q1013 NOSIG
HSSK,2021-04-13 20:30,32.5530,15.5890,390.08,78.80,17.60,9.98,360.00,7.00,0.00,29.91,M,6.21,M,M,M,M,M,M,M,M,M,M,M,M,M,M,M,M,M,HSSK 132030Z 36007KT CAVOK 26/M08 Q1013 NOSIG
HSSK,2021-04-13 21:00,32.5530,15.5890,390.08,77.00,10.40,7.72,340.00,5.00,0.00,29.91,M,6.21,M,M,M,M,M,M,M,M,M,M,M,M,M,M,M,M,M,HSSK 132100Z 34005KT CAVOK 25/M12 Q1013 NOSIG
HSSK,2021-04-13 21:30,32.5530,15.5890,390.08,78.80,17.60,9.98,350.00,8.00,0.00,29.91,M,6.21,M,M,M,M,M,M,M,M,M,M,M,M,M,M,M,M,M,HSSK 132130Z 35008KT CAVOK 26/M08 Q1013 NOSIG
,,,,,,,,,,,,,,,,,,,,,,,,,,,,,,,
