station,valid,lon,lat,elevation,tmpf,dwpf,relh,drct,sknt,p01i,alti,mslp,vsby,gust,skyc1,skyc2,skyc3,skyc4,skyl1,skyl2,skyl3,skyl4,wxcodes,ice_accretion_1hr,ice_accretion_3hr,ice_accretion_6hr,peak_wind_gust,peak_wind_drct,peak_wind_time,feel,metar
UMMM,2018-03-01 05:30,27.5397,53.8645,234.00,6.80,3.20,84.80,10.00,9.72,0.00,30.18,M,6.21,M,OVC,M,M,M,2000.00,M,M,M,M,M,M,M,M,M,M,-8.41,UMMM 010530Z 01005MPS //// OVC020 M14/M16 Q1022 RMK QFE746
UMMM,2018-03-01 06:00,27.5397,53.8645,234.00,6.80,3.20,84.80,30.00,11.66,0.00,30.15,M,6.21,17.49,OVC,M,M,M,1300.00,M,M,M,M,M,M,M,M,M,M,-9.84,UMMM 010600Z 03006G09MPS //// OVC013 M14/M16 Q1021 RMK QFE745
UMMM,2018-03-01 07:00,27.5397,53.8645,234.00,6.80,5.00,92.12,50.00,11.66,0.00,30.12,M,6.21,17.49,OVC,M,M,M,1000.00,M,M,M,-SN BLSN,M,M,M,M,M,M,-9.84,UMMM 010700Z 05006G09MPS //// -SN BLSN OVC010 M14/M15 Q1020 RMK QFE745
UMMM,2018-03-01 08:00,27.5397,53.8645,234.00,6.80,5.00,92.12,30.00,9.72,0.00,30.09,M,6.21,19.44,OVC,M,M,M,1200.00,M,M,M,-SN BLSN,M,M,M,M,M,M,-8.41,UMMM 010800Z 03005G10MPS //// -SN BLSN OVC012 M14/M15 Q1019 RMK QFE744
UMMM,2018-03-01 09:00,27.5397,53.8645,234.00,6.80,5.00,92.12,50.00,11.66,0.00,30.09,M,6.21,17.49,OVC,M,M,M,1100.00,M,M,M,-SN BLSN,M,M,M,M,M,M,-9.84,UMMM 010900Z 05006G09MPS //// -SN BLSN OVC011 M14/M15 Q1019 RMK QFE744
UMMM,2018-03-01 10:00,27.5397,53.8645,234.00,8.60,5.00,84.93,30.00,9.72,0.00,30.06,M,6.21,15.55,OVC,M,M,M,1200.00,M,M,M,SN BLSN,M,M,M,M,M,M,-6.16,UMMM 011000Z 03005G08MPS //// SN BLSN OVC012 M13/M15 Q1018 RMK QFE743
UMMM,2018-03-01 11:00,27.5397,53.8645,234.00,10.40,6.80,85.05,30.00,7.78,0.00,30.03,M,6.21,M,OVC,M,M,M,800.00,M,M,M,SN,M,M,M,M,M,M,-2.29,UMMM 011100Z 03004MPS //// SN OVC008 M12/M14 Q1017 RMK QFE743
UMMM,2018-03-01 12:00,27.5397,53.8645,234.00,10.40,8.60,92.25,30.00,7.78,0.00,30.00,M,6.21,M,OVC,M,M,M,700.00,M,M,M,SN,M,M,M,M,M,M,-2.29,UMMM 011200Z 03004MPS //// SN OVC007 M12/M13 Q1016 RMK QFE742
UMMM,2018-03-01 13:00,27.5397,53.8645,234.00,12.20,10.40,92.32,30.00,9.72,0.00,30.00,M,6.21,M,OVC,M,M,M,600.00,M,M,M,SN,M,M,M,M,M,M,-1.66,UMMM 011300Z 03005MPS //// SN OVC006 M11/M12 Q1016 RMK QFE742 QBB180
UMMM,2018-03-01 14:00,27.5397,53.8645,234.00,12.20,12.20,100.00,40.00,9.72,0.00,30.00,M,6.21,M,OVC,M,M,M,800.00,M,M,M,-SN,M,M,M,M,M,M,-1.66,UMMM 011400Z 04005MPS //// -SN OVC008 M11/M11 Q1016 RMK QFE742
UMMM,2018-03-02 05:30,27.5397,53.8645,234.00,12.20,10.40,92.32,70.00,5.83,0.00,29.88,M,6.21,M,BKN,OVC,M,M,2600.00,10000.00,M,M,M,M,M,M,M,M,M,1.87,UMMM 020530Z 07003MPS //// BKN026 OVC100 M11/M12 Q1012 RMK QFE739
UMMM,2018-03-02 06:00,27.5397,53.8645,234.00,12.20,10.40,92.32,60.00,7.78,0.00,29.88,M,6.21,M,BKN,OVC,M,M,2600.00,10000.00,M,M,-SN,M,M,M,M,M,M,-0.08,UMMM 020600Z 06004MPS //// -SN BKN026 OVC100 M11/M12 Q1012 RMK QFE739
UMMM,2018-03-02 07:00,27.5397,53.8645,234.00,14.00,10.40,85.28,70.00,7.78,0.00,29.88,M,6.21,M,OVC,M,M,M,2400.00,M,M,M,-SN,M,M,M,M,M,M,2.13,UMMM 020700Z 07004MPS //// -SN OVC024 M10/M12 Q1012 RMK QFE739
UMMM,2018-03-02 08:00,27.5397,53.8645,234.00,15.80,10.40,78.84,80.00,7.78,0.00,29.88,M,6.21,M,OVC,M,M,M,2400.00,M,M,M,-SN BR,M,M,M,M,M,M,4.35,UMMM 020800Z 08004MPS //// -SN BR OVC024 M09/M12 Q1012 RMK QFE738
UMMM,2018-03-02 09:00,27.5397,53.8645,234.00,15.80,10.40,78.84,90.00,9.72,0.00,29.88,M,6.21,M,BKN,BKN,M,M,2400.00,10000.00,M,M,-SN BR,M,M,M,M,M,M,2.85,UMMM 020900Z 09005MPS //// -SN BR BKN024 BKN100 M09/M12 Q1012 RMK QFE738
UMMM,2018-03-02 10:00,27.5397,53.8645,234.00,17.60,12.20,79.00,100.00,9.72,0.00,29.85,M,6.21,M,BKN,BKN,M,M,2800.00,10000.00,M,M,-SN BR,M,M,M,M,M,M,5.10,UMMM 021000Z 10005MPS //// -SN BR BKN028 BKN100 M08/M11 Q1011 RMK QFE738
UMMM,2018-03-02 11:00,27.5397,53.8645,234.00,17.60,10.40,72.93,90.00,9.72,0.00,29.85,M,6.21,M,BKN,BKN,M,M,2000.00,10000.00,M,M,-SN,M,M,M,M,M,M,5.10,UMMM 021100Z 09005MPS //// -SN BKN020 BKN100 M08/M12 Q1011 RMK QFE738
UMMM,2018-03-02 12:00,27.5397,53.8645,234.00,17.60,10.40,72.93,100.00,9.72,0.00,29.85,M,6.21,M,BKN,BKN,M,M,2000.00,10000.00,M,M,SN,M,M,M,M,M,M,5.10,UMMM 021200Z 10005MPS //// SN BKN020 BKN100 M08/M12 Q1011 RMK QFE738
UMMM,2018-03-02 13:00,27.5397,53.8645,234.00,17.60,10.40,72.93,100.00,9.72,0.00,29.85,M,6.21,M,BKN,BKN,M,M,2000.00,10000.00,M,M,-SN,M,M,M,M,M,M,5.10,UMMM 021300Z 10005MPS //// -SN BKN020 BKN100 M08/M12 Q1011 RMK QFE738
UMMM,2018-03-02 14:00,27.5397,53.8645,234.00,17.60,10.40,72.93,100.00,9.72,0.00,29.83,M,6.21,M,BKN,OVC,M,M,1300.00,10000.00,M,M,-SN,M,M,M,M,M,M,5.10,UMMM 021400Z 10005MPS //// -SN BKN013 OVC100 M08/M12 Q1010 RMK QFE737
UMMM,2018-03-03 05:30,27.5397,53.8645,234.00,6.80,6.80,100.00,30.00,7.78,0.00,29.59,M,6.21,M,OVC,M,M,M,2400.00,M,M,M,-SN,M,M,M,M,M,M,-6.72,UMMM 030530Z 03004MPS //// -SN OVC024 M14/M14 Q1002 RMK QFE732
UMMM,2018-03-03 06:00,27.5397,53.8645,234.00,8.60,6.80,92.19,30.00,7.78,0.00,29.59,M,6.21,M,BKN,OVC,M,M,2400.00,10000.00,M,M,-SN,M,M,M,M,M,M,-4.50,UMMM 030600Z 03004MPS //// -SN BKN024 OVC100 M13/M14 Q1002 RMK QFE732
UMMM,2018-03-03 07:00,27.5397,53.8645,234.00,8.60,6.80,92.19,40.00,7.78,0.00,29.56,M,6.21,M,OVC,M,M,M,2100.00,M,M,M,SN BR,M,M,M,M,M,M,-4.50,UMMM 030700Z 04004MPS //// SN BR OVC021 M13/M14 Q1001 RMK QFE730
UMMM,2018-03-03 08:00,27.5397,53.8645,234.00,10.40,6.80,85.05,40.00,7.78,0.00,29.53,M,6.21,M,OVC,M,M,M,2000.00,M,M,M,SN BR,M,M,M,M,M,M,-2.29,UMMM 030800Z 04004MPS //// SN BR OVC020 M12/M14 Q1000 RMK QFE730
UMMM,2018-03-03 09:00,27.5397,53.8645,234.00,12.20,8.60,85.17,50.00,7.78,0.00,29.53,M,6.21,M,OVC,M,M,M,2000.00,M,M,M,SN BR,M,M,M,M,M,M,-0.08,UMMM 030900Z 05004MPS //// SN BR OVC020 M11/M13 Q1000 RMK QFE730
UMMM,2018-03-03 10:00,27.5397,53.8645,234.00,14.00,10.40,85.28,50.00,7.78,0.00,29.50,M,6.21,M,OVC,M,M,M,1000.00,M,M,M,SN BR,M,M,M,M,M,M,2.13,UMMM 031000Z 05004MPS //// SN BR OVC010 M10/M12 Q0999 RMK QFE729
UMMM,2018-03-03 11:00,27.5397,53.8645,234.00,15.80,14.00,92.44,40.00,7.78,0.00,29.50,M,6.21,M,OVC,M,M,M,1000.00,M,M,M,SN BR,M,M,M,M,M,M,4.35,UMMM 031100Z 04004MPS //// SN BR OVC010 M09/M10 Q0999 RMK QFE729
UMMM,2018-03-03 12:00,27.5397,53.8645,234.00,17.60,15.80,92.50,40.00,7.78,0.00,29.47,M,6.21,M,OVC,M,M,M,1600.00,M,M,M,SN BR,M,M,M,M,M,M,6.56,UMMM 031200Z 04004MPS //// SN BR OVC016 M08/M09 Q0998 RMK QFE729
UMMM,2018-03-03 13:00,27.5397,53.8645,234.00,19.40,15.80,85.63,40.00,7.78,0.00,29.47,M,6.21,M,OVC,M,M,M,1400.00,M,M,M,SN BR,M,M,M,M,M,M,8.77,UMMM 031300Z 04004MPS //// SN BR OVC014 M07/M09 Q0998 RMK QFE728
UMMM,2018-03-03 14:00,27.5397,53.8645,234.00,19.40,17.60,92.57,30.00,7.78,0.00,29.44,M,6.21,M,OVC,M,M,M,1400.00,M,M,M,SN BR,M,M,M,M,M,M,8.77,UMMM 031400Z 03004MPS //// SN BR OVC014 M07/M08 Q0997 RMK QFE728
UMMM,2018-03-05 05:30,27.5397,53.8645,234.00,12.20,10.40,92.32,300.00,3.89,0.00,29.77,M,6.21,M,NSC,M,M,M,M,M,M,M,M,M,M,M,M,M,M,4.48,UMMM 050530Z 30002MPS //// NSC M11/M12 Q1008 RMK QFE736
UMMM,2018-03-05 06:00,27.5397,53.8645,234.00,12.20,10.40,92.32,300.00,3.89,0.00,29.80,M,6.21,M,NSC,M,M,M,M,M,M,M,M,M,M,M,M,M,M,4.48,UMMM 050600Z 30002MPS //// NSC M11/M12 Q1009 RMK QFE737
UMMM,2018-03-05 07:00,27.5397,53.8645,234.00,15.80,14.00,92.44,320.00,1.94,0.00,29.80,M,6.21,M,NSC,M,M,M,M,M,M,M,M,M,M,M,M,M,M,15.80,UMMM 050700Z 32001MPS //// NSC M09/M10 Q1009 RMK QFE738
UMMM,2018-03-05 08:00,27.5397,53.8645,234.00,17.60,14.00,85.51,320.00,1.94,0.00,29.83,M,6.21,M,NSC,M,M,M,M,M,M,M,M,M,M,M,M,M,M,17.60,UMMM 050800Z 32001MPS //// NSC M08/M10 Q1010 RMK QFE738
UMMM,2018-03-05 09:00,27.5397,53.8645,234.00,23.00,15.80,73.51,310.00,1.94,0.00,29.83,M,6.21,M,NSC,M,M,M,M,M,M,M,M,M,M,M,M,M,M,23.00,UMMM 050900Z 31001MPS //// NSC M05/M09 Q1010 RMK QFE738
UMMM,2018-03-05 10:00,27.5397,53.8645,234.00,24.80,15.80,68.18,340.00,1.94,0.00,29.83,M,6.21,M,NSC,M,M,M,M,M,M,M,M,M,M,M,M,M,M,24.80,UMMM 051000Z 34001MPS //// NSC M04/M09 Q1010 RMK QFE738
UMMM,2018-03-05 11:00,27.5397,53.8645,234.00,30.20,15.80,54.59,0.00,0.00,0.00,29.85,M,6.21,M,NSC,M,M,M,M,M,M,M,M,M,M,M,M,M,M,30.20,UMMM 051100Z 00000MPS //// NSC M01/M09 Q1011 RMK QFE738
UMMM,2018-03-05 12:00,27.5397,53.8645,234.00,30.20,15.80,54.59,100.00,3.89,0.00,29.85,M,6.21,M,NSC,M,M,M,M,M,M,M,M,M,M,M,M,M,M,25.45,UMMM 051200Z 10002MPS //// NSC M01/M09 Q1011 RMK QFE738
UMMM,2018-03-05 13:00,27.5397,53.8645,234.00,26.60,12.20,54.03,130.00,3.89,0.00,29.85,M,6.21,M,NSC,M,M,M,M,M,M,M,M,M,M,M,M,M,M,21.26,UMMM 051300Z 13002MPS //// NSC M03/M11 Q1011 RMK QFE738
UMMM,2018-03-05 14:00,27.5397,53.8645,234.00,24.80,12.20,58.22,160.00,3.89,0.00,29.85,M,6.21,M,NSC,M,M,M,M,M,M,M,M,M,M,M,M,M,M,19.16,UMMM 051400Z 16002MPS //// NSC M04/M11 Q1011 RMK QFE737
UMMM,2018-03-06 05:30,27.5397,53.8645,234.00,19.40,15.80,85.63,110.00,9.72,0.00,29.71,M,6.21,M,NSC,M,M,M,M,M,M,M,M,M,M,M,M,M,M,7.35,UMMM 060530Z 11005MPS //// NSC M07/M09 Q1006 RMK QFE735
UMMM,2018-03-06 06:00,27.5397,53.8645,234.00,19.40,15.80,85.63,120.00,9.72,0.00,29.71,M,6.21,M,NSC,M,M,M,M,M,M,M,M,M,M,M,M,M,M,7.35,UMMM 060600Z 12005MPS //// NSC M07/M09 Q1006 RMK QFE734
UMMM,2018-03-06 07:00,27.5397,53.8645,234.00,21.20,15.80,79.31,120.00,9.72,0.00,29.71,M,6.21,15.55,NSC,M,M,M,M,M,M,M,M,M,M,M,M,M,M,9.60,UMMM 060700Z 12005G08MPS //// NSC M06/M09 Q1006 RMK QFE734
UMMM,2018-03-06 08:00,27.5397,53.8645,234.00,23.00,19.40,85.85,110.00,9.72,0.00,29.71,M,6.21,M,NSC,M,M,M,M,M,M,M,M,M,M,M,M,M,M,11.86,UMMM 060800Z 11005MPS //// NSC M05/M07 Q1006 RMK QFE734
UMMM,2018-03-06 09:00,27.5397,53.8645,234.00,23.00,21.20,92.69,120.00,9.72,0.00,29.71,M,6.21,M,OVC,M,M,M,1000.00,M,M,M,M,M,M,M,M,M,M,11.86,UMMM 060900Z 12005MPS //// OVC010 M05/M06 Q1006 RMK QFE734
UMMM,2018-03-06 10:00,27.5397,53.8645,234.00,24.80,21.20,85.96,110.00,7.78,0.00,29.68,M,6.21,M,OVC,M,M,M,1200.00,M,M,M,M,M,M,M,M,M,M,15.41,UMMM 061000Z 11004MPS //// OVC012 M04/M06 Q1005 RMK QFE734
UMMM,2018-03-06 11:00,27.5397,53.8645,234.00,24.80,21.20,85.96,110.00,9.72,0.00,29.68,M,6.21,M,BKN,OVC,M,M,1700.00,10000.00,M,M,M,M,M,M,M,M,M,14.11,UMMM 061100Z 11005MPS //// BKN017 OVC100 M04/M06 Q1005 RMK QFE733
UMMM,2018-03-06 12:00,27.5397,53.8645,234.00,28.40,19.40,68.61,120.00,9.72,0.00,29.65,M,6.21,M,SCT,BKN,M,M,2200.00,10000.00,M,M,M,M,M,M,M,M,M,18.61,UMMM 061200Z 12005MPS //// SCT022 BKN100 M02/M07 Q1004 RMK QFE733
UMMM,2018-03-06 13:00,27.5397,53.8645,234.00,28.40,19.40,68.61,110.00,9.72,0.00,29.65,M,6.21,M,NSC,M,M,M,M,M,M,M,M,M,M,M,M,M,M,18.61,UMMM 061300Z 11005MPS //// NSC M02/M07 Q1004 RMK QFE733
UMMM,2018-03-06 14:00,27.5397,53.8645,234.00,28.40,21.20,74.08,110.00,7.78,0.00,29.65,M,6.21,M,NSC,M,M,M,M,M,M,M,M,M,M,M,M,M,M,19.83,UMMM 061400Z 11004MPS //// NSC M02/M06 Q1004 RMK QFE733
UMMM,2018-03-07 05:30,27.5397,53.8645,234.00,26.60,24.80,92.80,80.00,9.72,0.00,29.53,M,6.21,M,OVC,M,M,M,600.00,M,M,M,SN BR,M,M,M,M,M,M,16.36,UMMM 070530Z 08005MPS //// SN BR OVC006 M03/M04 Q1000 RMK QFE730 QBB180
UMMM,2018-03-07 06:00,27.5397,53.8645,234.00,26.60,24.80,92.80,90.00,9.72,0.00,29.53,M,6.21,M,OVC,M,M,M,700.00,M,M,M,SHSN BR,M,M,M,M,M,M,16.36,UMMM 070600Z 09005MPS //// SHSN BR OVC007CB M03/M04 Q1000 RMK QFE730
UMMM,2018-03-07 07:00,27.5397,53.8645,234.00,26.60,24.80,92.80,90.00,9.72,0.00,29.53,M,6.21,M,OVC,M,M,M,700.00,M,M,M,SHSN BR,M,M,M,M,M,M,16.36,UMMM 070700Z 09005MPS //// SHSN BR OVC007CB M03/M04 Q1000 RMK QFE730
UMMM,2018-03-07 08:00,27.5397,53.8645,234.00,26.60,24.80,92.80,100.00,9.72,0.00,29.53,M,6.21,M,OVC,M,M,M,700.00,M,M,M,SHSN BR,M,M,M,M,M,M,16.36,UMMM 070800Z 10005MPS //// SHSN BR OVC007CB M03/M04 Q1000 RMK QFE730
UMMM,2018-03-07 09:00,27.5397,53.8645,234.00,28.40,24.80,86.18,100.00,9.72,0.00,29.53,M,6.21,M,OVC,M,M,M,700.00,M,M,M,-SHSN BR,M,M,M,M,M,M,18.61,UMMM 070900Z 10005MPS //// -SHSN BR OVC007CB M02/M04 Q1000 RMK QFE730
UMMM,2018-03-07 10:00,27.5397,53.8645,234.00,28.40,24.80,86.18,100.00,9.72,0.00,29.53,M,6.21,M,OVC,M,M,M,900.00,M,M,M,-SN BR,M,M,M,M,M,M,18.61,UMMM 071000Z 10005MPS //// -SN BR OVC009 M02/M04 Q1000 RMK QFE730
UMMM,2018-03-07 11:00,27.5397,53.8645,234.00,30.20,26.60,86.28,100.00,9.72,0.00,29.53,M,6.21,M,OVC,M,M,M,1000.00,M,M,M,-SN BR,M,M,M,M,M,M,20.86,UMMM 071100Z 10005MPS //// -SN BR OVC010 M01/M03 Q1000 RMK QFE730
UMMM,2018-03-07 12:00,27.5397,53.8645,234.00,32.00,26.60,80.22,80.00,9.72,0.00,29.53,M,6.21,M,OVC,M,M,M,1400.00,M,M,M,M,M,M,M,M,M,M,23.12,UMMM 071200Z 08005MPS //// OVC014 M00/M03 Q1000 RMK QFE730
UMMM,2018-03-07 13:00,27.5397,53.8645,234.00,32.00,26.60,80.22,70.00,7.78,0.00,29.50,M,6.21,M,OVC,M,M,M,1400.00,M,M,M,M,M,M,M,M,M,M,24.26,UMMM 071300Z 07004MPS //// OVC014 00/M03 Q0999 RMK QFE729
UMMM,2018-03-07 14:00,27.5397,53.8645,234.00,32.00,26.60,80.22,70.00,7.78,0.00,29.50,M,6.21,M,OVC,M,M,M,1600.00,M,M,M,M,M,M,M,M,M,M,24.26,UMMM 071400Z 07004MPS //// OVC016 00/M03 Q0999 RMK QFE729
UMMM,2018-03-12 05:30,27.5397,53.8645,234.00,33.80,33.80,100.00,130.00,5.83,0.00,29.80,M,6.21,M,VV ,M,M,M,200.00,M,M,M,FG,M,M,M,M,M,M,27.83,UMMM 120530Z 13003MPS //// FG VV002 01/01 Q1009 RMK QFE736 QBB060
UMMM,2018-03-12 06:00,27.5397,53.8645,234.00,33.80,33.80,100.00,130.00,7.78,0.00,29.80,M,6.21,M,VV ,M,M,M,300.00,M,M,M,FG,M,M,M,M,M,M,26.47,UMMM 120600Z 13004MPS //// FG VV003 01/01 Q1009 RMK QFE736 QBB090
UMMM,2018-03-12 07:00,27.5397,53.8645,234.00,35.60,33.80,93.08,110.00,9.72,0.00,29.80,M,6.21,M,VV ,M,M,M,200.00,M,M,M,FG,M,M,M,M,M,M,27.62,UMMM 120700Z 11005MPS //// FG VV002 02/01 Q1009 RMK QFE736 QBB060
UMMM,2018-03-12 08:00,27.5397,53.8645,234.00,35.60,33.80,93.08,120.00,9.72,0.00,29.80,M,6.21,M,VV ,M,M,M,200.00,M,M,M,FG,M,M,M,M,M,M,27.62,UMMM 120800Z 12005MPS //// FG VV002 02/01 Q1009 RMK QFE736 QBB080
UMMM,2018-03-12 09:00,27.5397,53.8645,234.00,35.60,33.80,93.08,120.00,9.72,0.00,29.77,M,6.21,M,VV ,M,M,M,200.00,M,M,M,FG,M,M,M,M,M,M,27.62,UMMM 120900Z 12005MPS //// FG VV002 02/01 Q1008 RMK QFE736 QBB080
UMMM,2018-03-12 10:00,27.5397,53.8645,234.00,35.60,35.60,100.00,110.00,9.72,0.00,29.77,M,6.21,M,VV ,M,M,M,200.00,M,M,M,FG,M,M,M,M,M,M,27.62,UMMM 121000Z 11005MPS //// FG VV002 02/02 Q1008 RMK QFE736 QBB070
UMMM,2018-03-12 11:00,27.5397,53.8645,234.00,33.80,33.80,100.00,110.00,9.72,0.00,29.74,M,6.21,M,VV ,M,M,M,400.00,M,M,M,FG,M,M,M,M,M,M,25.37,UMMM 121100Z 11005MPS //// FG VV004 01/01 Q1007 RMK QFE735 QBB120
UMMM,2018-03-12 12:00,27.5397,53.8645,234.00,33.80,33.80,100.00,110.00,9.72,0.00,29.74,M,6.21,M,VV ,M,M,M,200.00,M,M,M,FG,M,M,M,M,M,M,25.37,UMMM 121200Z 11005MPS //// FG VV002 01/01 Q1007 RMK QFE735 QBB080
UMMM,2018-03-12 13:00,27.5397,53.8645,234.00,33.80,33.80,100.00,120.00,9.72,0.00,29.74,M,6.21,M,VV ,M,M,M,200.00,M,M,M,FG,M,M,M,M,M,M,25.37,UMMM 121300Z 12005MPS //// FG VV002 01/01 Q1007 RMK QFE735 QBB070
UMMM,2018-03-12 14:00,27.5397,53.8645,234.00,35.60,35.60,100.00,130.00,9.72,0.00,29.71,M,6.21,M,OVC,M,M,M,300.00,M,M,M,BR,M,M,M,M,M,M,27.62,UMMM 121400Z 13005MPS //// BR OVC003 02/02 Q1006 RMK QFE735 QBB100
UMMM,2018-03-13 05:30,27.5397,53.8645,234.00,35.60,35.60,100.00,140.00,9.72,0.00,29.56,M,6.21,M,VV ,M,M,M,100.00,M,M,M,FG,M,M,M,M,M,M,27.62,UMMM 130530Z 14005MPS //// FG VV001 02/02 Q1001 RMK QFE731 QBB050
UMMM,2018-03-13 06:00,27.5397,53.8645,234.00,35.60,35.60,100.00,140.00,9.72,0.00,29.56,M,6.21,15.55,VV ,M,M,M,100.00,M,M,M,FG,M,M,M,M,M,M,27.62,UMMM 130600Z 14005G08MPS //// FG VV001 02/02 Q1001 RMK QFE731 QBB050
UMMM,2018-03-13 07:00,27.5397,53.8645,234.00,35.60,35.60,100.00,140.00,9.72,0.00,29.56,M,6.21,15.55,VV ,M,M,M,100.00,M,M,M,FG,M,M,M,M,M,M,27.62,UMMM 130700Z 14005G08MPS //// FG VV001 02/02 Q1001 RMK QFE731 QBB050
UMMM,2018-03-13 08:00,27.5397,53.8645,234.00,35.60,35.60,100.00,140.00,9.72,0.00,29.59,M,6.21,15.55,VV ,M,M,M,100.00,M,M,M,FG,M,M,M,M,M,M,27.62,UMMM 130800Z 14005G08MPS //// FG VV001 02/02 Q1002 RMK QFE731 QBB050
UMMM,2018-03-13 09:00,27.5397,53.8645,234.00,35.60,35.60,100.00,180.00,9.72,0.00,29.56,M,6.21,M,VV ,M,M,M,200.00,M,M,M,FG,M,M,M,M,M,M,27.62,UMMM 130900Z 18005MPS //// FG VV002 02/02 Q1001 RMK QFE731 QBB080
UMMM,2018-03-13 10:00,27.5397,53.8645,234.00,35.60,35.60,100.00,140.00,7.78,0.00,29.56,M,6.21,M,VV ,M,M,M,200.00,M,M,M,FG,M,M,M,M,M,M,28.68,UMMM 131000Z 14004MPS //// FG VV002 02/02 Q1001 RMK QFE731 QBB070
UMMM,2018-03-13 11:00,27.5397,53.8645,234.00,35.60,35.60,100.00,150.00,11.66,0.00,29.56,M,6.21,M,VV ,M,M,M,200.00,M,M,M,FG,M,M,M,M,M,M,26.73,UMMM 131100Z 15006MPS //// FG VV002 02/02 Q1001 RMK QFE731 QBB070
UMMM,2018-03-13 12:00,27.5397,53.8645,234.00,37.40,35.60,93.14,150.00,9.72,0.00,29.56,M,6.21,M,VV ,M,M,M,200.00,M,M,M,FG,M,M,M,M,M,M,29.87,UMMM 131200Z 15005MPS //// FG VV002 03/02 Q1001 RMK QFE731 QBB060
UMMM,2018-03-13 13:00,27.5397,53.8645,234.00,37.40,35.60,93.14,150.00,9.72,0.00,29.56,M,6.21,15.55,VV ,M,M,M,200.00,M,M,M,FG,M,M,M,M,M,M,29.87,UMMM 131300Z 15005G08MPS //// FG VV002 03/02 Q1001 RMK QFE731 QBB070
UMMM,2018-03-13 14:00,27.5397,53.8645,234.00,37.40,35.60,93.14,160.00,9.72,0.00,29.56,M,6.21,15.55,VV ,M,M,M,200.00,M,M,M,FG,M,M,M,M,M,M,29.87,UMMM 131400Z 16005G08MPS //// FG VV002 03/02 Q1001 RMK QFE731 QBB060
UMMM,2018-03-14 05:30,27.5397,53.8645,234.00,33.80,33.80,100.00,180.00,5.83,0.00,29.62,M,6.21,M,VV ,M,M,M,100.00,M,M,M,FG,M,M,M,M,M,M,27.83,UMMM 140530Z 18003MPS //// FG VV001 01/01 Q1003 RMK QFE732 QBB050
UMMM,2018-03-14 06:00,27.5397,53.8645,234.00,33.80,33.80,100.00,160.00,5.83,0.00,29.62,M,6.21,M,VV ,M,M,M,100.00,M,M,M,FG,M,M,M,M,M,M,27.83,UMMM 140600Z 16003MPS //// FG VV001 01/01 Q1003 RMK QFE732 QBB050
UMMM,2018-03-14 07:00,27.5397,53.8645,234.00,33.80,33.80,100.00,180.00,5.83,0.00,29.62,M,6.21,M,VV ,M,M,M,100.00,M,M,M,FG,M,M,M,M,M,M,27.83,UMMM 140700Z 18003MPS //// FG VV001 01/01 Q1003 RMK QFE732 QBB050
UMMM,2018-03-14 08:00,27.5397,53.8645,234.00,35.60,35.60,100.00,180.00,3.89,0.00,29.65,M,6.21,M,VV ,M,M,M,200.00,M,M,M,FG,M,M,M,M,M,M,31.74,UMMM 140800Z 18002MPS //// FG VV002 02/02 Q1004 RMK QFE733 QBB060
UMMM,2018-03-14 09:00,27.5397,53.8645,234.00,35.60,35.60,100.00,180.00,3.89,0.00,29.65,M,6.21,M,VV ,M,M,M,200.00,M,M,M,FG,M,M,M,M,M,M,31.74,UMMM 140900Z 18002MPS //// FG VV002 02/02 Q1004 RMK QFE733 QBB060
UMMM,2018-03-14 10:00,27.5397,53.8645,234.00,35.60,35.60,100.00,170.00,3.89,0.00,29.65,M,6.21,M,VV ,M,M,M,200.00,M,M,M,FG,M,M,M,M,M,M,31.74,UMMM 141000Z 17002MPS //// FG VV002 02/02 Q1004 RMK QFE733 QBB060
UMMM,2018-03-14 11:00,27.5397,53.8645,234.00,35.60,35.60,100.00,190.00,3.89,0.00,29.65,M,6.21,M,VV ,M,M,M,200.00,M,M,M,FG,M,M,M,M,M,M,31.74,UMMM 141100Z 19002MPS //// FG VV002 02/02 Q1004 RMK QFE733 QBB060
UMMM,2018-03-14 12:00,27.5397,53.8645,234.00,35.60,35.60,100.00,190.00,3.89,0.00,29.65,M,6.21,M,VV ,M,M,M,200.00,M,M,M,FG,M,M,M,M,M,M,31.74,UMMM 141200Z 19002MPS //// FG VV002 02/02 Q1004 RMK QFE733 QBB050
UMMM,2018-03-14 13:00,27.5397,53.8645,234.00,37.40,37.40,100.00,190.00,1.94,0.00,29.65,M,6.21,M,VV ,M,M,M,100.00,M,M,M,FG,M,M,M,M,M,M,37.40,UMMM 141300Z 19001MPS //// FG VV001 03/03 Q1004 RMK QFE733 QBB050
UMMM,2018-03-14 14:00,27.5397,53.8645,234.00,37.40,37.40,100.00,190.00,1.94,0.00,29.65,M,0.12,M,VV ,M,M,M,100.00,M,M,M,FG,M,M,M,M,M,M,37.40,UMMM 141400Z 19001MPS 0200 FG VV001 03/03 Q1004 RMK QFE733 QBB050
UMMM,2018-03-15 05:30,27.5397,53.8645,234.00,30.20,24.80,80.07,350.00,9.72,0.00,29.77,M,6.21,M,OVC,M,M,M,2400.00,M,M,M,M,M,M,M,M,M,M,20.86,UMMM 150530Z 35005MPS //// OVC024 M01/M04 Q1008 NOSIG RMK QFE737
UMMM,2018-03-15 06:00,27.5397,53.8645,234.00,30.20,24.80,80.07,350.00,9.72,0.00,29.77,M,6.21,M,OVC,M,M,M,2400.00,M,M,M,M,M,M,M,M,M,M,20.86,UMMM 150600Z 35005MPS //// OVC024 M01/M04 Q1008 NOSIG RMK QFE737
UMMM,2018-03-15 07:00,27.5397,53.8645,234.00,30.20,23.00,74.26,350.00,9.72,0.00,29.80,M,6.21,15.55,OVC,M,M,M,2600.00,M,M,M,M,M,M,M,M,M,M,20.86,UMMM 150700Z 35005G08MPS //// OVC026 M01/M05 Q1009 NOSIG RMK QFE737
UMMM,2018-03-15 08:00,27.5397,53.8645,234.00,30.20,23.00,74.26,360.00,9.72,0.00,29.80,M,6.21,15.55,OVC,M,M,M,2800.00,M,M,M,M,M,M,M,M,M,M,20.86,UMMM 150800Z 36005G08MPS 9999 OVC028 M01/M05 Q1009 NOSIG RMK QFE738
UMMM,2018-03-15 09:00,27.5397,53.8645,234.00,30.20,23.00,74.26,360.00,9.72,0.00,29.83,M,6.21,15.55,OVC,M,M,M,3000.00,M,M,M,M,M,M,M,M,M,M,20.86,UMMM 150900Z 36005G08MPS 9999 OVC030 M01/M05 Q1010 R30/990530 NOSIG RMK QFE738
UMMM,2018-03-15 09:30,27.5397,53.8645,234.00,30.20,23.00,74.26,360.00,9.72,0.00,29.83,M,6.21,15.55,OVC,M,M,M,3000.00,M,M,M,M,M,M,M,M,M,M,20.86,UMMM 150930Z 36005G08MPS 9999 OVC030 M01/M05 Q1010 R30/990530 NOSIG RMK QFE738
UMMM,2018-03-15 09:35,27.5397,53.8645,234.00,30.20,23.00,74.26,360.00,9.72,0.00,29.83,M,6.21,15.55,OVC,M,M,M,3000.00,M,M,M,M,M,M,M,M,M,M,20.86,UMMM 150935Z 36005G08MPS 9999 OVC030 M01/M05 Q1010 R30/950536 NOSIG RMK QFE738
UMMM,2018-03-15 10:00,27.5397,53.8645,234.00,30.20,23.00,74.26,360.00,9.72,0.00,29.83,M,6.21,15.55,OVC,M,M,M,2800.00,M,M,M,M,M,M,M,M,M,M,20.86,UMMM 151000Z 36005G08MPS 9999 OVC028 M01/M05 Q1010 R30/950536 NOSIG RMK QFE738
UMMM,2018-03-15 10:30,27.5397,53.8645,234.00,30.20,23.00,74.26,330.00,9.72,0.00,29.83,M,6.21,15.55,OVC,M,M,M,2800.00,M,M,M,M,M,M,M,M,M,M,20.86,UMMM 151030Z 33005G08MPS 9999 OVC028 M01/M05 Q1010 R30/950536 NOSIG RMK QFE738
UMMM,2018-03-15 11:00,27.5397,53.8645,234.00,30.20,23.00,74.26,350.00,9.72,0.00,29.83,M,6.21,15.55,BKN,M,M,M,3000.00,M,M,M,M,M,M,M,M,M,M,20.86,UMMM 151100Z 35005G08MPS 9999 BKN030 M01/M05 Q1010 R30/950536 NOSIG RMK QFE738
UMMM,2018-03-15 11:30,27.5397,53.8645,234.00,30.20,23.00,74.26,340.00,9.72,0.00,29.83,M,6.21,15.55,BKN,M,M,M,3200.00,M,M,M,M,M,M,M,M,M,M,20.86,UMMM 151130Z 34005G08MPS 9999 BKN032 M01/M05 Q1010 R30/950536 NOSIG RMK QFE738
UMMM,2018-03-15 12:00,27.5397,53.8645,234.00,30.20,19.40,63.75,340.00,9.72,0.00,29.83,M,6.21,15.55,BKN,M,M,M,3100.00,M,M,M,M,M,M,M,M,M,M,20.86,UMMM 151200Z 34005G08MPS 9999 BKN031 M01/M07 Q1010 R30/950536 NOSIG RMK QFE738
UMMM,2018-03-15 12:30,27.5397,53.8645,234.00,30.20,19.40,63.75,340.00,9.72,0.00,29.83,M,6.21,15.55,BKN,M,M,M,3100.00,M,M,M,M,M,M,M,M,M,M,20.86,UMMM 151230Z 34005G08MPS 9999 BKN031 M01/M07 Q1010 R30/950536 NOSIG RMK QFE738
UMMM,2018-03-15 13:00,27.5397,53.8645,234.00,30.20,19.40,63.75,330.00,9.72,0.00,29.83,M,6.21,15.55,BKN,M,M,M,3300.00,M,M,M,M,M,M,M,M,M,M,20.86,UMMM 151300Z 33005G08MPS 9999 BKN033 M01/M07 Q1010 RMK QFE738
UMMM,2018-03-15 14:00,27.5397,53.8645,234.00,30.20,19.40,63.75,330.00,9.72,0.00,29.83,M,6.21,15.55,BKN,M,M,M,3300.00,M,M,M,M,M,M,M,M,M,M,20.86,UMMM 151400Z 33005G08MPS 9999 BKN033 M01/M07 Q1010 RMK QFE738
UMMM,2018-03-16 05:30,27.5397,53.8645,234.00,19.40,14.00,79.16,350.00,7.78,0.00,29.97,M,6.21,M,M,M,M,M,M,M,M,M,M,M,M,M,M,M,M,8.77,UMMM 160530Z 35004MPS CAVOK M07/M10 Q1015 NOSIG RMK QFE742
UMMM,2018-03-16 06:00,27.5397,53.8645,234.00,19.40,14.00,79.16,20.00,7.78,0.00,29.97,M,6.21,M,M,M,M,M,M,M,M,M,M,M,M,M,M,M,M,8.77,UMMM 160600Z 02004MPS CAVOK M07/M10 Q1015 NOSIG RMK QFE742
UMMM,2018-03-16 06:30,27.5397,53.8645,234.00,19.40,14.00,79.16,30.00,7.78,0.00,29.97,M,6.21,M,M,M,M,M,M,M,M,M,M,M,M,M,M,M,M,8.77,UMMM 160630Z 03004MPS CAVOK M07/M10 Q1015 R30/950230 NOSIG RMK QFE742
UMMM,2018-03-16 07:00,27.5397,53.8645,234.00,21.20,14.00,73.32,50.00,5.83,0.00,30.00,M,6.21,M,M,M,M,M,M,M,M,M,M,M,M,M,M,M,M,12.69,UMMM 160700Z 05003MPS CAVOK M06/M10 Q1016 R12/950230 NOSIG RMK QFE741
UMMM,2018-03-16 07:30,27.5397,53.8645,234.00,21.20,14.00,73.32,30.00,5.83,0.00,30.00,M,6.21,M,M,M,M,M,M,M,M,M,M,M,M,M,M,M,M,12.69,UMMM 160730Z 03003MPS CAVOK M06/M10 Q1016 R12/950230 NOSIG RMK QFE741
UMMM,2018-03-16 08:00,27.5397,53.8645,234.00,24.80,15.80,68.18,30.00,7.78,0.00,29.97,M,6.21,M,M,M,M,M,M,M,M,M,M,M,M,M,M,M,M,15.41,UMMM 160800Z 03004MPS CAVOK M04/M09 Q1015 R12/950230 NOSIG RMK QFE741
UMMM,2018-03-16 08:30,27.5397,53.8645,234.00,24.80,15.80,68.18,30.00,7.78,0.00,29.97,M,6.21,M,BKN,M,M,M,2600.00,M,M,M,M,M,M,M,M,M,M,15.41,UMMM 160830Z 03004MPS 9999 BKN026 M04/M09 Q1015 R12/950230 NOSIG RMK QFE741
UMMM,2018-03-16 09:00,27.5397,53.8645,234.00,24.80,15.80,68.18,360.00,7.78,0.00,29.97,M,6.21,M,BKN,M,M,M,3000.00,M,M,M,M,M,M,M,M,M,M,15.41,UMMM 160900Z 36004MPS 9999 BKN030 M04/M09 Q1015 R30/950230 NOSIG RMK QFE742
UMMM,2018-03-16 09:30,27.5397,53.8645,234.00,24.80,15.80,68.18,10.00,7.78,0.00,29.97,M,6.21,M,BKN,M,M,M,3000.00,M,M,M,M,M,M,M,M,M,M,15.41,UMMM 160930Z 01004MPS 9999 BKN030 M04/M09 Q1015 R30/950230 NOSIG RMK QFE742
UMMM,2018-03-16 10:00,27.5397,53.8645,234.00,24.80,15.80,68.18,10.00,7.78,0.00,29.97,M,6.21,M,BKN,M,M,M,2600.00,M,M,M,M,M,M,M,M,M,M,15.41,UMMM 161000Z 01004MPS 9999 BKN026 M04/M09 Q1015 R30/950230 NOSIG RMK QFE742
UMMM,2018-03-16 10:30,27.5397,53.8645,234.00,24.80,15.80,68.18,340.00,9.72,0.00,29.97,M,6.21,M,SCT,BKN,M,M,3000.00,10000.00,M,M,M,M,M,M,M,M,M,14.11,UMMM 161030Z 34005MPS 9999 SCT030 BKN100 M04/M09 Q1015 R30/950230 NOSIG RMK QFE742
UMMM,2018-03-16 11:00,27.5397,53.8645,234.00,24.80,14.00,63.03,20.00,5.83,0.00,29.97,M,6.21,M,BKN,M,M,M,2500.00,M,M,M,M,M,M,M,M,M,M,17.01,UMMM 161100Z 02003MPS 9999 BKN025 M04/M10 Q1015 R30/950230 NOSIG RMK QFE742
UMMM,2018-03-16 11:30,27.5397,53.8645,234.00,24.80,14.00,63.03,10.00,7.78,0.00,29.97,M,6.21,M,BKN,M,M,M,2600.00,M,M,M,M,M,M,M,M,M,M,15.41,UMMM 161130Z 01004MPS 9999 BKN026 M04/M10 Q1015 R30/950230 NOSIG RMK QFE741
UMMM,2018-03-16 12:00,27.5397,53.8645,234.00,24.80,14.00,63.03,30.00,9.72,0.00,29.94,M,6.21,M,BKN,M,M,M,2600.00,M,M,M,M,M,M,M,M,M,M,14.11,UMMM 161200Z 03005MPS 9999 BKN026 M04/M10 Q1014 R30/950230 NOSIG RMK QFE741
UMMM,2018-03-16 12:30,27.5397,53.8645,234.00,24.80,14.00,63.03,10.00,9.72,0.00,29.94,M,6.21,M,BKN,M,M,M,2600.00,M,M,M,M,M,M,M,M,M,M,14.11,UMMM 161230Z 01005MPS 9999 BKN026 M04/M10 Q1014 R30/950230 NOSIG RMK QFE741
UMMM,2018-03-16 13:00,27.5397,53.8645,234.00,24.80,14.00,63.03,20.00,7.78,0.00,29.94,M,6.21,M,BKN,M,M,M,3300.00,M,M,M,M,M,M,M,M,M,M,15.41,UMMM 161300Z 02004MPS 9999 BKN033 M04/M10 Q1014 R30/950230 NOSIG RMK QFE741
UMMM,2018-03-16 14:00,27.5397,53.8645,234.00,24.80,15.80,68.18,30.00,7.78,0.00,29.94,M,6.21,M,BKN,M,M,M,4000.00,M,M,M,M,M,M,M,M,M,M,15.41,UMMM 161400Z 03004MPS 9999 BKN040 M04/M09 Q1014 RMK QFE741
UMMM,2018-03-19 05:30,27.5397,53.8645,234.00,19.40,15.80,85.63,250.00,1.94,0.00,30.03,M,6.21,M,M,M,M,M,M,M,M,M,M,M,M,M,M,M,M,19.40,UMMM 190530Z 25001MPS CAVOK M07/M09 Q1017 RMK QFE743
UMMM,2018-03-19 06:00,27.5397,53.8645,234.00,19.40,15.80,85.63,250.00,3.89,0.00,30.03,M,6.21,M,M,M,M,M,M,M,M,M,M,M,M,M,M,M,M,12.87,UMMM 190600Z 25002MPS CAVOK M07/M09 Q1017 RMK QFE743
UMMM,2018-03-19 07:00,27.5397,53.8645,234.00,23.00,15.80,73.51,250.00,5.83,0.00,30.00,M,6.21,M,M,M,M,M,M,M,M,M,M,M,M,M,M,M,M,14.85,UMMM 190700Z 25003MPS CAVOK M05/M09 Q1016 RMK QFE743
UMMM,2018-03-19 08:00,27.5397,53.8645,234.00,24.80,15.80,68.18,240.00,5.83,0.00,30.00,M,6.21,M,M,M,M,M,M,M,M,M,M,M,M,M,M,M,M,17.01,UMMM 190800Z 24003MPS CAVOK M04/M09 Q1016 RMK QFE743
UMMM,2018-03-19 09:00,27.5397,53.8645,234.00,26.60,15.80,63.27,240.00,5.83,0.00,30.00,M,6.21,M,M,M,M,M,M,M,M,M,M,M,M,M,M,M,M,19.18,UMMM 190900Z 24003MPS CAVOK M03/M09 Q1016 RMK QFE743
UMMM,2018-03-19 10:00,27.5397,53.8645,234.00,32.00,19.40,59.27,220.00,5.83,0.00,30.00,M,6.21,M,M,M,M,M,M,M,M,M,M,M,M,M,M,M,M,25.67,UMMM 191000Z 22003MPS CAVOK M00/M07 Q1016 RMK QFE743
UMMM,2018-03-19 11:00,27.5397,53.8645,234.00,32.00,21.20,63.99,240.00,7.78,0.00,29.97,M,6.21,M,M,M,M,M,M,M,M,M,M,M,M,M,M,M,M,24.26,UMMM 191100Z 24004MPS CAVOK 00/M06 Q1015 RMK QFE742
UMMM,2018-03-19 12:00,27.5397,53.8645,234.00,32.00,21.20,63.99,240.00,7.78,0.00,29.94,M,6.21,M,M,M,M,M,M,M,M,M,M,M,M,M,M,M,M,24.26,UMMM 191200Z 24004MPS CAVOK 00/M06 Q1014 RMK QFE741
UMMM,2018-03-19 13:00,27.5397,53.8645,234.00,35.60,17.60,47.51,240.00,7.78,0.00,29.94,M,6.21,M,NSC,M,M,M,M,M,M,M,M,M,M,M,M,M,M,28.68,UMMM 191300Z 24004MPS //// NSC 02/M08 Q1014 RMK QFE741
UMMM,2018-03-19 14:00,27.5397,53.8645,234.00,35.60,19.40,51.33,220.00,7.78,0.00,29.91,M,6.21,M,NSC,M,M,M,M,M,M,M,M,M,M,M,M,M,M,28.68,UMMM 191400Z 22004MPS //// NSC 02/M07 Q1013 RMK QFE740
UMMM,2018-03-20 05:30,27.5397,53.8645,234.00,21.20,15.80,79.31,120.00,3.89,0.00,29.83,M,6.21,M,NSC,M,M,M,M,M,M,M,M,M,M,M,M,M,M,14.96,UMMM 200530Z 12002MPS //// NSC M06/M09 Q1010 RMK QFE737
UMMM,2018-03-20 06:00,27.5397,53.8645,234.00,21.20,15.80,79.31,120.00,3.89,0.00,29.83,M,6.21,M,NSC,M,M,M,M,M,M,M,M,M,M,M,M,M,M,14.96,UMMM 200600Z 12002MPS //// NSC M06/M09 Q1010 RMK QFE737
UMMM,2018-03-20 07:00,27.5397,53.8645,234.00,23.00,17.60,79.47,130.00,1.94,0.00,29.83,M,6.21,M,NSC,M,M,M,M,M,M,M,M,M,M,M,M,M,M,23.00,UMMM 200700Z 13001MPS //// NSC M05/M08 Q1010 RMK QFE737
UMMM,2018-03-20 08:00,27.5397,53.8645,234.00,23.00,17.60,79.47,100.00,3.89,0.00,29.83,M,6.21,M,NSC,M,M,M,M,M,M,M,M,M,M,M,M,M,M,17.06,UMMM 200800Z 10002MPS //// NSC M05/M08 Q1010 RMK QFE737
UMMM,2018-03-20 09:00,27.5397,53.8645,234.00,24.80,19.40,79.62,100.00,3.89,0.00,29.83,M,6.21,M,M,M,M,M,M,M,M,M,M,M,M,M,M,M,M,19.16,UMMM 200900Z 10002MPS CAVOK M04/M07 Q1010 RMK QFE737
UMMM,2018-03-20 10:00,27.5397,53.8645,234.00,26.60,19.40,73.89,140.00,5.83,0.00,29.83,M,6.21,M,M,M,M,M,M,M,M,M,M,M,M,M,M,M,M,19.18,UMMM 201000Z 14003MPS CAVOK M03/M07 Q1010 RMK QFE737
UMMM,2018-03-20 11:00,27.5397,53.8645,234.00,28.40,17.60,63.51,140.00,5.83,0.00,29.83,M,6.21,M,M,M,M,M,M,M,M,M,M,M,M,M,M,M,M,21.34,UMMM 201100Z 14003MPS CAVOK M02/M08 Q1010 RMK QFE737
UMMM,2018-03-20 12:00,27.5397,53.8645,234.00,28.40,19.40,68.61,160.00,7.78,0.00,29.83,M,6.21,M,M,M,M,M,M,M,M,M,M,M,M,M,M,M,M,19.83,UMMM 201200Z 16004MPS CAVOK M02/M07 Q1010 RMK QFE737
UMMM,2018-03-20 14:00,27.5397,53.8645,234.00,28.40,19.40,68.61,150.00,5.83,0.00,29.80,M,6.21,M,M,M,M,M,M,M,M,M,M,M,M,M,M,M,M,21.34,UMMM 201400Z 15003MPS CAVOK M02/M07 Q1009 RMK QFE737
UMMM,2018-03-21 06:00,27.5397,53.8645,234.00,26.60,23.00,86.07,360.00,9.72,0.00,29.85,M,2.49,M,OVC,M,M,M,1500.00,M,M,M,-SHSN,M,M,M,M,M,M,16.36,UMMM 210600Z 36005MPS 4000 -SHSN OVC015CB M03/M05 Q1011 RMK QFE739
UMMM,2018-03-21 07:00,27.5397,53.8645,234.00,26.60,23.00,86.07,320.00,7.78,0.00,29.85,M,3.11,M,OVC,M,M,M,900.00,M,M,M,-SHSN,M,M,M,M,M,M,17.62,UMMM 210700Z 32004MPS 5000 -SHSN OVC009CB M03/M05 Q1011 RMK QFE739
UMMM,2018-03-21 07:13,27.5397,53.8645,234.00,26.60,23.00,86.07,330.00,7.78,0.00,29.85,M,0.87,M,OVC,M,M,M,800.00,M,M,M,SHSN,M,M,M,M,M,M,17.62,UMMM 210713Z 33004MPS 1400 SHSN OVC008CB M03/M05 Q1011 RMK QFE739
UMMM,2018-03-21 07:34,27.5397,53.8645,234.00,26.60,23.00,86.07,350.00,7.78,0.00,29.85,M,2.17,M,OVC,M,M,M,1000.00,M,M,M,-SHSN,M,M,M,M,M,M,17.62,UMMM 210734Z 35004MPS 3500 -SHSN OVC010CB M03/M05 Q1011 RMK QFE739
UMMM,2018-03-21 08:00,27.5397,53.8645,234.00,30.20,26.60,86.28,340.00,9.72,0.00,29.85,M,1.55,M,OVC,M,M,M,1000.00,M,M,M,-SHSN,M,M,M,M,M,M,20.86,UMMM 210800Z 34005MPS 2500 -SHSN OVC010CB M01/M03 Q1011 RMK QFE739
UMMM,2018-03-21 08:04,27.5397,53.8645,234.00,30.20,26.60,86.28,340.00,9.72,0.00,29.85,M,0.75,M,OVC,M,M,M,900.00,M,M,M,SHSN,M,M,M,M,M,M,20.86,UMMM 210804Z 34005MPS 1200 SHSN OVC009CB M01/M03 Q1011 RMK QFE739
UMMM,2018-03-21 08:36,27.5397,53.8645,234.00,30.20,26.60,86.28,350.00,7.78,0.00,29.85,M,1.30,M,OVC,M,M,M,1000.00,M,M,M,-SHSN,M,M,M,M,M,M,22.04,UMMM 210836Z 35004MPS 2100 -SHSN OVC010CB M01/M03 Q1011 RMK QFE739
UMMM,2018-03-21 09:00,27.5397,53.8645,234.00,28.40,24.80,86.18,20.00,9.72,0.00,29.88,M,1.86,M,BKN,OVC,M,M,1000.00,10000.00,M,M,-SHSN,M,M,M,M,M,M,18.61,UMMM 210900Z 02005MPS 3000 -SHSN BKN010CB OVC100 M02/M04 Q1012 RMK QFE739
UMMM,2018-03-21 10:00,27.5397,53.8645,234.00,28.40,24.80,86.18,340.00,9.72,0.00,29.91,M,6.21,15.55,BKN,OVC,M,M,1600.00,10000.00,M,M,-SHSN,M,M,M,M,M,M,18.61,UMMM 211000Z 34005G08MPS 9999 -SHSN BKN016CB OVC100 M02/M04 Q1013 RMK QFE740
UMMM,2018-03-21 11:00,27.5397,53.8645,234.00,30.20,24.80,80.07,340.00,7.78,0.00,29.91,M,6.21,M,BKN,OVC,M,M,2500.00,10000.00,M,M,M,M,M,M,M,M,M,22.04,UMMM 211100Z 34004MPS 9999 BKN025CB OVC100 M01/M04 Q1013 RMK QFE740
UMMM,2018-03-21 12:00,27.5397,53.8645,234.00,30.20,26.60,86.28,330.00,7.78,0.00,29.91,M,3.11,M,OVC,M,M,M,2000.00,M,M,M,-SHSN,M,M,M,M,M,M,22.04,UMMM 211200Z 33004MPS 5000 -SHSN OVC020CB M01/M03 Q1013 RMK QFE740
UMMM,2018-03-21 13:00,27.5397,53.8645,234.00,30.20,26.60,86.28,320.00,9.72,0.00,29.91,M,6.21,19.44,BKN,BKN,M,M,2500.00,10000.00,M,M,M,M,M,M,M,M,M,20.86,UMMM 211300Z 32005G10MPS 9999 BKN025CB BKN100 M01/M03 Q1013 RMK QFE741
UMMM,2018-03-21 14:00,27.5397,53.8645,234.00,30.20,26.60,86.28,320.00,11.66,0.00,29.91,M,6.21,17.49,BKN,BKN,M,M,2900.00,10000.00,M,M,M,M,M,M,M,M,M,19.87,UMMM 211400Z 32006G09MPS 9999 BKN029CB BKN100 M01/M03 Q1013 RMK QFE741
UMMM,2018-03-22 05:30,27.5397,53.8645,234.00,23.00,17.60,79.47,260.00,5.83,0.00,29.94,M,6.21,M,M,M,M,M,M,M,M,M,M,M,M,M,M,M,M,14.85,UMMM 220530Z 26003MPS CAVOK M05/M08 Q1014 RMK QFE749
UMMM,2018-03-22 06:00,27.5397,53.8645,234.00,24.80,19.40,79.62,260.00,5.83,0.00,29.94,M,6.21,M,M,M,M,M,M,M,M,M,M,M,M,M,M,M,M,17.01,UMMM 220600Z 26003MPS CAVOK M04/M07 Q1014 RMK QFE741
UMMM,2018-03-22 07:00,27.5397,53.8645,234.00,28.40,21.20,74.08,240.00,3.89,0.00,29.91,M,6.21,M,M,M,M,M,M,M,M,M,M,M,M,M,M,M,M,23.35,UMMM 220700Z 24002MPS CAVOK M02/M06 Q1013 RMK QFE741
UMMM,2018-03-22 08:00,27.5397,53.8645,234.00,30.20,21.20,68.83,260.00,7.78,0.00,29.91,M,6.21,M,M,M,M,M,M,M,M,M,M,M,M,M,M,M,M,22.04,UMMM 220800Z 26004MPS CAVOK M01/M06 Q1013 RMK QFE740
UMMM,2018-03-22 09:00,27.5397,53.8645,234.00,32.00,23.00,69.04,210.00,7.78,0.00,29.91,M,6.21,M,M,M,M,M,M,M,M,M,M,M,M,M,M,M,M,24.26,UMMM 220900Z 21004MPS CAVOK 00/M05 Q1013 RMK QFE740
UMMM,2018-03-22 11:00,27.5397,53.8645,234.00,37.40,28.40,69.67,230.00,9.72,0.00,29.85,M,6.21,15.55,M,M,M,M,M,M,M,M,M,M,M,M,M,M,M,29.87,UMMM 221100Z 23005G08MPS CAVOK 03/M02 Q1011 RMK QFE739
UMMM,2018-03-22 13:00,27.5397,53.8645,234.00,35.60,28.40,74.80,230.00,9.72,0.00,29.85,M,6.21,19.44,SCT,OVC,M,M,4000.00,10000.00,M,M,M,M,M,M,M,M,M,27.62,UMMM 221300Z 23005G10MPS 9999 SCT040 OVC100 02/M02 Q1011 RMK QFE738
UMMM,2018-03-22 14:00,27.5397,53.8645,234.00,35.60,28.40,74.80,250.00,11.66,0.00,29.83,M,6.21,17.49,BKN,OVC,M,M,3100.00,10000.00,M,M,M,M,M,M,M,M,M,26.73,UMMM 221400Z 25006G09MPS 9999 BKN031 OVC100 02/M02 Q1010 RMK QFE738
UMMM,2018-03-23 05:30,27.5397,53.8645,234.00,30.20,24.80,80.07,260.00,5.83,0.00,29.71,M,6.21,M,OVC,M,M,M,10000.00,M,M,M,-SN,M,M,M,M,M,M,23.50,UMMM 230530Z 26003MPS 9999 -SN OVC100 M01/M04 Q1006 RMK QFE735
UMMM,2018-03-23 06:00,27.5397,53.8645,234.00,32.00,26.60,80.22,230.00,5.83,0.00,29.71,M,6.21,M,OVC,M,M,M,10000.00,M,M,M,-SN,M,M,M,M,M,M,25.67,UMMM 230600Z 23003MPS 9999 -SN OVC100 M00/M03 Q1006 RMK QFE735
UMMM,2018-03-23 07:00,27.5397,53.8645,234.00,32.00,26.60,80.22,250.00,9.72,0.00,29.71,M,1.37,M,BKN,OVC,M,M,4600.00,10000.00,M,M,-SHSN,M,M,M,M,M,M,23.12,UMMM 230700Z 25005MPS 2200 -SHSN BKN046CB OVC100 M00/M03 Q1006 RMK QFE735
UMMM,2018-03-23 07:28,27.5397,53.8645,234.00,32.00,26.60,80.22,250.00,5.83,0.00,29.71,M,2.80,M,BKN,OVC,M,M,4600.00,10000.00,M,M,-SHSN,M,M,M,M,M,M,25.67,UMMM 230728Z 25003MPS 4500 -SHSN BKN046CB OVC100 M00/M03 Q1006 RMK QFE735
UMMM,2018-03-23 08:00,27.5397,53.8645,234.00,32.00,28.40,86.39,250.00,5.83,0.00,29.71,M,1.55,M,BKN,OVC,M,M,4600.00,10000.00,M,M,-SHSN,M,M,M,M,M,M,25.67,UMMM 230800Z 25003MPS 2500 -SHSN BKN046CB OVC100 M00/M02 Q1006 RMK QFE735
UMMM,2018-03-23 09:00,27.5397,53.8645,234.00,32.00,30.20,92.97,250.00,5.83,0.00,29.71,M,1.55,M,BKN,OVC,M,M,4600.00,10000.00,M,M,-SHSN,M,M,M,M,M,M,25.67,UMMM 230900Z 25003MPS 2500 -SHSN BKN046CB OVC100 00/M01 Q1006 RMK QFE735
UMMM,2018-03-23 10:00,27.5397,53.8645,234.00,33.80,30.20,86.49,240.00,3.89,0.00,29.71,M,1.55,M,BKN,OVC,M,M,4000.00,10000.00,M,M,-SHSN,M,M,M,M,M,M,29.65,UMMM 231000Z 24002MPS 2500 -SHSN BKN040CB OVC100 01/M01 Q1006 RMK QFE735
UMMM,2018-03-23 11:00,27.5397,53.8645,234.00,33.80,30.20,86.49,220.00,3.89,0.00,29.71,M,1.86,M,BKN,OVC,M,M,4000.00,10000.00,M,M,-SHSN,M,M,M,M,M,M,29.65,UMMM 231100Z 22002MPS 3000 -SHSN BKN040CB OVC100 01/M01 Q1006 RMK QFE735
UMMM,2018-03-23 12:00,27.5397,53.8645,234.00,33.80,32.00,93.03,250.00,5.83,0.00,29.68,M,1.86,M,BKN,OVC,M,M,4000.00,10000.00,M,M,-SHSN,M,M,M,M,M,M,27.83,UMMM 231200Z 25003MPS 3000 -SHSN BKN040CB OVC100 01/M00 Q1005 RMK QFE735
UMMM,2018-03-23 13:00,27.5397,53.8645,234.00,35.60,30.20,80.51,280.00,5.83,0.00,29.68,M,1.86,M,BKN,OVC,M,M,3300.00,10000.00,M,M,-SN,M,M,M,M,M,M,29.99,UMMM 231300Z 28003MPS 3000 -SN BKN033 OVC100 02/M01 Q1005 RMK QFE735
UMMM,2018-03-23 14:00,27.5397,53.8645,234.00,35.60,30.20,80.51,270.00,5.83,0.00,29.68,M,2.49,M,BKN,OVC,M,M,2600.00,10000.00,M,M,-SHSN,M,M,M,M,M,M,29.99,UMMM 231400Z 27003MPS 4000 -SHSN BKN026CB OVC100 02/M01 Q1005 RMK QFE735
UMMM,2018-03-26 05:30,27.5397,53.8645,234.00,33.80,30.20,86.49,210.00,3.89,0.00,29.80,M,6.21,M,M,M,M,M,M,M,M,M,M,M,M,M,M,M,M,29.65,UMMM 260530Z 21002MPS CAVOK 01/M01 Q1009 RMK QFE737
UMMM,2018-03-26 06:00,27.5397,53.8645,234.00,33.80,30.20,86.49,210.00,5.83,0.00,29.80,M,3.73,M,M,M,M,M,M,M,M,M,M,M,M,M,M,M,M,27.83,UMMM 260600Z 21003MPS 6000 NCS 01/M01 Q1009 RMK QFE737
UMMM,2018-03-26 07:00,27.5397,53.8645,234.00,35.60,28.40,74.80,210.00,3.89,0.00,29.80,M,3.73,M,M,M,M,M,M,M,M,M,M,M,M,M,M,M,M,31.74,UMMM 260700Z 21002MPS 6000 NCS 02/M02 Q1009 RMK QFE737
UMMM,2018-03-26 08:00,27.5397,53.8645,234.00,35.60,28.40,74.80,190.00,5.83,0.00,29.80,M,3.73,M,SCT,OVC,M,M,4600.00,10000.00,M,M,M,M,M,M,M,M,M,29.99,UMMM 260800Z 19003MPS 6000 SCT046 OVC100 02/M02 Q1009 RMK QFE736
UMMM,2018-03-26 09:00,27.5397,53.8645,234.00,37.40,30.20,74.98,180.00,3.89,0.00,29.80,M,6.21,M,M,M,M,M,M,M,M,M,M,M,M,M,M,M,M,33.84,UMMM 260900Z 18002MPS CAVOK 03/M01 Q1009 RMK QFE736
UMMM,2018-03-26 10:00,27.5397,53.8645,234.00,37.40,30.20,74.98,180.00,5.83,0.00,29.80,M,6.21,M,M,M,M,M,M,M,M,M,M,M,M,M,M,M,M,32.16,UMMM 261000Z 18003MPS CAVOK 03/M01 Q1009 RMK QFE736
UMMM,2018-03-26 11:00,27.5397,53.8645,234.00,39.20,32.00,75.16,190.00,7.78,0.00,29.80,M,6.21,M,M,M,M,M,M,M,M,M,M,M,M,M,M,M,M,33.11,UMMM 261100Z 19004MPS CAVOK 04/M00 Q1009 RMK QFE736
UMMM,2018-03-26 12:00,27.5397,53.8645,234.00,41.00,30.20,65.16,200.00,7.78,0.00,29.80,M,6.21,M,M,M,M,M,M,M,M,M,M,M,M,M,M,M,M,35.32,UMMM 261200Z 20004MPS CAVOK 05/M01 Q1009 RMK QFE736
UMMM,2018-03-26 13:00,27.5397,53.8645,234.00,42.80,30.20,60.79,210.00,5.83,0.00,29.80,M,6.21,M,M,M,M,M,M,M,M,M,M,M,M,M,M,M,M,38.65,UMMM 261300Z 21003MPS CAVOK 06/M01 Q1009 RMK QFE736
UMMM,2018-03-26 14:00,27.5397,53.8645,234.00,42.80,32.00,65.38,220.00,5.83,0.00,29.77,M,6.21,M,M,M,M,M,M,M,M,M,M,M,M,M,M,M,M,38.65,UMMM 261400Z 22003MPS CAVOK 06/M00 Q1008 RMK QFE737
UMMM,2018-03-27 05:30,27.5397,53.8645,234.00,33.80,30.20,86.49,360.00,9.72,0.00,29.77,M,6.21,15.55,OVC,M,M,M,1200.00,M,M,M,M,M,M,M,M,M,M,25.37,UMMM 270530Z 36005G08MPS 9999 OVC012 01/M01 Q1008 NOSIG RMK QFE737
UMMM,2018-03-27 06:00,27.5397,53.8645,234.00,32.00,30.20,92.97,360.00,9.72,0.00,29.77,M,6.21,15.55,OVC,M,M,M,1200.00,M,M,M,-SN,M,M,M,M,M,M,23.12,UMMM 270600Z 36005G08MPS 9999 -SN OVC012 00/M01 Q1008 NOSIG RMK QFE737
UMMM,2018-03-27 06:05,27.5397,53.8645,234.00,32.00,30.20,92.97,360.00,9.72,0.00,29.77,M,6.21,15.55,OVC,M,M,M,1200.00,M,M,M,-SN,M,M,M,M,M,M,23.12,UMMM 270605Z 36005G08MPS 9999 -SN OVC012 00/M01 Q1008 R30/290045 NOSIG RMK QFE737
UMMM,2018-03-27 06:30,27.5397,53.8645,234.00,32.00,30.20,92.97,360.00,9.72,0.00,29.77,M,6.21,15.55,OVC,M,M,M,1000.00,M,M,M,-SN,M,M,M,M,M,M,23.12,UMMM 270630Z 36005G08MPS 9999 -SN OVC010 00/M01 Q1008 R30/290045 NOSIG RMK QFE737
UMMM,2018-03-27 07:00,27.5397,53.8645,234.00,32.00,28.40,86.39,360.00,9.72,0.00,29.80,M,6.21,M,OVC,M,M,M,1100.00,M,M,M,-SN,M,M,M,M,M,M,23.12,UMMM 270700Z 36005MPS 9999 -SN OVC011 M00/M02 Q1009 R30/290045 NOSIG RMK QFE737
UMMM,2018-03-27 07:30,27.5397,53.8645,234.00,32.00,28.40,86.39,360.00,9.72,0.00,29.80,M,6.21,M,OVC,M,M,M,1200.00,M,M,M,M,M,M,M,M,M,M,23.12,UMMM 270730Z 36005 9999 OVC012 M00/M02 Q1009 R30/290045 NOSIG RMK QFE737
UMMM,2018-03-27 08:00,27.5397,53.8645,234.00,32.00,28.40,86.39,360.00,9.72,0.00,29.80,M,6.21,M,OVC,M,M,M,1100.00,M,M,M,M,M,M,M,M,M,M,23.12,UMMM 270800Z 36005 9999 OVC011 M00/M02 Q1009 R30/290045 NOSIG RMK QFE737
UMMM,2018-03-27 08:30,27.5397,53.8645,234.00,32.00,28.40,86.39,360.00,9.72,0.00,29.80,M,6.21,M,OVC,M,M,M,1100.00,M,M,M,M,M,M,M,M,M,M,23.12,UMMM 270830Z 36005MPS 9999 OVC011 M00/M02 Q1009 R30/290045 NOSIG RMK QFE737
UMMM,2018-03-27 09:00,27.5397,53.8645,234.00,30.20,26.60,86.28,360.00,9.72,0.00,29.83,M,6.21,M,OVC,M,M,M,1500.00,M,M,M,M,M,M,M,M,M,M,20.86,UMMM 270900Z 36005MPS 9999 OVC015 M01/M03 Q1010 R30/290045 NOSIG RMK QFE738
UMMM,2018-03-27 09:30,27.5397,53.8645,234.00,30.20,26.60,86.28,360.00,11.66,0.00,29.83,M,6.21,M,BKN,OVC,M,M,1800.00,10000.00,M,M,M,M,M,M,M,M,M,19.87,UMMM 270930Z 36006MPS 9999 BKN018 OVC100 M01/M03 Q1010 R30/290045 NOSIG RMK QFE738
UMMM,2018-03-27 10:00,27.5397,53.8645,234.00,30.20,24.80,80.07,360.00,9.72,0.00,29.83,M,6.21,15.55,BKN,OVC,M,M,2400.00,10000.00,M,M,M,M,M,M,M,M,M,20.86,UMMM 271000Z 36005G08MPS 9999 BKN024 OVC100 M01/M04 Q1010 R30/290045 NOSIG RMK QFE738
UMMM,2018-03-27 10:30,27.5397,53.8645,234.00,30.20,24.80,80.07,360.00,9.72,0.00,29.83,M,6.21,15.55,BKN,OVC,M,M,2600.00,10000.00,M,M,M,M,M,M,M,M,M,20.86,UMMM 271030Z 36005G08MPS 9999 BKN026 OVC100 M01/M04 Q1010 R30/150050 NOSIG RMK QFE738
UMMM,2018-03-27 12:00,27.5397,53.8645,234.00,33.80,19.40,55.14,350.00,7.78,0.00,29.83,M,6.21,M,M,M,M,M,M,M,M,M,M,M,M,M,M,M,M,26.47,UMMM 271200Z 35004MPS CAVOK 01/M07 Q1010 RMK QFE738
UMMM,2018-03-27 13:00,27.5397,53.8645,234.00,32.00,17.60,54.87,360.00,9.72,0.00,29.85,M,6.21,M,M,M,M,M,M,M,M,M,M,M,M,M,M,M,M,23.12,UMMM 271300Z 36005MPS CAVOK 00/M08 Q1011 RMK QFE738
UMMM,2018-03-27 14:00,27.5397,53.8645,234.00,32.00,19.40,59.27,10.00,9.72,0.00,29.83,M,6.21,M,M,M,M,M,M,M,M,M,M,M,M,M,M,M,M,23.12,UMMM 271400Z 01005MPS CAVOK 00/M07 Q1010 RMK QFE738
UMMM,2018-03-28 05:30,27.5397,53.8645,234.00,24.80,19.40,79.62,290.00,1.94,0.00,29.94,M,6.21,M,M,M,M,M,M,M,M,M,M,M,M,M,M,M,M,24.80,UMMM 280530Z 29001MPS CAVOK M04/M07 Q1014 NOSIG RMK QFE738
UMMM,2018-03-28 06:00,27.5397,53.8645,234.00,24.80,19.40,79.62,0.00,0.00,0.00,29.94,M,6.21,M,M,M,M,M,M,M,M,M,M,M,M,M,M,M,M,24.80,UMMM 280600Z 00000MPS CAVOK M04/M07 Q1014 R30/310045 NOSIG RMK QFE741
UMMM,2018-03-28 06:30,27.5397,53.8645,234.00,24.80,19.40,79.62,0.00,0.00,0.00,29.94,M,6.21,M,M,M,M,M,M,M,M,M,M,M,M,M,M,M,M,24.80,UMMM 280630Z 00000MPS CAVOK M04/M07 Q1014 R30/310045 NOSIG RMK QFE741
UMMM,2018-03-28 07:00,27.5397,53.8645,234.00,26.60,15.80,63.27,0.00,0.00,0.00,29.94,M,6.21,M,M,M,M,M,M,M,M,M,M,M,M,M,M,M,M,26.60,UMMM 280700Z 00000MPS CAVOK M03/M09 Q1014 R30/310045 NOSIG RMK QFE741
UMMM,2018-03-28 07:30,27.5397,53.8645,234.00,26.60,15.80,63.27,0.00,0.00,0.00,29.94,M,6.21,M,M,M,M,M,M,M,M,M,M,M,M,M,M,M,M,26.60,UMMM 280730Z 00000MPS CAVOK M03/M09 Q1014 R30/310045 NOSIG RMK QFE741
UMMM,2018-03-28 08:00,27.5397,53.8645,234.00,28.40,15.80,58.75,0.00,0.00,0.00,29.94,M,6.21,M,M,M,M,M,M,M,M,M,M,M,M,M,M,M,M,28.40,UMMM 280800Z 00000MPS CAVOK M02/M09 Q1014 R30/310045 NOSIG RMK QFE741
UMMM,2018-03-28 09:00,27.5397,53.8645,234.00,32.00,15.80,50.75,320.00,3.89,0.00,29.94,M,6.21,M,M,M,M,M,M,M,M,M,M,M,M,M,M,M,M,27.55,UMMM 280900Z 32002MPS CAVOK M00/M09 Q1014 R30/310045 NOSIG RMK QFE741
UMMM,2018-03-28 10:00,27.5397,53.8645,234.00,32.00,15.80,50.75,290.00,3.89,0.00,29.94,M,6.21,M,M,M,M,M,M,M,M,M,M,M,M,M,M,M,M,27.55,UMMM 281000Z 29002MPS CAVOK M00/M09 Q1014 R30/310045 NOSIG RMK QFE741
UMMM,2018-03-28 11:00,27.5397,53.8645,234.00,33.80,12.20,40.32,290.00,1.94,0.00,29.94,M,6.21,M,M,M,M,M,M,M,M,M,M,M,M,M,M,M,M,33.80,UMMM 281100Z 29001MPS CAVOK 01/M11 Q1014 R30/310045 NOSIG RMK QFE741
UMMM,2018-03-28 12:00,27.5397,53.8645,234.00,33.80,12.20,40.32,290.00,1.94,0.00,29.94,M,6.21,M,SCT,BKN,M,M,3300.00,10000.00,M,M,M,M,M,M,M,M,M,33.80,UMMM 281200Z 29001MPS 9999 SCT033 BKN100 01/M11 Q1014 R30/310045 NOSIG RMK QFE741
UMMM,2018-03-28 13:00,27.5397,53.8645,234.00,35.60,10.40,34.65,290.00,1.94,0.00,29.94,M,6.21,M,SCT,BKN,M,M,4000.00,10000.00,M,M,M,M,M,M,M,M,M,35.60,UMMM 281300Z 29001MPS 9999 SCT040 BKN100 02/M12 Q1014 RMK QFE741
UMMM,2018-03-28 14:00,27.5397,53.8645,234.00,33.80,8.60,34.34,270.00,1.94,0.00,29.91,M,6.21,M,FEW,BKN,M,M,4000.00,20000.00,M,M,M,M,M,M,M,M,M,33.80,UMMM 281400Z 27001MPS 9999 FEW040 BKN200 01/M13 Q1013 RMK QFE741
UMMM,2018-03-29 05:30,27.5397,53.8645,234.00,24.80,15.80,68.18,100.00,5.83,0.00,29.97,M,6.21,M,M,M,M,M,M,M,M,M,M,M,M,M,M,M,M,17.01,UMMM 290530Z 10003MPS CAVOK M04/M09 Q1015 NOSIG RMK QFE741
UMMM,2018-03-29 06:00,27.5397,53.8645,234.00,24.80,15.80,68.18,100.00,7.78,0.00,29.97,M,6.21,M,M,M,M,M,M,M,M,M,M,M,M,M,M,M,M,15.41,UMMM 290600Z 10004MPS CAVOK M04/M09 Q1015 NOSIG RMK QFE741
UMMM,2018-03-29 07:00,27.5397,53.8645,234.00,28.40,14.00,54.31,100.00,9.72,0.00,29.97,M,6.21,M,M,M,M,M,M,M,M,M,M,M,M,M,M,M,M,18.61,UMMM 290700Z 10005MPS CAVOK M02/M10 Q1015 NOSIG RMK QFE741
UMMM,2018-03-29 08:00,27.5397,53.8645,234.00,30.20,14.00,50.47,120.00,9.72,0.00,29.97,M,6.21,M,M,M,M,M,M,M,M,M,M,M,M,M,M,M,M,20.86,UMMM 290800Z 12005MPS CAVOK M01/M10 Q1015 NOSIG RMK QFE741
UMMM,2018-03-29 09:00,27.5397,53.8645,234.00,33.80,17.60,51.04,100.00,9.72,0.00,29.97,M,6.21,15.55,M,M,M,M,M,M,M,M,M,M,M,M,M,M,M,25.37,UMMM 290900Z 10005G08MPS CAVOK 01/M08 Q1015 NOSIG RMK QFE741
UMMM,2018-03-29 10:00,27.5397,53.8645,234.00,33.80,17.60,51.04,120.00,9.72,0.00,29.97,M,6.21,15.55,M,M,M,M,M,M,M,M,M,M,M,M,M,M,M,25.37,UMMM 291000Z 12005G08MPS CAVOK 01/M08 Q1015 NOSIG RMK QFE741
UMMM,2018-03-29 11:00,27.5397,53.8645,234.00,35.60,19.40,51.33,120.00,11.66,0.00,29.97,M,6.21,17.49,M,M,M,M,M,M,M,M,M,M,M,M,M,M,M,26.73,UMMM 291100Z 12006G09MPS CAVOK 02/M07 Q1015 R12/310045 NOSIG RMK QFE741
UMMM,2018-03-29 11:30,27.5397,53.8645,234.00,35.60,19.40,51.33,120.00,13.61,0.00,29.94,M,6.21,M,M,M,M,M,M,M,M,M,M,M,M,M,M,M,M,25.95,UMMM 291130Z 12007G109MPS CAVOK 02/M07 Q1014 R12/310045 NOSIG RMK QFE740
UMMM,2018-03-29 12:00,27.5397,53.8645,234.00,35.60,19.40,51.33,100.00,13.61,0.00,29.94,M,6.21,19.44,M,M,M,M,M,M,M,M,M,M,M,M,M,M,M,25.95,UMMM 291200Z 10007G10MPS CAVOK 02/M07 Q1014 R12/310045 NOSIG RMK QFE740
UMMM,2018-03-29 12:30,27.5397,53.8645,234.00,35.60,19.40,51.33,90.00,13.61,0.00,29.94,M,6.21,19.44,M,M,M,M,M,M,M,M,M,M,M,M,M,M,M,25.95,UMMM 291230Z 09007G10MPS CAVOK 02/M07 Q1014 R12/310045 NOSIG RMK QFE740
UMMM,2018-03-29 13:00,27.5397,53.8645,234.00,35.60,21.20,55.41,100.00,13.61,0.00,29.94,M,6.21,19.44,M,M,M,M,M,M,M,M,M,M,M,M,M,M,M,25.95,UMMM 291300Z 10007G10MPS CAVOK 02/M06 Q1014 R12/310045 NOSIG RMK QFE740
UMMM,2018-03-29 13:30,27.5397,53.8645,234.00,35.60,21.20,55.41,100.00,13.61,0.00,29.94,M,6.21,19.44,M,M,M,M,M,M,M,M,M,M,M,M,M,M,M,25.95,UMMM 291330Z 10007G10MPS CAVOK 02/M06 Q1014 R12/310045 NOSIG RMK QFE740
UMMM,2018-03-29 14:00,27.5397,53.8645,234.00,35.60,21.20,55.41,110.00,13.61,0.00,29.91,M,6.21,19.44,M,M,M,M,M,M,M,M,M,M,M,M,M,M,M,25.95,UMMM 291400Z 11007G10MPS CAVOK 02/M06 Q1013 R12/310045 NOSIG RMK QFE740
UMMM,2018-03-30 05:30,27.5397,53.8645,234.00,28.40,26.60,92.86,140.00,9.72,0.00,29.85,M,1.06,M,OVC,M,M,M,300.00,M,M,M,-FZDZ BR,M,M,M,M,M,M,18.61,UMMM 300530Z 14005MPS 1700 -FZDZ BR OVC003 M02/M03 Q1011 RMK QFE738 QBB090
UMMM,2018-03-30 06:00,27.5397,53.8645,234.00,28.40,26.60,92.86,140.00,9.72,0.00,29.85,M,0.75,M,OVC,M,M,M,200.00,M,M,M,-FZDZ BR,M,M,M,M,M,M,18.61,UMMM 300600Z 14005MPS 1200 -FZDZ BR OVC002 M02/M03 Q1011 RMK QFE738 QBB080
UMMM,2018-03-30 07:00,27.5397,53.8645,234.00,28.40,28.40,100.00,140.00,7.78,0.00,29.88,M,0.75,M,OVC,M,M,M,300.00,M,M,M,-SN BR,M,M,M,M,M,M,19.83,UMMM 300700Z 14004MPS 1200 -SN BR OVC003 M02/M02 Q1012 RMK QFE738 QBB100
UMMM,2018-03-30 07:44,27.5397,53.8645,234.00,28.40,28.40,100.00,150.00,7.78,0.00,29.88,M,0.40,M,VV ,M,M,M,300.00,M,M,M,FZFG,M,M,M,M,M,M,19.83,UMMM 300744Z 15004MPS 0650 FZFG VV003 M02/M02 Q1012 RMK QFE738 QBB090
UMMM,2018-03-30 08:00,27.5397,53.8645,234.00,28.40,28.40,100.00,130.00,7.78,0.00,29.85,M,0.37,M,VV ,M,M,M,200.00,M,M,M,FZFG,M,M,M,M,M,M,19.83,UMMM 300800Z 13004MPS 0600 FZFG VV002 M02/M02 Q1011 RMK QFE738 QBB080
UMMM,2018-03-30 09:00,27.5397,53.8645,234.00,30.20,30.20,100.00,180.00,9.72,0.00,29.88,M,0.34,M,VV ,M,M,M,100.00,M,M,M,FZFG,M,M,M,M,M,M,20.86,UMMM 300900Z 18005MPS 0550 FZFG VV001 M01/M01 Q1012 RMK QFE739 QBB050
UMMM,2018-03-30 10:00,27.5397,53.8645,234.00,32.00,30.20,92.97,170.00,9.72,0.00,29.88,M,0.68,M,OVC,M,M,M,400.00,M,M,M,-SN BR,M,M,M,M,M,M,23.12,UMMM 301000Z 17005MPS 1100 -SN BR 0VC004 M00/M01 Q1012 RMK QFE739 QBB110
UMMM,2018-03-30 10:34,27.5397,53.8645,234.00,32.00,30.20,92.97,170.00,7.78,0.00,29.88,M,1.06,M,OVC,M,M,M,500.00,M,M,M,BR,M,M,M,M,M,M,24.26,UMMM 301034Z 17004MPS 1700 BR OVC005 M00/M01 Q1012 RMK QFE739 QBB150
UMMM,2018-03-30 11:00,27.5397,53.8645,234.00,33.80,32.00,93.03,140.00,9.72,0.00,29.88,M,1.24,M,OVC,M,M,M,400.00,M,M,M,BR,M,M,M,M,M,M,25.37,UMMM 301100Z 14005MPS 2000 BR 0VC004 01/00 Q1012 RMK QFE739 QBB120
UMMM,2018-03-30 12:00,27.5397,53.8645,234.00,33.80,33.80,100.00,160.00,5.83,0.00,29.88,M,1.55,M,OVC,M,M,M,500.00,M,M,M,BR,M,M,M,M,M,M,27.83,UMMM 301200Z 16003MPS 2500 BR 0VC005 01/01 Q1012 RMK QFE738 QBB160
UMMM,2018-03-30 13:00,27.5397,53.8645,234.00,35.60,33.80,93.08,170.00,7.78,0.00,29.88,M,2.17,M,OVC,M,M,M,600.00,M,M,M,BR,M,M,M,M,M,M,28.68,UMMM 301300Z 17004MPS 3500 BR 0VC006 02/01 Q1012 RMK QFE738 QBB180
UMMM,2018-03-30 14:00,27.5397,53.8645,234.00,35.60,33.80,93.08,160.00,7.78,0.00,29.88,M,2.49,M,OVC,M,M,M,900.00,M,M,M,BR,M,M,M,M,M,M,28.68,UMMM 301400Z 16004MPS 4000 BR 0VC009 02/01 Q1012 RMK QFE738
UMMM,2018-04-02 08:00,27.5397,53.8645,234.00,35.60,33.80,93.08,210.00,11.66,0.00,29.26,M,6.21,17.49,OVC,M,M,M,1000.00,M,M,M,M,M,M,M,M,M,M,26.73,UMMM 020800Z 21006G09MPS 9999 OVC010CB 02/01 Q0991 RMK QFE723
UMMM,2018-04-02 09:00,27.5397,53.8645,234.00,35.60,33.80,93.08,210.00,11.66,0.00,29.29,M,6.21,17.49,OVC,M,M,M,1000.00,M,M,M,M,M,M,M,M,M,M,26.73,UMMM 020900Z 21006G09MPS 9999 OVC010 02/01 Q0992 RMK QFE724
UMMM,2018-04-02 10:00,27.5397,53.8645,234.00,35.60,33.80,93.08,220.00,9.72,0.00,29.32,M,6.21,15.55,OVC,M,M,M,1000.00,M,M,M,-RA,M,M,M,M,M,M,27.62,UMMM 021000Z 22005G08MPS 9999 -RA OVC010 02/01 Q0993 RMK QFE725
UMMM,2018-04-02 11:00,27.5397,53.8645,234.00,35.60,33.80,93.08,230.00,9.72,0.00,29.35,M,6.21,15.55,OVC,M,M,M,1000.00,M,M,M,M,M,M,M,M,M,M,27.62,UMMM 021100Z 23005G08MPS 9999 OVC010 02/01 Q0994 RMK QFE726
UMMM,2018-04-02 12:00,27.5397,53.8645,234.00,35.60,33.80,93.08,230.00,9.72,0.00,29.38,M,6.21,15.55,OVC,M,M,M,900.00,M,M,M,-SHRASN,M,M,M,M,M,M,27.62,UMMM 021200Z 23005G08MPS 9999 -SHRASN OVC009CB 02/01 Q0995 RMK QFE727
UMMM,2018-04-02 13:00,27.5397,53.8645,234.00,35.60,33.80,93.08,220.00,9.72,0.00,29.41,M,3.11,15.55,OVC,M,M,M,800.00,M,M,M,-SHRASN,M,M,M,M,M,M,27.62,UMMM 021300Z 22005G08MPS 5000 -SHRASN OVC008CB 02/01 Q0996 RMK QFE728
UMMM,2018-04-02 14:00,27.5397,53.8645,234.00,35.60,33.80,93.08,230.00,9.72,0.00,29.44,M,3.11,15.55,OVC,M,M,M,700.00,M,M,M,-SHRASN,M,M,M,M,M,M,27.62,UMMM 021400Z 23005G08MPS 5000 -SHRASN OVC007CB 02/01 Q0997 RMK QFE728
UMMM,2018-04-03 05:30,27.5397,53.8645,234.00,32.00,28.40,86.39,250.00,5.83,0.00,29.88,M,6.21,M,M,M,M,M,M,M,M,M,M,M,M,M,M,M,M,25.67,UMMM 030530Z 25003MPS CAVOK M00/M02 Q1012 NOSIG RMK QFE739
UMMM,2018-04-03 06:00,27.5397,53.8645,234.00,32.00,28.40,86.39,250.00,5.83,0.00,29.88,M,6.21,M,M,M,M,M,M,M,M,M,M,M,M,M,M,M,M,25.67,UMMM 030600Z 25003MPS CAVOK M00/M02 Q1012 NOSIG RMK QFE739
UMMM,2018-04-03 06:30,27.5397,53.8645,234.00,32.00,28.40,86.39,250.00,5.83,0.00,29.88,M,6.21,M,M,M,M,M,M,M,M,M,M,M,M,M,M,M,M,25.67,UMMM 030630Z 25003MPS CAVOK M00/M02 Q1012 R30/150050 NOSIG RMK QFE739
UMMM,2018-04-03 07:00,27.5397,53.8645,234.00,35.60,28.40,74.80,240.00,9.72,0.00,29.88,M,6.21,M,M,M,M,M,M,M,M,M,M,M,M,M,M,M,M,27.62,UMMM 030700Z 24005MPS CAVOK 02/M02 Q1012 R30/150050 NOSIG RMK QFE740
UMMM,2018-04-03 07:30,27.5397,53.8645,234.00,35.60,28.40,74.80,240.00,9.72,0.00,29.88,M,6.21,M,M,M,M,M,M,M,M,M,M,M,M,M,M,M,M,27.62,UMMM 030730Z 24005MPS CAVOK 02/M02 Q1012 R30/150050 NOSIG RMK QFE740
UMMM,2018-04-03 08:00,27.5397,53.8645,234.00,35.60,28.40,74.80,240.00,9.72,0.00,29.91,M,6.21,M,M,M,M,M,M,M,M,M,M,M,M,M,M,M,M,27.62,UMMM 030800Z 24005MPS CAVOK 02/M02 Q1013 R30/150050 NOSIG RMK QFE740
UMMM,2018-04-03 08:30,27.5397,53.8645,234.00,35.60,28.40,74.80,250.00,9.72,0.00,29.91,M,6.21,M,M,M,M,M,M,M,M,M,M,M,M,M,M,M,M,27.62,UMMM 030830Z 25005MPS CAVOK 02/M02 Q1013 R30/150050 NOSIG RMK QFE740
UMMM,2018-04-03 09:00,27.5397,53.8645,234.00,35.60,28.40,74.80,230.00,9.72,0.00,29.91,M,6.21,M,FEW,BKN,M,M,3300.00,20000.00,M,M,M,M,M,M,M,M,M,27.62,UMMM 030900Z 23005MPS 9999 FEW033 BKN200 02/M02 Q1013 R30/150050 NOSIG RMK QFE740
UMMM,2018-04-03 09:30,27.5397,53.8645,234.00,39.20,28.40,64.93,230.00,9.72,0.00,29.91,M,6.21,M,FEW,BKN,M,M,3300.00,20000.00,M,M,M,M,M,M,M,M,M,32.12,UMMM 030930Z 23005MPS 9999 FEW033 BKN200 04/M02 Q1013 R30/150050 NOSIG RMK QFE740
UMMM,2018-04-03 10:00,27.5397,53.8645,234.00,41.00,30.20,65.16,220.00,9.72,0.00,29.91,M,6.21,M,FEW,BKN,M,M,3300.00,20000.00,M,M,M,M,M,M,M,M,M,34.38,UMMM 031000Z 22005MPS 9999 FEW033 BKN200 05/M01 Q1013 R30/150050 NOSIG RMK QFE740
UMMM,2018-04-03 10:30,27.5397,53.8645,234.00,41.00,30.20,65.16,220.00,9.72,0.00,29.91,M,6.21,M,SCT,BKN,M,M,3300.00,20000.00,M,M,M,M,M,M,M,M,M,34.38,UMMM 031030Z 22005MPS 9999 SCT033 BKN200 05/M01 Q1013 R30/150050 NOSIG RMK QFE740
UMMM,2018-04-03 11:00,27.5397,53.8645,234.00,42.80,28.40,56.48,220.00,9.72,0.00,29.91,M,6.21,M,FEW,BKN,M,M,3300.00,20000.00,M,M,M,M,M,M,M,M,M,36.63,UMMM 031100Z 22005MPS 9999 FEW033 BKN200 06/M02 Q1013 R30/150050 NOSIG RMK QFE740
UMMM,2018-04-03 12:00,27.5397,53.8645,234.00,44.60,28.40,52.72,230.00,7.78,0.00,29.91,M,6.21,M,M,M,M,M,M,M,M,M,M,M,M,M,M,M,M,39.74,UMMM 031200Z 23004MPS CAVOK 07/M02 Q1013 RMK QFE740
UMMM,2018-04-03 14:00,27.5397,53.8645,234.00,46.40,28.40,49.24,210.00,7.78,0.00,29.88,M,6.21,M,M,M,M,M,M,M,M,M,M,M,M,M,M,M,M,41.95,UMMM 031400Z 21004MPS CAVOK 08/M02 Q1012 RMK QFE740
UMMM,2018-04-04 05:30,27.5397,53.8645,234.00,41.00,37.40,86.89,160.00,3.89,0.00,29.91,M,3.11,M,NSC,M,M,M,M,M,M,M,BR,M,M,M,M,M,M,38.04,UMMM 040530Z 16002MPS 5000 BR NSC 05/03 Q1013 RMK QFE739
UMMM,2018-04-04 06:00,27.5397,53.8645,234.00,42.80,39.20,86.99,170.00,3.89,0.00,29.91,M,3.11,M,NSC,M,M,M,M,M,M,M,BR,M,M,M,M,M,M,40.13,UMMM 040600Z 17002MPS 5000 BR NSC 06/04 Q1013 RMK QFE739
UMMM,2018-04-04 07:00,27.5397,53.8645,234.00,46.40,42.80,87.19,200.00,3.89,0.00,29.88,M,3.73,M,NSC,M,M,M,M,M,M,M,M,M,M,M,M,M,M,44.33,UMMM 040700Z 20002MPS 6000 NSC 08/06 Q1012 RMK QFE739
UMMM,2018-04-04 08:00,27.5397,53.8645,234.00,50.00,44.60,81.61,180.00,3.89,0.00,29.91,M,6.21,M,M,M,M,M,M,M,M,M,M,M,M,M,M,M,M,48.52,UMMM 040800Z 18002MPS CAVOK 10/07 Q1013 RMK QFE739
UMMM,2018-04-04 09:00,27.5397,53.8645,234.00,55.40,42.80,62.46,190.00,7.78,0.00,29.91,M,6.21,M,M,M,M,M,M,M,M,M,M,M,M,M,M,M,M,55.40,UMMM 040900Z 19004MPS CAVOK 13/06 Q1013 RMK QFE739
UMMM,2018-04-04 10:00,27.5397,53.8645,234.00,57.20,42.80,58.52,200.00,5.83,0.00,29.91,M,6.21,M,M,M,M,M,M,M,M,M,M,M,M,M,M,M,M,57.20,UMMM 041000Z 20003MPS CAVOK 14/06 Q1013 RMK QFE739
UMMM,2018-04-04 11:00,27.5397,53.8645,234.00,59.00,44.60,58.77,190.00,5.83,0.00,29.91,M,6.21,M,M,M,M,M,M,M,M,M,M,M,M,M,M,M,M,59.00,UMMM 041100Z 19003MPS CAVOK 15/07 Q1013 RMK QFE739
UMMM,2018-04-04 12:00,27.5397,53.8645,234.00,60.80,44.60,55.12,160.00,3.89,0.00,29.91,M,6.21,M,FEW,M,M,M,2600.00,M,M,M,M,M,M,M,M,M,M,60.80,UMMM 041200Z 16002MPS 9999 FEW026 16/07 Q1013 RMK QFE739
UMMM,2018-04-04 13:00,27.5397,53.8645,234.00,62.60,44.60,51.72,200.00,3.89,0.00,29.88,M,6.21,M,M,M,M,M,M,M,M,M,M,M,M,M,M,M,M,62.60,UMMM 041300Z 20002MPS CAVOK 17/07 Q1012 RMK QFE739
UMMM,2018-04-04 14:00,27.5397,53.8645,234.00,60.80,42.80,51.45,200.00,5.83,0.00,29.88,M,6.21,M,M,M,M,M,M,M,M,M,M,M,M,M,M,M,M,60.80,UMMM 041400Z 20003MPS CAVOK 16/06 Q1012 RMK QFE738
UMMM,2018-04-05 05:30,27.5397,53.8645,234.00,46.40,41.00,81.34,120.00,5.83,0.00,29.77,M,3.73,M,NSC,M,M,M,M,M,M,M,-RA,M,M,M,M,M,M,42.97,UMMM 050530Z 12003MPS 6000 -RA NSC 08/05 Q1008 RMK QFE736
UMMM,2018-04-05 06:00,27.5397,53.8645,234.00,46.40,41.00,81.34,100.00,7.78,0.00,29.80,M,3.73,M,BKN,OVC,M,M,4600.00,10000.00,M,M,-SHRA,M,M,M,M,M,M,41.95,UMMM 050600Z 10004MPS 6000 -SHRA BKN046CB OVC100 08/05 Q1009 RMK QFE736
UMMM,2018-04-05 07:00,27.5397,53.8645,234.00,48.20,42.80,81.47,120.00,5.83,0.00,29.77,M,6.21,M,SCT,OVC,M,M,4800.00,10000.00,M,M,M,M,M,M,M,M,M,45.13,UMMM 050700Z 12003MPS 9999 SCT048CB OVC100 09/06 Q1008 RMK QFE736
UMMM,2018-04-05 08:00,27.5397,53.8645,234.00,50.00,42.80,76.18,140.00,5.83,0.00,29.77,M,6.21,M,M,M,M,M,M,M,M,M,M,M,M,M,M,M,M,47.30,UMMM 050800Z 14003MPS CAVOK 10/06 Q1008 RMK QFE736
UMMM,2018-04-05 09:00,27.5397,53.8645,234.00,51.80,42.80,71.26,140.00,5.83,0.00,29.77,M,6.21,M,M,M,M,M,M,M,M,M,M,M,M,M,M,M,M,51.80,UMMM 050900Z 14003MPS CAVOK 11/06 Q1008 RMK QFE736
UMMM,2018-04-05 10:00,27.5397,53.8645,234.00,55.40,44.60,66.91,110.00,7.78,0.00,29.77,M,6.21,M,M,M,M,M,M,M,M,M,M,M,M,M,M,M,M,55.40,UMMM 051000Z 11004MPS CAVOK 13/07 Q1008 RMK QFE735
UMMM,2018-04-05 11:00,27.5397,53.8645,234.00,59.00,42.80,54.86,160.00,9.72,0.00,29.74,M,6.21,15.55,M,M,M,M,M,M,M,M,M,M,M,M,M,M,M,59.00,UMMM 051100Z 16005G08MPS CAVOK 15/06 Q1007 RMK QFE735
UMMM,2018-04-05 12:00,27.5397,53.8645,234.00,62.60,42.80,48.28,180.00,11.66,0.00,29.74,M,6.21,17.49,SCT,BKN,M,M,4000.00,10000.00,M,M,M,M,M,M,M,M,M,62.60,UMMM 051200Z 18006G09MPS 9999 SCT040 BKN100 17/06 Q1007 RMK QFE735
UMMM,2018-04-05 13:00,27.5397,53.8645,234.00,64.40,44.60,48.55,180.00,11.66,0.00,29.74,M,6.21,17.49,FEW,BKN,M,M,4600.00,10000.00,M,M,M,M,M,M,M,M,M,64.40,UMMM 051300Z 18006G09MPS 9999 FEW046 BKN100 18/07 Q1007 RMK QFE735
UMMM,2018-04-05 14:00,27.5397,53.8645,234.00,64.40,46.40,51.98,170.00,9.72,0.00,29.74,M,6.21,M,M,M,M,M,M,M,M,M,M,M,M,M,M,M,M,64.40,UMMM 051400Z 17005MPS CAVOK 18/08 Q1007 RMK QFE735
UMMM,2018-04-06 05:30,27.5397,53.8645,234.00,46.40,42.80,87.19,260.00,1.94,0.00,29.83,M,3.73,M,NSC,M,M,M,M,M,M,M,M,M,M,M,M,M,M,46.40,UMMM 060530Z 26001MPS 6000 NSC 08/06 Q1010 RMK QFE738
UMMM,2018-04-06 06:00,27.5397,53.8645,234.00,48.20,44.60,87.28,280.00,3.89,0.00,29.83,M,3.73,M,NSC,M,M,M,M,M,M,M,M,M,M,M,M,M,M,46.43,UMMM 060600Z 28002MPS 6000 NSC 09/07 Q1010 RMK QFE738
UMMM,2018-04-06 07:00,27.5397,53.8645,234.00,48.20,44.60,87.28,300.00,7.78,0.00,29.85,M,6.21,M,M,M,M,M,M,M,M,M,M,M,M,M,M,M,M,44.17,UMMM 060700Z 30004MPS CAVOK 09/07 Q1011 RMK QFE739
UMMM,2018-04-06 08:00,27.5397,53.8645,234.00,50.00,44.60,81.61,270.00,7.78,0.00,29.85,M,6.21,M,BKN,OVC,M,M,4600.00,10000.00,M,M,-SHRA,M,M,M,M,M,M,46.38,UMMM 060800Z 27004MPS 9999 -SHRA BKN046CB OVC100 10/07 Q1011 RMK QFE739
UMMM,2018-04-06 09:00,27.5397,53.8645,234.00,51.80,44.60,76.34,240.00,5.83,0.00,29.88,M,6.21,M,M,M,M,M,M,M,M,M,M,M,M,M,M,M,M,51.80,UMMM 060900Z 24003MPS CAVOK 11/07 Q1012 RMK QFE739
UMMM,2018-04-06 10:00,27.5397,53.8645,234.00,51.80,44.60,76.34,250.00,9.72,0.00,29.88,M,6.21,15.55,BKN,OVC,M,M,1700.00,10000.00,M,M,M,M,M,M,M,M,M,51.80,UMMM 061000Z 25005G08MPS 9999 BKN017 OVC100 11/07 Q1012 RMK QFE740
UMMM,2018-04-06 11:00,27.5397,53.8645,234.00,51.80,44.60,76.34,280.00,15.55,0.00,29.91,M,6.21,21.38,BKN,OVC,M,M,1800.00,10000.00,M,M,M,M,M,M,M,M,M,51.80,UMMM 061100Z 28008G11MPS 9999 BKN018 OVC100 11/07 Q1013 RMK QFE740
UMMM,2018-04-06 12:00,27.5397,53.8645,234.00,51.80,42.80,71.26,280.00,15.55,0.00,M,M,6.21,21.38,BKN,OVC,M,M,2000.00,10000.00,M,M,M,M,M,M,M,M,M,51.80,UMMM 061200Z 28008G11MPS 9999 BKN020 OVC100 11/06 Q10143 RMK QFE741
UMMM,2018-04-06 13:00,27.5397,53.8645,234.00,51.80,37.40,57.77,290.00,15.55,0.00,29.94,M,6.21,21.38,BKN,BKN,M,M,2600.00,10000.00,M,M,M,M,M,M,M,M,M,51.80,UMMM 061300Z 29008G11MPS 9999 BKN026 BKN100 11/03 Q1014 RMK QFE741
UMMM,2018-04-06 14:00,27.5397,53.8645,234.00,51.80,35.60,53.81,280.00,13.61,0.00,29.97,M,6.21,19.44,BKN,M,M,M,3300.00,M,M,M,M,M,M,M,M,M,M,51.80,UMMM 061400Z 28007G10MPS 9999 BKN033 11/02 Q1015 RMK QFE741
UMMM,2018-04-09 05:30,27.5397,53.8645,234.00,46.40,39.20,75.84,140.00,5.83,0.00,30.09,M,6.21,M,M,M,M,M,M,M,M,M,M,M,M,M,M,M,M,42.97,UMMM 090530Z 14003MPS CAVOK 08/04 Q1019 RMK QFE744
UMMM,2018-04-09 06:00,27.5397,53.8645,234.00,48.20,41.00,76.01,130.00,7.78,0.00,30.06,M,6.21,M,M,M,M,M,M,M,M,M,M,M,M,M,M,M,M,44.17,UMMM 090600Z 13004MPS CAVOK 09/05 Q1018 RMK QFE743
UMMM,2018-04-09 07:00,27.5397,53.8645,234.00,51.80,39.20,61.99,160.00,7.78,0.00,30.06,M,6.21,M,M,M,M,M,M,M,M,M,M,M,M,M,M,M,M,51.80,UMMM 090700Z 16004MPS CAVOK 11/04 Q1018 RMK QFE743
UMMM,2018-04-09 08:00,27.5397,53.8645,234.00,55.40,42.80,62.46,150.00,11.66,0.00,30.03,M,6.21,17.49,M,M,M,M,M,M,M,M,M,M,M,M,M,M,M,55.40,UMMM 090800Z 15006G09MPS CAVOK 13/06 Q1017 RMK QFE743
UMMM,2018-04-09 09:00,27.5397,53.8645,234.00,62.60,35.60,36.45,140.00,11.66,0.00,30.03,M,6.21,17.49,M,M,M,M,M,M,M,M,M,M,M,M,M,M,M,62.60,UMMM 090900Z 14006G09MPS CAVOK 17/02 Q1017 RMK QFE742
UMMM,2018-04-09 10:00,27.5397,53.8645,234.00,64.40,37.40,36.74,170.00,15.55,0.00,30.00,M,6.21,21.38,M,M,M,M,M,M,M,M,M,M,M,M,M,M,M,64.40,UMMM 091000Z 17008G11MPS CAVOK 18/03 Q1016 RMK QFE742
UMMM,2018-04-09 11:00,27.5397,53.8645,234.00,66.20,35.60,32.14,150.00,13.61,0.00,30.00,M,6.21,23.33,M,M,M,M,M,M,M,M,M,M,M,M,M,M,M,66.20,UMMM 091100Z 15007G12MPS CAVOK 19/02 Q1016 RMK QFE742
UMMM,2018-04-09 12:00,27.5397,53.8645,234.00,68.00,35.60,30.20,160.00,11.66,0.00,29.97,M,6.21,21.38,M,M,M,M,M,M,M,M,M,M,M,M,M,M,M,68.00,UMMM 091200Z 16006G11MPS CAVOK 20/02 Q1015 RMK QFE741
UMMM,2018-04-09 13:00,27.5397,53.8645,234.00,69.80,33.80,26.43,140.00,11.66,0.00,29.97,M,6.21,21.38,M,M,M,M,M,M,M,M,M,M,M,M,M,M,M,69.80,UMMM 091300Z 14006G11MPS CAVOK 21/01 Q1015 RMK QFE741
UMMM,2018-04-09 14:00,27.5397,53.8645,234.00,69.80,35.60,28.39,160.00,13.61,0.00,29.94,M,6.21,19.44,M,M,M,M,M,M,M,M,M,M,M,M,M,M,M,69.80,UMMM 091400Z 16007G10MPS CAVOK 21/02 Q1014 RMK QFE740
UMMM,2018-04-10 05:30,27.5397,53.8645,234.00,51.80,39.20,61.99,210.00,3.89,0.00,29.83,M,6.21,M,M,M,M,M,M,M,M,M,M,M,M,M,M,M,M,51.80,UMMM 100530Z 21002MPS CAVOK 11/04 Q1010 RMK QFE737
UMMM,2018-04-10 06:00,27.5397,53.8645,234.00,53.60,41.00,62.23,210.00,5.83,0.00,29.83,M,6.21,M,M,M,M,M,M,M,M,M,M,M,M,M,M,M,M,53.60,UMMM 100600Z 21003MPS CAVOK 12/05 Q1010 RMK QFE737
UMMM,2018-04-10 07:00,27.5397,53.8645,234.00,55.40,41.00,58.27,240.00,5.83,0.00,29.83,M,6.21,M,M,M,M,M,M,M,M,M,M,M,M,M,M,M,M,55.40,UMMM 100700Z 24003MPS CAVOK 13/05 Q1010 RMK QFE738
UMMM,2018-04-10 08:00,27.5397,53.8645,234.00,60.80,41.00,48.00,310.00,3.89,0.00,29.83,M,6.21,M,M,M,M,M,M,M,M,M,M,M,M,M,M,M,M,60.80,UMMM 100800Z 31002MPS CAVOK 16/05 Q1010 RMK QFE738
UMMM,2018-04-10 09:00,27.5397,53.8645,234.00,64.40,42.80,45.32,300.00,1.94,0.00,29.83,M,6.21,M,M,M,M,M,M,M,M,M,M,M,M,M,M,M,M,64.40,UMMM 100900Z 30001MPS CAVOK 18/06 Q1010 RMK QFE738
UMMM,2018-04-10 10:00,27.5397,53.8645,234.00,66.20,42.80,42.57,0.00,0.00,0.00,29.83,M,6.21,M,M,M,M,M,M,M,M,M,M,M,M,M,M,M,M,66.20,UMMM 101000Z 00000MPS CAVOK 19/06 Q1010 RMK QFE738
UMMM,2018-04-10 11:00,27.5397,53.8645,234.00,69.80,42.80,37.61,340.00,1.94,0.00,29.83,M,6.21,M,M,M,M,M,M,M,M,M,M,M,M,M,M,M,M,69.80,UMMM 101100Z 34001MPS CAVOK 21/06 Q1010 RMK QFE738
UMMM,2018-04-10 12:00,27.5397,53.8645,234.00,68.00,41.00,M,M,M,0.00,29.83,M,6.21,M,M,M,M,M,M,M,M,M,M,M,M,M,M,M,M,M,UMMM 101200Z /////MPS CAVOK 20/05 Q1010 RMK QFE738
UMMM,2018-04-10 13:00,27.5397,53.8645,234.00,69.80,42.80,M,M,M,0.00,29.83,M,6.21,M,M,M,M,M,M,M,M,M,M,M,M,M,M,M,M,M,UMMM 101300Z /////MPS CAVOK 21/06 Q1010 RMK QFE738
UMMM,2018-04-10 14:00,27.5397,53.8645,234.00,68.00,44.60,42.85,290.00,7.78,0.00,29.83,M,6.21,M,M,M,M,M,M,M,M,M,M,M,M,M,M,M,M,68.00,UMMM 101400Z 29004MPS CAVOK 20/07 Q1010 RMK QFE738
UMMM,2018-04-11 05:30,27.5397,53.8645,234.00,37.40,33.80,86.69,40.00,13.61,0.00,30.09,M,6.21,19.44,OVC,M,M,M,700.00,M,M,M,M,M,M,M,M,M,M,28.26,UMMM 110530Z 04007G10MPS 9999 OVC007 03/01 Q1019 NOSIG RMK QFE743
UMMM,2018-04-11 06:00,27.5397,53.8645,234.00,37.40,33.80,86.69,40.00,13.61,0.00,30.09,M,6.21,19.44,OVC,M,M,M,800.00,M,M,M,M,M,M,M,M,M,M,28.26,UMMM 110600Z 04007G10MPS 9999 OVC008 03/01 Q1019 NOSIG RMK QFE743
UMMM,2018-04-11 07:00,27.5397,53.8645,234.00,37.40,33.80,86.69,40.00,13.61,0.00,30.09,M,6.21,19.44,OVC,M,M,M,900.00,M,M,M,M,M,M,M,M,M,M,28.26,UMMM 110700Z 04007G10MPS 9999 OVC009 03/01 Q1019 NOSIG RMK QFE744
UMMM,2018-04-11 08:00,27.5397,53.8645,234.00,37.40,33.80,86.69,40.00,13.61,0.00,30.09,M,6.21,19.44,OVC,M,M,M,900.00,M,M,M,M,M,M,M,M,M,M,28.26,UMMM 110800Z 04007G10MPS 9999 OVC009 03/01 Q1019 NOSIG RMK QFE744
UMMM,2018-04-11 09:00,27.5397,53.8645,234.00,39.20,32.00,75.16,40.00,13.61,0.00,30.09,M,6.21,19.44,OVC,M,M,M,1200.00,M,M,M,M,M,M,M,M,M,M,30.58,UMMM 110900Z 04007G10MPS 9999 OVC012 04/00 Q1019 RMK QFE744
UMMM,2018-04-11 10:00,27.5397,53.8645,234.00,41.00,32.00,70.08,50.00,13.61,0.00,30.12,M,6.21,19.44,OVC,M,M,M,1700.00,M,M,M,M,M,M,M,M,M,M,32.89,UMMM 111000Z 05007G10MPS 9999 OVC017 05/00 Q1020 RMK QFE744
UMMM,2018-04-11 11:00,27.5397,53.8645,234.00,42.80,33.80,70.28,50.00,13.61,0.00,30.15,M,6.21,19.44,BKN,M,M,M,2000.00,M,M,M,M,M,M,M,M,M,M,35.21,UMMM 111100Z 05007G10MPS 9999 BKN020 06/01 Q1021 RMK QFE745
UMMM,2018-04-11 12:00,27.5397,53.8645,234.00,46.40,33.80,61.28,50.00,11.66,0.00,30.15,M,6.21,17.49,BKN,M,M,M,2700.00,M,M,M,M,M,M,M,M,M,M,40.44,UMMM 111200Z 05006G09MPS 9999 BKN027 08/01 Q1021 RMK QFE745
UMMM,2018-04-11 13:00,27.5397,53.8645,234.00,48.20,33.80,57.26,50.00,11.66,0.00,30.12,M,6.21,17.49,BKN,M,M,M,3000.00,M,M,M,M,M,M,M,M,M,M,42.72,UMMM 111300Z 05006G09MPS 9999 BKN030 09/01 Q1020 RMK QFE745
UMMM,2018-04-11 14:00,27.5397,53.8645,234.00,50.00,33.80,53.54,50.00,9.72,0.00,30.12,M,6.21,15.55,FEW,M,M,M,3300.00,M,M,M,M,M,M,M,M,M,M,45.64,UMMM 111400Z 05005G08MPS 9999 FEW033 10/01 Q1020 RMK QFE745
UMMM,2018-04-12 05:30,27.5397,53.8645,234.00,37.40,33.80,86.69,80.00,9.72,0.00,30.18,M,6.21,15.55,M,M,M,M,M,M,M,M,M,M,M,M,M,M,M,29.87,UMMM 120530Z 08005G08MPS CAVOK 03/01 Q1022 NOSIG RMK QFE746
UMMM,2018-04-12 06:00,27.5397,53.8645,234.00,37.40,33.80,86.69,90.00,9.72,0.00,30.18,M,6.21,15.55,M,M,M,M,M,M,M,M,M,M,M,M,M,M,M,29.87,UMMM 120600Z 09005G08MPS CAVOK 03/01 Q1022 R12/CLRD55 NOSIG RMK QFE746
UMMM,2018-04-12 06:30,27.5397,53.8645,234.00,37.40,33.80,86.69,90.00,9.72,0.00,30.18,M,6.21,15.55,M,M,M,M,M,M,M,M,M,M,M,M,M,M,M,29.87,UMMM 120630Z 09005G08MPS CAVOK 03/01 Q1022 R12/CLRD55 NOSIG RMK QFE746
UMMM,2018-04-12 07:00,27.5397,53.8645,234.00,41.00,33.80,75.33,90.00,9.72,0.00,30.18,M,6.21,15.55,M,M,M,M,M,M,M,M,M,M,M,M,M,M,M,34.38,UMMM 120700Z 09005G08MPS CAVOK 05/01 Q1022 R12/CLRD55 NOSIG RMK QFE746
UMMM,2018-04-12 07:30,27.5397,53.8645,234.00,41.00,33.80,75.33,100.00,9.72,0.00,30.18,M,6.21,15.55,M,M,M,M,M,M,M,M,M,M,M,M,M,M,M,34.38,UMMM 120730Z 10005G08MPS CAVOK 05/01 Q1022 R12/CLRD55 NOSIG RMK QFE746
UMMM,2018-04-12 08:00,27.5397,53.8645,234.00,41.00,33.80,75.33,90.00,9.72,0.00,30.18,M,6.21,M,M,M,M,M,M,M,M,M,M,M,M,M,M,M,M,34.38,UMMM 120800Z 09005MPS CAVOK 05/01 Q1022 R12/CLRD55 NOSIG RMK QFE746
UMMM,2018-04-12 08:30,27.5397,53.8645,234.00,41.00,33.80,75.33,80.00,9.72,0.00,30.18,M,6.21,M,M,M,M,M,M,M,M,M,M,M,M,M,M,M,M,34.38,UMMM 120830Z 08005MPS CAVOK 05/01 Q1022 R12/CLRD55 NOSIG RMK QFE746
UMMM,2018-04-12 09:00,27.5397,53.8645,234.00,46.40,32.00,57.00,90.00,9.72,0.00,30.18,M,6.21,M,M,M,M,M,M,M,M,M,M,M,M,M,M,M,M,41.13,UMMM 120900Z 09005MPS CAVOK 08/00 Q1022 R12/CLRD55 NOSIG RMK QFE746
UMMM,2018-04-12 09:30,27.5397,53.8645,234.00,46.40,32.00,57.00,90.00,9.72,0.00,30.18,M,6.21,15.55,M,M,M,M,M,M,M,M,M,M,M,M,M,M,M,41.13,UMMM 120930Z 09005G08MPS CAVOK 08/00 Q1022 R12/CLRD55 NOSIG RMK QFE746
UMMM,2018-04-12 10:00,27.5397,53.8645,234.00,48.20,32.00,53.27,90.00,9.72,0.00,30.18,M,6.21,M,M,M,M,M,M,M,M,M,M,M,M,M,M,M,M,43.38,UMMM 121000Z 09005MPS CAVOK 09/00 Q1022 R12/CLRD55 NOSIG RMK QFE746
UMMM,2018-04-12 11:00,27.5397,53.8645,234.00,51.80,30.20,43.32,90.00,9.72,0.00,30.18,M,6.21,15.55,M,M,M,M,M,M,M,M,M,M,M,M,M,M,M,51.80,UMMM 121100Z 09005G08MPS CAVOK 11/M01 Q1022 RMK QFE746
UMMM,2018-04-12 12:00,27.5397,53.8645,234.00,51.80,30.20,43.32,100.00,9.72,0.00,30.18,M,6.21,15.55,M,M,M,M,M,M,M,M,M,M,M,M,M,M,M,51.80,UMMM 121200Z 10005G08MPS CAVOK 11/M01 Q1022 RMK QFE746
UMMM,2018-04-12 13:00,27.5397,53.8645,234.00,53.60,32.00,43.61,80.00,9.72,0.00,30.18,M,6.21,15.55,M,M,M,M,M,M,M,M,M,M,M,M,M,M,M,53.60,UMMM 121300Z 08005G08MPS CAVOK 12/00 Q1022 RMK QFE746
UMMM,2018-04-12 14:00,27.5397,53.8645,234.00,53.60,33.80,46.88,80.00,9.72,0.00,30.18,M,6.21,15.55,M,M,M,M,M,M,M,M,M,M,M,M,M,M,M,53.60,UMMM 121400Z 08005G08MPS CAVOK 12/01 Q1022 RMK QFE746
UMMM,2018-04-13 05:30,27.5397,53.8645,234.00,42.80,26.60,52.45,80.00,5.83,0.00,30.21,M,6.21,M,M,M,M,M,M,M,M,M,M,M,M,M,M,M,M,38.65,UMMM 130530Z 08003MPS CAVOK 06/M03 Q1023 RMK QFE747
UMMM,2018-04-13 06:00,27.5397,53.8645,234.00,44.60,26.60,48.96,90.00,7.78,0.00,30.24,M,6.21,M,M,M,M,M,M,M,M,M,M,M,M,M,M,M,M,39.74,UMMM 130600Z 09004MPS CAVOK 07/M03 Q1024 RMK QFE747
UMMM,2018-04-13 07:00,27.5397,53.8645,234.00,48.20,28.40,46.02,90.00,9.72,0.00,30.21,M,6.21,M,M,M,M,M,M,M,M,M,M,M,M,M,M,M,M,43.38,UMMM 130700Z 09005MPS CAVOK 09/M02 Q1023 RMK QFE747
UMMM,2018-04-13 08:00,27.5397,53.8645,234.00,50.00,26.60,39.95,100.00,11.66,0.00,30.24,M,6.21,17.49,M,M,M,M,M,M,M,M,M,M,M,M,M,M,M,45.01,UMMM 130800Z 10006G09MPS CAVOK 10/M03 Q1024 RMK QFE747
UMMM,2018-04-13 09:00,27.5397,53.8645,234.00,53.60,30.20,40.54,90.00,11.66,0.00,30.24,M,6.21,17.49,M,M,M,M,M,M,M,M,M,M,M,M,M,M,M,53.60,UMMM 130900Z 09006G09MPS CAVOK 12/M01 Q1024 RMK QFE747
UMMM,2018-04-13 10:00,27.5397,53.8645,234.00,57.20,26.60,30.69,100.00,11.66,0.00,30.24,M,6.21,17.49,M,M,M,M,M,M,M,M,M,M,M,M,M,M,M,57.20,UMMM 131000Z 10006G09MPS CAVOK 14/M03 Q1024 RMK QFE747
UMMM,2018-04-13 11:00,27.5397,53.8645,234.00,57.20,26.60,30.69,100.00,9.72,0.00,30.21,M,6.21,15.55,M,M,M,M,M,M,M,M,M,M,M,M,M,M,M,57.20,UMMM 131100Z 10005G08MPS CAVOK 14/M03 Q1023 RMK QFE747
UMMM,2018-04-13 12:00,27.5397,53.8645,234.00,59.00,26.60,28.77,120.00,11.66,0.00,30.21,M,6.21,17.49,M,M,M,M,M,M,M,M,M,M,M,M,M,M,M,59.00,UMMM 131200Z 12006G09MPS CAVOK 15/M03 Q1023 RMK QFE747
UMMM,2018-04-13 13:00,27.5397,53.8645,234.00,60.80,28.40,29.06,100.00,9.72,0.00,30.21,M,6.21,15.55,M,M,M,M,M,M,M,M,M,M,M,M,M,M,M,60.80,UMMM 131300Z 10005G08MPS CAVOK 16/M02 Q1023 RMK QFE747
UMMM,2018-04-13 14:00,27.5397,53.8645,234.00,60.80,28.40,29.06,90.00,9.72,0.00,30.21,M,6.21,15.55,M,M,M,M,M,M,M,M,M,M,M,M,M,M,M,60.80,UMMM 131400Z 09005G08MPS CAVOK 16/M02 Q1023 RMK QFE747
UMMM,2018-04-14 05:30,27.5397,53.8645,234.00,46.40,23.00,39.36,110.00,9.72,0.00,30.27,M,6.21,M,M,M,M,M,M,M,M,M,M,M,M,M,M,M,M,41.13,UMMM 140530Z 11005MPS CAVOK 08/M05 Q1025 RMK QFE748
UMMM,2018-04-14 06:00,27.5397,53.8645,234.00,46.40,24.80,42.44,110.00,9.72,0.00,30.27,M,6.21,M,M,M,M,M,M,M,M,M,M,M,M,M,M,M,M,41.13,UMMM 140600Z 11005MPS CAVOK 08/M04 Q1025 RMK QFE748
UMMM,2018-04-14 07:00,27.5397,53.8645,234.00,50.00,26.60,39.95,120.00,9.72,0.00,30.27,M,6.21,M,M,M,M,M,M,M,M,M,M,M,M,M,M,M,M,45.64,UMMM 140700Z 12005MPS CAVOK 10/M03 Q1025 RMK QFE748
UMMM,2018-04-14 08:00,27.5397,53.8645,234.00,53.60,30.20,40.54,120.00,9.72,0.00,30.27,M,6.21,15.55,M,M,M,M,M,M,M,M,M,M,M,M,M,M,M,53.60,UMMM 140800Z 12005G08MPS CAVOK 12/M01 Q1025 RMK QFE748
UMMM,2018-04-14 09:00,27.5397,53.8645,234.00,59.00,26.60,28.77,120.00,11.66,0.00,30.27,M,6.21,17.49,M,M,M,M,M,M,M,M,M,M,M,M,M,M,M,59.00,UMMM 140900Z 12006G09MPS CAVOK 15/M03 Q1025 RMK QFE748
UMMM,2018-04-14 10:00,27.5397,53.8645,234.00,60.80,24.80,25.04,100.00,13.61,0.00,30.27,M,6.21,19.44,M,M,M,M,M,M,M,M,M,M,M,M,M,M,M,60.80,UMMM 141000Z 10007G10MPS CAVOK 16/M04 Q1025 RMK QFE748
UMMM,2018-04-14 11:00,27.5397,53.8645,234.00,62.60,28.40,27.27,100.00,13.61,0.00,30.27,M,6.21,19.44,M,M,M,M,M,M,M,M,M,M,M,M,M,M,M,62.60,UMMM 141100Z 10007G10MPS CAVOK 17/M02 Q1025 RMK QFE748
UMMM,2018-04-14 12:00,27.5397,53.8645,234.00,62.60,30.20,29.35,100.00,11.66,0.00,30.24,M,6.21,21.38,M,M,M,M,M,M,M,M,M,M,M,M,M,M,M,62.60,UMMM 141200Z 10006G11MPS CAVOK 17/M01 Q1024 RMK QFE748
UMMM,2018-04-14 13:00,27.5397,53.8645,234.00,64.40,28.40,25.60,100.00,13.61,0.00,30.24,M,6.21,19.44,M,M,M,M,M,M,M,M,M,M,M,M,M,M,M,64.40,UMMM 141300Z 10007G10MPS CAVOK 18/M02 Q1024 RMK QFE747
UMMM,2018-04-14 14:00,27.5397,53.8645,234.00,64.40,30.20,27.55,120.00,9.72,0.00,30.24,M,6.21,15.55,M,M,M,M,M,M,M,M,M,M,M,M,M,M,M,64.40,UMMM 141400Z 12005G08MPS CAVOK 18/M01 Q1024 RMK QFE747
UMMM,2018-04-18 05:30,27.5397,53.8645,234.00,46.40,41.00,81.34,260.00,7.78,0.00,30.18,M,6.21,M,SCT,BKN,M,M,2600.00,20000.00,M,M,M,M,M,M,M,M,M,41.95,UMMM 180530Z 26004MPS //// SCT026 BKN200 08/05 Q1022 RMK QFE746
UMMM,2018-04-18 06:00,27.5397,53.8645,234.00,48.20,42.80,81.47,260.00,7.78,0.00,30.18,M,6.21,M,BKN,M,M,M,2000.00,M,M,M,M,M,M,M,M,M,M,44.17,UMMM 180600Z 26004MPS //// BKN020 09/06 Q1022 RMK QFE746
UMMM,2018-04-18 07:00,27.5397,53.8645,234.00,50.00,39.20,66.27,280.00,11.66,0.00,30.18,M,6.21,17.49,BKN,M,M,M,1200.00,M,M,M,M,M,M,M,M,M,M,45.01,UMMM 180700Z 28006G09MPS //// BKN012 10/04 Q1022 RMK QFE747
UMMM,2018-04-18 08:00,27.5397,53.8645,234.00,50.00,42.80,76.18,280.00,13.61,0.00,30.18,M,6.21,19.44,BKN,M,M,M,1200.00,M,M,M,M,M,M,M,M,M,M,44.47,UMMM 180800Z 28007G10MPS //// BKN012 10/06 Q1022 RMK QFE747
UMMM,2018-04-18 09:00,27.5397,53.8645,234.00,50.00,42.80,76.18,280.00,13.61,0.00,30.18,M,6.21,19.44,BKN,M,M,M,1900.00,M,M,M,M,M,M,M,M,M,M,44.47,UMMM 180900Z 28007G10MPS //// BKN019 10/06 Q1022 RMK QFE747
UMMM,2018-04-18 10:00,27.5397,53.8645,234.00,51.80,44.60,76.34,280.00,15.55,0.00,30.18,M,6.21,21.38,BKN,M,M,M,2600.00,M,M,M,M,M,M,M,M,M,M,51.80,UMMM 181000Z 28008G11MPS //// BKN026 11/07 Q1022 RMK QFE747
UMMM,2018-04-18 11:00,27.5397,53.8645,234.00,55.40,42.80,62.46,280.00,17.49,0.00,30.15,M,6.21,27.21,BKN,M,M,M,3000.00,M,M,M,M,M,M,M,M,M,M,55.40,UMMM 181100Z 28009G14MPS //// BKN030 13/06 Q1021 RMK QFE746
UMMM,2018-04-18 12:00,27.5397,53.8645,234.00,57.20,41.00,54.60,270.00,17.49,0.00,30.15,M,6.21,27.21,BKN,M,M,M,3300.00,M,M,M,M,M,M,M,M,M,M,57.20,UMMM 181200Z 27009G14MPS //// BKN033 14/05 Q1021 RMK QFE746
UMMM,2018-04-18 13:00,27.5397,53.8645,234.00,59.00,39.20,47.72,270.00,19.44,0.00,30.15,M,6.21,29.16,BKN,M,M,M,4000.00,M,M,M,M,M,M,M,M,M,M,59.00,UMMM 181300Z 27010G15MPS //// BKN040 15/04 Q1021 RMK QFE746
UMMM,2018-04-18 14:00,27.5397,53.8645,234.00,59.00,39.20,47.72,290.00,19.44,0.00,30.15,M,6.21,29.16,BKN,M,M,M,4000.00,M,M,M,M,M,M,M,M,M,M,59.00,UMMM 181400Z 29010G15MPS //// BKN040 15/04 Q1021 RMK QFE746
UMMM,2018-04-19 05:30,27.5397,53.8645,234.00,50.00,42.80,76.18,320.00,15.55,0.00,30.06,M,6.21,21.38,OVC,M,M,M,2200.00,M,M,M,M,M,M,M,M,M,M,43.98,UMMM 190530Z 32008G11MPS //// OVC022 10/06 Q1018 RMK QFE744
UMMM,2018-04-19 06:00,27.5397,53.8645,234.00,50.00,42.80,76.18,310.00,15.55,0.00,30.06,M,6.21,25.27,OVC,M,M,M,2300.00,M,M,M,M,M,M,M,M,M,M,43.98,UMMM 190600Z 31008G13MPS //// OVC023 10/06 Q1018 RMK QFE744
UMMM,2018-04-19 07:00,27.5397,53.8645,234.00,50.00,41.00,71.07,310.00,15.55,0.00,30.06,M,6.21,25.27,OVC,M,M,M,2300.00,M,M,M,M,M,M,M,M,M,M,43.98,UMMM 190700Z 31008G13MPS //// OVC023 10/05 Q1018 RMK QFE744
UMMM,2018-04-19 08:00,27.5397,53.8645,234.00,51.80,41.00,66.48,330.00,19.44,0.00,30.06,M,6.21,29.16,BKN,M,M,M,4300.00,M,M,M,M,M,M,M,M,M,M,51.80,UMMM 190800Z 33010G15MPS //// BKN043 11/05 Q1018 RMK QFE744
UMMM,2018-04-19 09:00,27.5397,53.8645,234.00,53.60,37.40,54.07,310.00,17.49,0.00,30.03,M,6.21,23.33,BKN,M,M,M,3600.00,M,M,M,M,M,M,M,M,M,M,53.60,UMMM 190900Z 31009G12MPS //// BKN036 12/03 Q1017 RMK QFE744
UMMM,2018-04-19 10:00,27.5397,53.8645,234.00,53.60,37.40,54.07,310.00,19.44,0.00,30.03,M,6.21,29.16,BKN,BKN,M,M,3300.00,10000.00,M,M,M,M,M,M,M,M,M,53.60,UMMM 191000Z 310010G15MPS //// BKN033 BKN100 12/03 Q1017 RMK QFE743
UMMM,2018-04-19 11:00,27.5397,53.8645,234.00,55.40,37.40,50.64,310.00,19.44,0.00,30.03,M,6.21,29.16,BKN,BKN,M,M,3300.00,10000.00,M,M,M,M,M,M,M,M,M,55.40,UMMM 191100Z 31010G15MPS //// BKN033 BKN100 13/03 Q1017 RMK QFE743
UMMM,2018-04-19 12:00,27.5397,53.8645,234.00,55.40,37.40,50.64,320.00,17.49,0.00,30.03,M,6.21,27.21,BKN,OVC,M,M,4300.00,10000.00,M,M,M,M,M,M,M,M,M,55.40,UMMM 191200Z 32009G14MPS //// BKN043 OVC100 13/03 Q1017 RMK QFE744
UMMM,2018-04-19 13:00,27.5397,53.8645,234.00,51.80,39.20,61.99,340.00,15.55,0.00,30.06,M,6.21,25.27,OVC,M,M,M,1100.00,M,M,M,-SHRA,M,M,M,M,M,M,51.80,UMMM 191300Z 34008G13MPS //// -SHRA OVC011CB 11/04 Q1018 RMK QFE744
UMMM,2018-04-19 14:00,27.5397,53.8645,234.00,50.00,39.20,66.27,330.00,13.61,0.00,30.09,M,6.21,23.33,BKN,BKN,M,M,2200.00,10000.00,M,M,M,M,M,M,M,M,M,44.47,UMMM 191400Z 33007G12MPS //// BKN022CB BKN100 10/04 Q1019 RMK QFE744
UMMM,2018-04-20 05:30,27.5397,53.8645,234.00,46.40,39.20,75.84,320.00,9.72,0.00,30.21,M,6.21,15.55,NSC,M,M,M,M,M,M,M,M,M,M,M,M,M,M,41.13,UMMM 200530Z 32005G08MPS //// NSC 08/04 Q1023 NOSIG RMK QFE748
UMMM,2018-04-20 06:00,27.5397,53.8645,234.00,46.40,39.20,75.84,320.00,9.72,0.00,30.21,M,6.21,15.55,NSC,M,M,M,M,M,M,M,M,M,M,M,M,M,M,41.13,UMMM 200600Z 32005G08MPS //// NSC 08/04 Q1023 R30/CLRD// NOSIG RMK QFE748
UMMM,2018-04-20 06:30,27.5397,53.8645,234.00,46.40,39.20,75.84,320.00,9.72,0.00,30.21,M,6.21,15.55,NSC,M,M,M,M,M,M,M,M,M,M,M,M,M,M,41.13,UMMM 200630Z 32005G08MPS //// NSC 08/04 Q1023 R30/CLRD// NOSIG RMK QFE748
UMMM,2018-04-20 07:00,27.5397,53.8645,234.00,51.80,39.20,61.99,320.00,9.72,0.00,30.24,M,6.21,M,NSC,M,M,M,M,M,M,M,M,M,M,M,M,M,M,51.80,UMMM 200700Z 32005MPS //// NSC 11/04 Q1024 R30/CLRD// NOSIG RMK QFE748
UMMM,2018-04-20 07:30,27.5397,53.8645,234.00,51.80,39.20,61.99,340.00,9.72,0.00,30.24,M,6.21,M,NSC,M,M,M,M,M,M,M,M,M,M,M,M,M,M,51.80,UMMM 200730Z 34005MPS //// NSC 11/04 Q1024 R30/CLRD// NOSIG RMK QFE748
UMMM,2018-04-20 08:00,27.5397,53.8645,234.00,53.60,39.20,58.02,340.00,9.72,0.00,30.24,M,3.42,M,NSC,M,M,M,M,M,M,M,M,M,M,M,M,M,M,53.60,UMMM 200800Z 34005MPS P5500 NSC 12/04 Q1024 R30/CLRD// NOSIG RMK QFE748
UMMM,2018-04-20 08:30,27.5397,53.8645,234.00,53.60,39.20,58.02,340.00,9.72,0.00,30.24,M,6.21,M,M,M,M,M,M,M,M,M,M,M,M,M,M,M,M,53.60,UMMM 200830Z 34005MPS CAVOK 12/04 Q1024 R30/CLRD// NOSIG RMK QFE748
UMMM,2018-04-20 09:00,27.5397,53.8645,234.00,57.20,37.40,47.44,320.00,9.72,0.00,30.24,M,6.21,15.55,M,M,M,M,M,M,M,M,M,M,M,M,M,M,M,57.20,UMMM 200900Z 32005G08MPS CAVOK 14/03 Q1024 R30/CLRD// NOSIG RMK QFE748
UMMM,2018-04-20 09:30,27.5397,53.8645,234.00,57.20,37.40,47.44,320.00,9.72,0.00,30.24,M,6.21,15.55,M,M,M,M,M,M,M,M,M,M,M,M,M,M,M,57.20,UMMM 200930Z 32005G08MPS CAVOK 14/03 Q1024 R30/CLRD// NOSIG RMK QFE748
UMMM,2018-04-20 10:00,27.5397,53.8645,234.00,57.20,35.60,44.19,300.00,9.72,0.00,30.24,M,6.21,15.55,M,M,M,M,M,M,M,M,M,M,M,M,M,M,M,57.20,UMMM 201000Z 30005G08MPS CAVOK 14/02 Q1024 R30/CLRD// NOSIG RMK QFE748
UMMM,2018-04-20 11:00,27.5397,53.8645,234.00,59.00,37.40,44.47,300.00,9.72,0.00,30.21,M,6.21,15.55,FEW,BKN,M,M,3300.00,20000.00,M,M,M,M,M,M,M,M,M,59.00,UMMM 201100Z 30005G08MPS 9999 FEW033 BKN200 15/03 Q1023 R30/CLRD// NOSIG RMK QFE748
UMMM,2018-04-20 12:00,27.5397,53.8645,234.00,60.80,37.40,41.71,300.00,11.66,0.00,30.21,M,6.21,17.49,FEW,BKN,M,M,3300.00,20000.00,M,M,M,M,M,M,M,M,M,60.80,UMMM 201200Z 30006G09MPS 9999 FEW033 BKN200 16/03 Q1023 R30/CLRD// NOSIG RMK QFE748
UMMM,2018-04-20 13:00,27.5397,53.8645,234.00,62.60,37.40,39.14,300.00,11.66,0.00,30.18,M,6.21,17.49,M,M,M,M,M,M,M,M,M,M,M,M,M,M,M,62.60,UMMM 201300Z 30006G09MPS CAVOK 17/03 Q1022 RMK QFE746
UMMM,2018-04-20 14:00,27.5397,53.8645,234.00,64.40,37.40,36.74,300.00,9.72,0.00,30.15,M,6.21,15.55,M,M,M,M,M,M,M,M,M,M,M,M,M,M,M,64.40,UMMM 201400Z 30005G08MPS CAVOK 18/03 Q1021 RMK QFE746
UMMM,2018-04-21 05:30,27.5397,53.8645,234.00,53.60,37.40,54.07,240.00,13.61,0.00,29.77,M,6.21,19.44,M,M,M,M,M,M,M,M,M,M,M,M,M,M,M,53.60,UMMM 210530Z 24007G10MPS CAVOK 12/03 Q1008 RMK QFE736
UMMM,2018-04-21 06:00,27.5397,53.8645,234.00,53.60,37.40,54.07,240.00,13.61,0.00,29.74,M,6.21,23.33,M,M,M,M,M,M,M,M,M,M,M,M,M,M,M,53.60,UMMM 210600Z 24007G12MPS CAVOK 12/03 Q1007 NOSIG RMK QFE736
UMMM,2018-04-21 07:00,27.5397,53.8645,234.00,57.20,39.20,50.91,240.00,13.61,0.00,29.71,M,6.21,23.33,M,M,M,M,M,M,M,M,M,M,M,M,M,M,M,57.20,UMMM 210700Z 24007G12MPS CAVOK 14/04 Q1006 NOSIG RMK QFE735
UMMM,2018-04-21 08:00,27.5397,53.8645,234.00,62.60,42.80,48.28,230.00,15.55,0.00,29.68,M,6.21,21.38,SCT,BKN,M,M,4000.00,10000.00,M,M,M,M,M,M,M,M,M,62.60,UMMM 210800Z 23008G11MPS 9999 SCT040 BKN100 17/06 Q1005 NOSIG RMK QFE734
UMMM,2018-04-21 09:00,27.5397,53.8645,234.00,64.40,44.60,48.55,240.00,13.61,0.00,29.65,M,6.21,23.33,FEW,M,M,M,4000.00,M,M,M,M,M,M,M,M,M,M,64.40,UMMM 210900Z 24007G12MPS 9999 FEW040 18/07 Q1004 NOSIG RMK QFE734
UMMM,2018-04-21 10:00,27.5397,53.8645,234.00,69.80,42.80,37.61,250.00,17.49,0.00,29.65,M,6.21,27.21,M,M,M,M,M,M,M,M,M,M,M,M,M,M,M,69.80,UMMM 211000Z 25009G14MPS CAVOK 21/06 Q1004 NOSIG RMK QFE733
UMMM,2018-04-21 10:20,27.5397,53.8645,234.00,69.80,42.80,37.61,260.00,21.38,0.00,29.65,M,6.21,31.10,M,M,M,M,M,M,M,M,M,M,M,M,M,M,M,69.80,UMMM 211020Z 26011G16MPS CAVOK 21/06 Q1004 NOSIG RMK QFE733
UMMM,2018-04-21 11:00,27.5397,53.8645,234.00,71.60,42.80,35.37,260.00,21.38,0.00,29.62,M,6.21,31.10,BKN,M,M,M,3300.00,M,M,M,M,M,M,M,M,M,M,70.12,UMMM 211100Z 26011G16MPS 9999 BKN033 22/06 Q1003 NOSIG RMK QFE733
UMMM,2018-04-21 12:00,27.5397,53.8645,234.00,71.60,35.60,26.71,270.00,23.33,0.00,29.62,M,6.21,34.99,SCT,M,M,M,2600.00,M,M,M,M,M,M,M,M,M,M,69.72,UMMM 211200Z 27012G18MPS 9999 SCT026 22/02 Q1003 NOSIG RMK QFE733
UMMM,2018-04-23 05:30,27.5397,53.8645,234.00,44.60,35.60,70.48,100.00,1.94,0.00,29.97,M,6.21,M,M,M,M,M,M,M,M,M,M,M,M,M,M,M,M,44.60,UMMM 230530Z 10001MPS CAVOK 07/02 Q1015 RMK QFE741
UMMM,2018-04-23 06:00,27.5397,53.8645,234.00,46.40,35.60,65.83,100.00,1.94,0.00,29.97,M,6.21,M,M,M,M,M,M,M,M,M,M,M,M,M,M,M,M,46.40,UMMM 230600Z 10001MPS CAVOK 08/02 Q1015 RMK QFE741
UMMM,2018-04-23 07:00,27.5397,53.8645,234.00,48.20,33.80,57.26,100.00,3.89,0.00,29.97,M,6.21,M,M,M,M,M,M,M,M,M,M,M,M,M,M,M,M,46.43,UMMM 230700Z 10002MPS CAVOK 09/01 Q1015 RMK QFE741
UMMM,2018-04-23 08:00,27.5397,53.8645,234.00,50.00,35.60,57.52,140.00,3.89,0.00,30.00,M,6.21,M,BKN,M,M,M,3600.00,M,M,M,M,M,M,M,M,M,M,48.52,UMMM 230800Z 14002MPS 9999 BKN036 10/02 Q1016 RMK QFE741
UMMM,2018-04-23 09:00,27.5397,53.8645,234.00,53.60,35.60,50.36,120.00,5.83,0.00,30.00,M,6.21,M,BKN,M,M,M,4000.00,M,M,M,M,M,M,M,M,M,M,53.60,UMMM 230900Z 12003MPS 9999 BKN040 12/02 Q1016 RMK QFE741
UMMM,2018-04-23 10:00,27.5397,53.8645,234.00,55.40,37.40,50.64,140.00,5.83,0.00,29.97,M,6.21,M,BKN,M,M,M,4300.00,M,M,M,M,M,M,M,M,M,M,55.40,UMMM 231000Z 14003MPS 9999 BKN043 13/03 Q1015 RMK QFE741
UMMM,2018-04-23 11:00,27.5397,53.8645,234.00,55.40,30.20,37.97,160.00,3.89,0.00,29.97,M,6.21,M,BKN,M,M,M,4300.00,M,M,M,M,M,M,M,M,M,M,55.40,UMMM 231100Z 16002MPS 9999 BKN043 13/M01 Q1015 RMK QFE741
UMMM,2018-04-23 12:00,27.5397,53.8645,234.00,57.20,30.20,35.57,160.00,5.83,0.00,29.97,M,6.21,M,M,M,M,M,M,M,M,M,M,M,M,M,M,M,M,57.20,UMMM 231200Z 16003MPS CAVOK 14/M01 Q1015 RMK QFE741
UMMM,2018-04-23 13:00,27.5397,53.8645,234.00,57.20,32.00,38.26,150.00,1.94,0.00,29.94,M,6.21,M,M,M,M,M,M,M,M,M,M,M,M,M,M,M,M,57.20,UMMM 231300Z 15001MPS CAVOK 14/M00 Q1014 RMK QFE740
UMMM,2018-04-23 14:00,27.5397,53.8645,234.00,57.20,32.00,38.26,0.00,0.00,0.00,29.94,M,6.21,M,M,M,M,M,M,M,M,M,M,M,M,M,M,M,M,57.20,UMMM 231400Z 00000MPS CAVOK 14/00 Q1014 RMK QFE740
UMMM,2018-04-24 05:30,27.5397,53.8645,234.00,46.40,41.00,81.34,170.00,3.89,0.00,29.80,M,6.21,M,NSC,M,M,M,M,M,M,M,-RA,M,M,M,M,M,M,44.33,UMMM 240530Z 17002MPS 9999 -RA NSC 08/05 Q1009 RMK QFE736
UMMM,2018-04-24 06:00,27.5397,53.8645,234.00,46.40,41.00,81.34,170.00,3.89,0.00,29.80,M,6.21,M,SCT,OVC,M,M,4300.00,10000.00,M,M,M,M,M,M,M,M,M,44.33,UMMM 240600Z 17002MPS 9999 SCT043 OVC100 08/05 Q1009 RMK QFE736
UMMM,2018-04-24 07:00,27.5397,53.8645,234.00,46.40,41.00,81.34,140.00,1.94,0.00,29.80,M,6.21,M,OVC,M,M,M,2500.00,M,M,M,M,M,M,M,M,M,M,46.40,UMMM 240700Z 14001MPS 9999 OVC025 08/05 Q1009 RMK QFE736
UMMM,2018-04-24 08:00,27.5397,53.8645,234.00,48.20,41.00,76.01,200.00,3.89,0.00,29.80,M,6.21,M,FEW,BKN,M,M,2000.00,10000.00,M,M,M,M,M,M,M,M,M,46.43,UMMM 240800Z 20002MPS 9999 FEW020 BKN100 09/05 Q1009 RMK QFE736
UMMM,2018-04-24 09:00,27.5397,53.8645,234.00,51.80,35.60,53.81,260.00,7.78,0.00,29.80,M,6.21,M,SCT,BKN,M,M,2200.00,10000.00,M,M,M,M,M,M,M,M,M,51.80,UMMM 240900Z 26004MPS 9999 SCT022 BKN100 11/02 Q1009 RMK QFE737
UMMM,2018-04-24 10:00,27.5397,53.8645,234.00,57.20,37.40,47.44,250.00,11.66,0.00,29.80,M,6.21,182.72,BKN,BKN,M,M,3100.00,10000.00,M,M,M,M,M,M,M,M,M,57.20,UMMM 241000Z 25006G094MPS 9999 BKN031 BKN100 14/03 Q1009 RMK QFE737
UMMM,2018-04-24 11:00,27.5397,53.8645,234.00,59.00,41.00,51.18,260.00,11.66,0.00,29.80,M,6.21,17.49,BKN,BKN,M,M,4500.00,10000.00,M,M,M,M,M,M,M,M,M,59.00,UMMM 241100Z 26006G09MPS 9999 BKN045 BKN100 15/05 Q1009 RMK QFE737
UMMM,2018-04-24 12:00,27.5397,53.8645,234.00,59.00,39.20,47.72,300.00,9.72,0.00,29.80,M,6.21,15.55,BKN,BKN,M,M,4600.00,10000.00,M,M,M,M,M,M,M,M,M,59.00,UMMM 241200Z 30005G08MPS 9999 BKN046 BKN100 15/04 Q1009 RMK QFE737
UMMM,2018-04-24 13:00,27.5397,53.8645,234.00,62.60,37.40,39.14,260.00,11.66,0.00,29.80,M,6.21,17.49,BKN,BKN,M,M,4600.00,10000.00,M,M,M,M,M,M,M,M,M,62.60,UMMM 241300Z 26006G09MPS 9999 BKN046 BKN100 17/03 Q1009 RMK QFE737
UMMM,2018-04-24 14:00,27.5397,53.8645,234.00,62.60,37.40,39.14,300.00,9.72,0.00,29.77,M,6.21,15.55,BKN,BKN,M,M,4000.00,10000.00,M,M,M,M,M,M,M,M,M,62.60,UMMM 241400Z 30005G08MPS 9999 BKN040 BKN100 17/03 Q1008 RMK QFE737
UMMM,2018-04-25 05:30,27.5397,53.8645,234.00,51.80,44.60,76.34,260.00,7.78,0.00,29.74,M,6.21,M,M,M,M,M,M,M,M,M,M,M,M,M,M,M,M,51.80,UMMM 250530Z 26004MPS CAVOK 11/07 Q1007 RMK QFE736
UMMM,2018-04-25 06:00,27.5397,53.8645,234.00,53.60,44.60,71.45,270.00,9.72,0.00,29.74,M,6.21,M,M,M,M,M,M,M,M,M,M,M,M,M,M,M,M,53.60,UMMM 250600Z 27005MPS CAVOK 12/07 Q1007 RMK QFE736
UMMM,2018-04-25 07:00,27.5397,53.8645,234.00,53.60,41.00,62.23,250.00,9.72,0.00,29.74,M,6.21,15.55,SCT,BKN,M,M,3300.00,10000.00,M,M,M,M,M,M,M,M,M,53.60,UMMM 250700Z 25005G08MPS 9999 SCT033 BKN100 12/05 Q1007 RMK QFE736
UMMM,2018-04-25 08:00,27.5397,53.8645,234.00,55.40,41.00,58.27,260.00,11.66,0.00,29.74,M,6.21,17.49,SCT,BKN,M,M,3300.00,20000.00,M,M,M,M,M,M,M,M,M,55.40,UMMM 250800Z 26006G09MPS 9999 SCT033 BKN200 13/05 Q1007 RMK QFE736
UMMM,2018-04-25 09:00,27.5397,53.8645,234.00,55.40,35.60,47.16,250.00,13.61,0.00,29.77,M,6.21,19.44,SCT,BKN,M,M,3300.00,10000.00,M,M,M,M,M,M,M,M,M,55.40,UMMM 250900Z 25007G10MPS 9999 SCT033 BKN100 13/02 Q1008 RMK QFE736
UMMM,2018-04-25 10:00,27.5397,53.8645,234.00,55.40,35.60,47.16,240.00,13.61,0.00,29.74,M,6.21,19.44,BKN,BKN,M,M,4000.00,10000.00,M,M,M,M,M,M,M,M,M,55.40,UMMM 251000Z 24007G10MPS 9999 BKN040 BKN100 13/02 Q1007 RMK QFE736
UMMM,2018-04-25 11:00,27.5397,53.8645,234.00,57.20,37.40,47.44,250.00,11.66,0.00,29.74,M,6.21,17.49,BKN,BKN,M,M,4000.00,10000.00,M,M,M,M,M,M,M,M,M,57.20,UMMM 251100Z 25006G09MPS 9999 BKN040 BKN100 14/03 Q1007 RMK QFE736
UMMM,2018-04-25 12:00,27.5397,53.8645,234.00,57.20,37.40,47.44,210.00,11.66,0.00,29.74,M,6.21,17.49,BKN,BKN,M,M,4000.00,10000.00,M,M,M,M,M,M,M,M,M,57.20,UMMM 251200Z 21006G09MPS 9999 BKN040 BKN100 14/03 Q1007 RMK QFE736
UMMM,2018-04-25 13:00,27.5397,53.8645,234.00,55.40,42.80,62.46,210.00,11.66,0.00,29.74,M,6.21,17.49,BKN,BKN,M,M,3000.00,10000.00,M,M,M,M,M,M,M,M,M,55.40,UMMM 251300Z 21006G09MPS 9999 BKN030CB BKN100 13/06 Q1007 RMK QFE735
UMMM,2018-04-25 14:00,27.5397,53.8645,234.00,53.60,44.60,71.45,220.00,9.72,0.00,29.71,M,6.21,15.55,OVC,M,M,M,2600.00,M,M,M,-SHRA,M,M,M,M,M,M,53.60,UMMM 251400Z 22005G08MPS 9999 -SHRA OVC026CB 12/07 Q1006 RMK QFE735
UMMM,2018-04-26 05:30,27.5397,53.8645,234.00,46.40,37.40,70.68,300.00,15.55,0.00,29.65,M,6.21,21.38,BKN,M,M,M,2100.00,M,M,M,M,M,M,M,M,M,M,39.30,UMMM 260530Z 30008G11MPS 9999 BKN021 08/03 Q1004 RMK QFE734
UMMM,2018-04-26 06:00,27.5397,53.8645,234.00,46.40,37.40,70.68,280.00,15.55,0.00,29.68,M,6.21,21.38,BKN,M,M,M,2100.00,M,M,M,M,M,M,M,M,M,M,39.30,UMMM 260600Z 28008G11MPS 9999 BKN021 08/03 Q1005 RMK QFE734
UMMM,2018-04-26 07:00,27.5397,53.8645,234.00,46.40,35.60,65.83,280.00,15.55,0.00,29.74,M,6.21,21.38,BKN,M,M,M,2400.00,M,M,M,M,M,M,M,M,M,M,39.30,UMMM 260700Z 28008G11MPS 9999 BKN024 08/02 Q1007 RMK QFE735
UMMM,2018-04-26 08:00,27.5397,53.8645,234.00,48.20,37.40,66.05,290.00,13.61,0.00,29.74,M,6.21,19.44,BKN,M,M,M,2400.00,M,M,M,M,M,M,M,M,M,M,42.15,UMMM 260800Z 29007G10MPS 9999 BKN024 09/03 Q1007 RMK QFE736
UMMM,2018-04-26 09:00,27.5397,53.8645,234.00,48.20,37.40,66.05,270.00,13.61,0.00,29.77,M,6.21,19.44,OVC,M,M,M,2500.00,M,M,M,M,M,M,M,M,M,M,42.15,UMMM 260900Z 27007G10MPS 9999 OVC025 09/03 Q1008 RMK QFE736
UMMM,2018-04-26 10:00,27.5397,53.8645,234.00,50.00,37.40,61.76,270.00,13.61,0.00,29.80,M,6.21,19.44,BKN,M,M,M,2600.00,M,M,M,M,M,M,M,M,M,M,44.47,UMMM 261000Z 27007G10MPS 9999 BKN026 10/03 Q1009 RMK QFE737
UMMM,2018-04-26 11:00,27.5397,53.8645,234.00,51.80,37.40,57.77,300.00,13.61,0.00,29.80,M,6.21,19.44,BKN,M,M,M,3000.00,M,M,M,M,M,M,M,M,M,M,51.80,UMMM 261100Z 30007G10MPS 9999 BKN030 11/03 Q1009 RMK QFE737
UMMM,2018-04-26 12:00,27.5397,53.8645,234.00,53.60,37.40,54.07,300.00,13.61,0.00,29.80,M,6.21,19.44,BKN,M,M,M,3000.00,M,M,M,M,M,M,M,M,M,M,53.60,UMMM 261200Z 30007G10MPS 9999 BKN030 12/03 Q1009 RMK QFE737
UMMM,2018-04-26 13:00,27.5397,53.8645,234.00,55.40,37.40,50.64,300.00,13.61,0.00,29.80,M,6.21,19.44,BKN,M,M,M,3300.00,M,M,M,M,M,M,M,M,M,M,55.40,UMMM 261300Z 30007G10MPS 9999 BKN033 13/03 Q1009 RMK QFE737
UMMM,2018-04-26 14:00,27.5397,53.8645,234.00,55.40,37.40,50.64,280.00,9.72,0.00,29.80,M,6.21,15.55,BKN,M,M,M,3700.00,M,M,M,M,M,M,M,M,M,M,55.40,UMMM 261400Z 28005G08MPS 9999 BKN037 13/03 Q1009 RMK QFE737
UMMM,2018-04-27 05:30,27.5397,53.8645,234.00,46.40,37.40,70.68,250.00,7.78,0.00,29.94,M,6.21,M,M,M,M,M,M,M,M,M,M,M,M,M,M,M,M,41.95,UMMM 270530Z 25004MPS CAVOK 08/03 Q1014 NOSIG RMK QFE741
UMMM,2018-04-27 06:00,27.5397,53.8645,234.00,46.40,37.40,70.68,250.00,7.78,0.00,29.94,M,6.21,M,M,M,M,M,M,M,M,M,M,M,M,M,M,M,M,41.95,UMMM 270600Z 25004MPS CAVOK 08/03 Q1014 R30/CLRD// NOSIG RMK QFE741
UMMM,2018-04-27 06:30,27.5397,53.8645,234.00,46.40,37.40,70.68,250.00,7.78,0.00,29.94,M,6.21,M,SCT,BKN,M,M,2000.00,10000.00,M,M,M,M,M,M,M,M,M,41.95,UMMM 270630Z 25004MPS 9999 SCT020 BKN100 08/03 Q1014 R30/CLRD// NOSIG RMK QFE741
UMMM,2018-04-27 07:00,27.5397,53.8645,234.00,48.20,37.40,66.05,280.00,7.78,0.00,29.94,M,6.21,M,BKN,BKN,M,M,2000.00,10000.00,M,M,M,M,M,M,M,M,M,44.17,UMMM 270700Z 28004MPS 9999 BKN020 BKN100 09/03 Q1014 R30/CLRD// NOSIG RMK QFE741
UMMM,2018-04-27 07:30,27.5397,53.8645,234.00,48.20,37.40,66.05,280.00,7.78,0.00,29.94,M,6.21,M,BKN,BKN,M,M,2000.00,10000.00,M,M,M,M,M,M,M,M,M,44.17,UMMM 270730Z 28004MPS 9999 BKN020 BKN100 09/03 Q1014 R30/CLRD// NOSIG RMK QFE741
UMMM,2018-04-27 08:00,27.5397,53.8645,234.00,50.00,39.20,66.27,300.00,9.72,0.00,29.94,M,6.21,M,BKN,BKN,M,M,2400.00,20000.00,M,M,M,M,M,M,M,M,M,45.64,UMMM 270800Z 30005MPS 9999 BKN024 BKN200 10/04 Q1014 R30/CLRD// NOSIG RMK QFE741
UMMM,2018-04-27 08:30,27.5397,53.8645,234.00,50.00,39.20,66.27,280.00,9.72,0.00,29.97,M,6.21,M,BKN,BKN,M,M,3000.00,20000.00,M,M,M,M,M,M,M,M,M,45.64,UMMM 270830Z 28005MPS 9999 BKN030 BKN200 10/04 Q1015 R30/CLRD// NOSIG RMK QFE741
UMMM,2018-04-27 09:00,27.5397,53.8645,234.00,51.80,35.60,53.81,280.00,9.72,0.00,29.97,M,6.21,M,BKN,M,M,M,3300.00,M,M,M,M,M,M,M,M,M,M,51.80,UMMM 270900Z 28005MPS 9999 BKN033 11/02 Q1015 R30/CLRD// NOSIG RMK QFE741
UMMM,2018-04-27 09:30,27.5397,53.8645,234.00,51.80,35.60,53.81,280.00,9.72,0.00,29.97,M,6.21,M,BKN,M,M,M,3300.00,M,M,M,M,M,M,M,M,M,M,51.80,UMMM 270930Z 28005MPS 9999 BKN033 11/02 Q1015 R30/CLRD// NOSIG RMK QFE741
UMMM,2018-04-27 10:00,27.5397,53.8645,234.00,53.60,35.60,50.36,300.00,9.72,0.00,29.97,M,6.21,M,BKN,M,M,M,3300.00,M,M,M,M,M,M,M,M,M,M,53.60,UMMM 271000Z 30005MPS 9999 BKN033 12/02 Q1015 R30/CLRD// NOSIG RMK QFE742
UMMM,2018-04-27 10:30,27.5397,53.8645,234.00,53.60,35.60,50.36,300.00,9.72,0.00,29.97,M,6.21,M,BKN,M,M,M,3300.00,M,M,M,M,M,M,M,M,M,M,53.60,UMMM 271030Z 30005MPS 9999 BKN033 12/02 Q1015 R30/CLRD// NOSIG RMK QFE742
UMMM,2018-04-27 11:00,27.5397,53.8645,234.00,53.60,33.80,46.88,300.00,9.72,0.00,29.97,M,6.21,M,BKN,M,M,M,3300.00,M,M,M,M,M,M,M,M,M,M,53.60,UMMM 271100Z 30005MPS 9999 BKN033 12/01 Q1015 RMK QFE742
UMMM,2018-04-27 12:00,27.5397,53.8645,234.00,53.60,33.80,46.88,230.00,7.78,0.00,29.97,M,6.21,M,BKN,M,M,M,3300.00,M,M,M,M,M,M,M,M,M,M,53.60,UMMM 271200Z 23004MPS 9999 BKN033 12/01 Q1015 RMK QFE742
UMMM,2018-04-27 13:00,27.5397,53.8645,234.00,50.00,37.40,61.76,310.00,9.72,0.00,29.97,M,6.21,M,BKN,M,M,M,4000.00,M,M,M,M,M,M,M,M,M,M,45.64,UMMM 271300Z 31005MPS 9999 BKN040 10/03 Q1015 RMK QFE742
UMMM,2018-04-27 14:00,27.5397,53.8645,234.00,51.80,39.20,61.99,270.00,9.72,0.00,29.97,M,6.21,15.55,BKN,M,M,M,4000.00,M,M,M,M,M,M,M,M,M,M,51.80,UMMM 271400Z 27005G08MPS 9999 BKN040 11/04 Q1015 RMK QFE742
UMMM,2018-04-28 05:30,27.5397,53.8645,234.00,46.40,37.40,70.68,180.00,3.89,0.00,30.09,M,6.21,M,M,M,M,M,M,M,M,M,M,M,M,M,M,M,M,44.33,UMMM 280530Z 18002MPS CAVOK 08/03 Q1019 RMK QFE744
UMMM,2018-04-28 06:00,27.5397,53.8645,234.00,48.20,37.40,66.05,160.00,3.89,0.00,30.09,M,6.21,M,M,M,M,M,M,M,M,M,M,M,M,M,M,M,M,46.43,UMMM 280600Z 16002MPS CAVOK 09/03 Q1019 RMK QFE744
UMMM,2018-04-28 07:00,27.5397,53.8645,234.00,50.00,35.60,57.52,140.00,5.83,0.00,30.09,M,6.21,M,M,M,M,M,M,M,M,M,M,M,M,M,M,M,M,47.30,UMMM 280700Z 14003MPS CAVOK 10/02 Q1019 RMK QFE744
UMMM,2018-04-28 08:00,27.5397,53.8645,234.00,51.80,35.60,53.81,190.00,5.83,0.00,30.12,M,6.21,M,M,M,M,M,M,M,M,M,M,M,M,M,M,M,M,51.80,UMMM 280800Z 19003MPS CAVOK 11/02 Q1020 RMK QFE744
UMMM,2018-04-28 09:00,27.5397,53.8645,234.00,53.60,37.40,54.07,200.00,5.83,0.00,30.09,M,6.21,M,SCT,BKN,M,M,4000.00,10000.00,M,M,M,M,M,M,M,M,M,53.60,UMMM 280900Z 20003MPS 9999 SCT040 BKN100 12/03 Q1019 RMK QFE744
UMMM,2018-04-28 10:00,27.5397,53.8645,234.00,55.40,37.40,50.64,200.00,5.83,0.00,30.09,M,6.21,M,BKN,BKN,M,M,4000.00,10000.00,M,M,M,M,M,M,M,M,M,55.40,UMMM 281000Z 20003MPS 9999 BKN040 BKN100 13/03 Q1019 RMK QFE744
UMMM,2018-04-28 11:00,27.5397,53.8645,234.00,57.20,35.60,44.19,210.00,7.78,0.00,30.09,M,6.21,M,SCT,BKN,M,M,4300.00,10000.00,M,M,M,M,M,M,M,M,M,57.20,UMMM 281100Z 21004MPS 9999 SCT043 BKN100 14/02 Q1019 RMK QFE744
UMMM,2018-04-28 12:00,27.5397,53.8645,234.00,59.00,33.80,38.56,190.00,5.83,0.00,30.06,M,6.21,M,BKN,BKN,M,M,4000.00,10000.00,M,M,M,M,M,M,M,M,M,59.00,UMMM 281200Z 19003MPS 9999 BKN040 BKN100 15/01 Q1018 RMK QFE743
UMMM,2018-04-28 13:00,27.5397,53.8645,234.00,59.00,35.60,41.42,170.00,5.83,0.00,30.03,M,6.21,M,BKN,OVC,M,M,4600.00,10000.00,M,M,M,M,M,M,M,M,M,59.00,UMMM 281300Z 17003MPS 9999 BKN046 OVC100 15/02 Q1017 RMK QFE743
UMMM,2018-04-28 14:00,27.5397,53.8645,234.00,59.00,35.60,41.42,160.00,3.89,0.00,30.03,M,6.21,M,BKN,OVC,M,M,4800.00,10000.00,M,M,M,M,M,M,M,M,M,59.00,UMMM 281400Z 16002MPS 9999 BKN048 OVC100 15/02 Q1017 RMK QFE742
UMMM,2018-05-02 05:30,27.5397,53.8645,234.00,62.60,55.40,77.29,320.00,3.89,0.00,29.94,M,6.21,M,M,M,M,M,M,M,M,M,M,M,M,M,M,M,M,62.60,UMMM 020530Z 32002MPS CAVOK 17/13 Q1014 RMK QFE741
UMMM,2018-05-02 06:00,27.5397,53.8645,234.00,64.40,57.20,77.45,300.00,5.83,0.00,29.97,M,6.21,M,M,M,M,M,M,M,M,M,M,M,M,M,M,M,M,64.40,UMMM 020600Z 30003MPS CAVOK 18/14 Q1015 RMK QFE741
UMMM,2018-05-02 07:00,27.5397,53.8645,234.00,66.20,55.40,68.15,320.00,7.78,0.00,29.97,M,6.21,M,M,M,M,M,M,M,M,M,M,M,M,M,M,M,M,66.20,UMMM 020700Z 32004MPS CAVOK 19/13 Q1015 RMK QFE742
UMMM,2018-05-02 08:00,27.5397,53.8645,234.00,68.00,55.40,64.04,300.00,7.78,0.00,30.00,M,6.21,M,M,M,M,M,M,M,M,M,M,M,M,M,M,M,M,68.00,UMMM 020800Z 30004MPS CAVOK 20/13 Q1016 RMK QFE742
UMMM,2018-05-02 09:00,27.5397,53.8645,234.00,71.60,53.60,53.03,270.00,5.83,0.00,30.00,M,6.21,M,M,M,M,M,M,M,M,M,M,M,M,M,M,M,M,71.60,UMMM 020900Z 27003MPS CAVOK 22/12 Q1016 RMK QFE743
UMMM,2018-05-02 10:00,27.5397,53.8645,234.00,71.60,51.80,49.64,300.00,5.83,0.00,30.03,M,6.21,M,M,M,M,M,M,M,M,M,M,M,M,M,M,M,M,71.60,UMMM 021000Z 30003MPS CAVOK 22/11 Q1017 RMK QFE743
UMMM,2018-05-02 11:00,27.5397,53.8645,234.00,73.40,53.60,49.90,260.00,5.83,0.00,30.03,M,6.21,M,M,M,M,M,M,M,M,M,M,M,M,M,M,M,M,73.40,UMMM 021100Z 26003MPS CAVOK 23/12 Q1017 RMK QFE743
UMMM,2018-05-02 12:00,27.5397,53.8645,234.00,75.20,51.80,43.97,300.00,7.78,0.00,30.03,M,6.21,M,M,M,M,M,M,M,M,M,M,M,M,M,M,M,M,75.20,UMMM 021200Z 30004MPS CAVOK 24/11 Q1017 RMK QFE743
UMMM,2018-05-02 13:00,27.5397,53.8645,234.00,73.40,48.20,40.85,300.00,7.78,0.00,30.03,M,6.21,M,M,M,M,M,M,M,M,M,M,M,M,M,M,M,M,72.36,UMMM 021300Z 30004MPS CAVOK 23/09 Q1017 RMK QFE743
UMMM,2018-05-02 14:00,27.5397,53.8645,234.00,73.40,48.20,40.85,320.00,7.78,0.00,30.03,M,6.21,M,M,M,M,M,M,M,M,M,M,M,M,M,M,M,M,72.36,UMMM 021400Z 32004MPS CAVOK 23/09 Q1017 RMK QFE743
UMMM,2018-05-03 05:30,27.5397,53.8645,234.00,59.00,41.00,51.18,50.00,5.83,0.00,30.06,M,6.21,M,M,M,M,M,M,M,M,M,M,M,M,M,M,M,M,59.00,UMMM 030530Z 05003MPS CAVOK 15/05 Q1018 RMK QFE743
UMMM,2018-05-03 06:00,27.5397,53.8645,234.00,60.80,42.80,51.45,50.00,5.83,0.00,30.06,M,6.21,M,M,M,M,M,M,M,M,M,M,M,M,M,M,M,M,60.80,UMMM 030600Z 05003MPS CAVOK 16/06 Q1018 RMK QFE743
UMMM,2018-05-03 07:00,27.5397,53.8645,234.00,66.20,42.80,42.57,50.00,5.83,0.00,30.03,M,6.21,M,FEW,SCT,M,M,4000.00,20000.00,M,M,M,M,M,M,M,M,M,66.20,UMMM 030700Z 05003MPS 9999 FEW040 SCT200 19/06 Q1017 RMK QFE743
UMMM,2018-05-03 08:00,27.5397,53.8645,234.00,69.80,44.60,40.29,120.00,5.83,0.00,30.03,M,6.21,M,SCT,BKN,M,M,4000.00,20000.00,M,M,M,M,M,M,M,M,M,69.80,UMMM 030800Z 12003MPS 9999 SCT040 BKN200 21/07 Q1017 RMK QFE743
UMMM,2018-05-03 09:00,27.5397,53.8645,234.00,71.60,46.40,40.57,120.00,5.83,0.00,30.03,M,6.21,M,FEW,BKN,M,M,4600.00,20000.00,M,M,M,M,M,M,M,M,M,70.37,UMMM 030900Z 12003MPS 9999 FEW046 BKN200 22/08 Q1017 RMK QFE742
UMMM,2018-05-03 11:00,27.5397,53.8645,234.00,75.20,48.20,38.46,100.00,7.78,0.00,30.00,M,6.21,M,M,M,M,M,M,M,M,M,M,M,M,M,M,M,M,75.20,UMMM 031100Z 10004MPS CAVOK 24/09 Q1016 RMK QFE742
UMMM,2018-05-03 12:00,27.5397,53.8645,234.00,78.80,51.80,39.02,100.00,9.72,0.00,30.00,M,6.21,15.55,M,M,M,M,M,M,M,M,M,M,M,M,M,M,M,78.80,UMMM 031200Z 10005G08MPS CAVOK 26/11 Q1016 RMK QFE742
UMMM,2018-05-03 13:00,27.5397,53.8645,234.00,80.60,55.40,41.97,100.00,9.72,0.00,29.97,M,6.21,15.55,M,M,M,M,M,M,M,M,M,M,M,M,M,M,M,80.53,UMMM 031300Z 10005G08MPS CAVOK 27/13 Q1015 RMK QFE741
UMMM,2018-05-03 14:00,27.5397,53.8645,234.00,78.80,53.60,41.69,100.00,9.72,0.00,29.97,M,6.21,M,M,M,M,M,M,M,M,M,M,M,M,M,M,M,M,78.80,UMMM 031400Z 10005MPS CAVOK 26/12 Q1015 RMK QFE741
UMMM,2018-05-04 05:30,27.5397,53.8645,234.00,66.20,50.00,55.88,110.00,1.94,0.00,30.00,M,6.21,M,M,M,M,M,M,M,M,M,M,M,M,M,M,M,M,66.20,UMMM 040530Z 11001MPS CAVOK 19/10 Q1016 RMK QFE742
UMMM,2018-05-04 06:00,27.5397,53.8645,234.00,68.00,51.80,56.13,100.00,1.94,0.00,30.00,M,6.21,M,M,M,M,M,M,M,M,M,M,M,M,M,M,M,M,68.00,UMMM 040600Z 10001MPS CAVOK 20/11 Q1016 RMK QFE742
UMMM,2018-05-04 07:00,27.5397,53.8645,234.00,69.80,51.80,52.77,130.00,3.89,0.00,30.00,M,6.21,M,M,M,M,M,M,M,M,M,M,M,M,M,M,M,M,69.80,UMMM 040700Z 13002MPS CAVOK 21/11 Q1016 RMK QFE742
UMMM,2018-05-04 08:00,27.5397,53.8645,234.00,77.00,50.00,38.74,130.00,3.89,0.00,30.00,M,6.21,M,M,M,M,M,M,M,M,M,M,M,M,M,M,M,M,77.00,UMMM 040800Z 13002MPS CAVOK 25/10 Q1016 RMK QFE741
UMMM,2018-05-04 09:00,27.5397,53.8645,234.00,80.60,46.40,30.07,140.00,5.83,0.00,30.00,M,6.21,M,M,M,M,M,M,M,M,M,M,M,M,M,M,M,M,79.56,UMMM 040900Z 14003MPS CAVOK 27/08 Q1016 RMK QFE742
UMMM,2018-05-04 10:00,27.5397,53.8645,234.00,82.40,48.20,30.35,120.00,5.83,0.00,30.00,M,6.21,M,M,M,M,M,M,M,M,M,M,M,M,M,M,M,M,80.80,UMMM 041000Z 12003MPS CAVOK 28/09 Q1016 RMK QFE741
UMMM,2018-05-04 11:00,27.5397,53.8645,234.00,84.20,42.80,23.33,180.00,3.89,0.00,30.00,M,6.21,M,FEW,M,M,M,4000.00,M,M,M,M,M,M,M,M,M,M,81.61,UMMM 041100Z 18002MPS 9999 FEW040 29/06 Q1016 RMK QFE741
UMMM,2018-05-04 12:00,27.5397,53.8645,234.00,84.20,46.40,26.76,160.00,7.78,0.00,30.00,M,6.21,M,FEW,M,M,M,4000.00,M,M,M,M,M,M,M,M,M,M,81.87,UMMM 041200Z 16004MPS 9999 FEW040 29/08 Q1016 RMK QFE741
UMMM,2018-05-04 13:00,27.5397,53.8645,234.00,84.20,46.40,26.76,210.00,5.83,0.00,29.97,M,6.21,M,SCT,M,M,M,4600.00,M,M,M,M,M,M,M,M,M,M,81.87,UMMM 041300Z 21003MPS 9999 SCT046 29/08 Q1015 RMK QFE741
UMMM,2018-05-04 14:00,27.5397,53.8645,234.00,82.40,48.20,30.35,0.00,0.00,0.00,29.97,M,6.21,M,FEW,M,M,M,4600.00,M,M,M,M,M,M,M,M,M,M,80.80,UMMM 041400Z 00000MPS 9999 FEW046 28/09 Q1015 RMK QFE741
UMMM,2018-05-07 05:30,27.5397,53.8645,234.00,59.00,50.00,72.01,20.00,5.83,0.00,30.18,M,6.21,M,M,M,M,M,M,M,M,M,M,M,M,M,M,M,M,59.00,UMMM 070530Z 02003MPS CAVOK 15/10 Q1022 NOSIG RMK QFE741
UMMM,2018-05-07 06:00,27.5397,53.8645,234.00,59.00,50.00,72.01,20.00,7.78,0.00,30.18,M,6.21,M,M,M,M,M,M,M,M,M,M,M,M,M,M,M,M,59.00,UMMM 070600Z 02004MPS CAVOK 15/10 Q1022 NOSIG RMK QFE741
UMMM,2018-05-07 07:00,27.5397,53.8645,234.00,60.80,46.40,59.01,30.00,9.72,0.00,30.18,M,6.21,M,M,M,M,M,M,M,M,M,M,M,M,M,M,M,M,60.80,UMMM 070700Z 03005MPS CAVOK 16/08 Q1022 RMK QFE741
UMMM,2018-05-07 08:00,27.5397,53.8645,234.00,62.60,42.80,48.28,20.00,9.72,0.00,30.21,M,6.21,M,M,M,M,M,M,M,M,M,M,M,M,M,M,M,M,62.60,UMMM 070800Z 02005MPS CAVOK 17/06 Q1023 RMK QFE747
UMMM,2018-05-07 09:00,27.5397,53.8645,234.00,64.40,42.80,45.32,350.00,9.72,0.00,30.18,M,6.21,M,M,M,M,M,M,M,M,M,M,M,M,M,M,M,M,64.40,UMMM 070900Z 35005MPS CAVOK 18/06 Q1022 RMK QFE747
UMMM,2018-05-07 10:00,27.5397,53.8645,234.00,66.20,41.00,39.72,20.00,9.72,0.00,30.18,M,6.21,15.55,M,M,M,M,M,M,M,M,M,M,M,M,M,M,M,66.20,UMMM 071000Z 02005G08MPS CAVOK 19/05 Q1022 RMK QFE747
UMMM,2018-05-07 11:00,27.5397,53.8645,234.00,68.00,42.80,40.00,350.00,9.72,0.00,30.18,M,6.21,15.55,M,M,M,M,M,M,M,M,M,M,M,M,M,M,M,68.00,UMMM 071100Z 35005G08MPS CAVOK 20/06 Q1022 RMK QFE747
UMMM,2018-05-07 12:00,27.5397,53.8645,234.00,69.80,39.20,32.72,10.00,9.72,0.00,30.15,M,6.21,15.55,M,M,M,M,M,M,M,M,M,M,M,M,M,M,M,69.80,UMMM 071200Z 01005G08MPS CAVOK 21/04 Q1021 RMK QFE7476
UMMM,2018-05-07 13:00,27.5397,53.8645,234.00,69.80,41.00,35.09,10.00,9.72,0.00,30.12,M,6.21,15.55,M,M,M,M,M,M,M,M,M,M,M,M,M,M,M,69.80,UMMM 071300Z 01005G08MPS CAVOK 21/05 Q1020 RMK QFE7476
UMMM,2018-05-07 14:00,27.5397,53.8645,234.00,71.60,39.20,30.77,20.00,9.72,0.00,30.12,M,6.21,15.55,M,M,M,M,M,M,M,M,M,M,M,M,M,M,M,69.91,UMMM 071400Z 02005G08MPS CAVOK 22/04 Q1020 RMK QFE745
UMMM,2018-05-08 05:30,27.5397,53.8645,234.00,59.00,44.60,58.77,340.00,7.78,0.00,30.09,M,6.21,M,M,M,M,M,M,M,M,M,M,M,M,M,M,M,M,59.00,UMMM 080530Z 34004MPS CAVOK 15/07 Q1019 RMK QFE744
UMMM,2018-05-08 06:00,27.5397,53.8645,234.00,62.60,42.80,48.28,10.00,7.78,0.00,30.09,M,6.21,M,M,M,M,M,M,M,M,M,M,M,M,M,M,M,M,62.60,UMMM 080600Z 01004MPS CAVOK 17/06 Q1019 RMK QFE744
UMMM,2018-05-08 07:00,27.5397,53.8645,234.00,68.00,42.80,40.00,20.00,7.78,0.00,30.06,M,6.21,M,M,M,M,M,M,M,M,M,M,M,M,M,M,M,M,68.00,UMMM 080700Z 02004MPS CAVOK 20/06 Q1018 RMK QFE744
UMMM,2018-05-08 08:00,27.5397,53.8645,234.00,69.80,41.00,35.09,30.00,9.72,0.00,30.06,M,6.21,15.55,M,M,M,M,M,M,M,M,M,M,M,M,M,M,M,69.80,UMMM 080800Z 03005G08MPS CAVOK 21/05 Q1018 RMK QFE744
UMMM,2018-05-08 09:00,27.5397,53.8645,234.00,73.40,41.00,31.05,30.00,9.72,0.00,30.06,M,6.21,15.55,M,M,M,M,M,M,M,M,M,M,M,M,M,M,M,71.90,UMMM 080900Z 03005G08MPS CAVOK 23/05 Q1018 RMK QFE744
UMMM,2018-05-08 10:00,27.5397,53.8645,234.00,73.40,39.20,28.96,30.00,9.72,0.00,30.06,M,6.21,15.55,M,M,M,M,M,M,M,M,M,M,M,M,M,M,M,71.80,UMMM 081000Z 03005G08MPS CAVOK 23/04 Q1018 RMK QFE744
UMMM,2018-05-08 11:00,27.5397,53.8645,234.00,75.20,41.00,29.23,360.00,9.72,0.00,30.03,M,6.21,M,M,M,M,M,M,M,M,M,M,M,M,M,M,M,M,73.79,UMMM 081100Z 36005MPS CAVOK 24/05 Q1017 RMK QFE743
UMMM,2018-05-08 12:00,27.5397,53.8645,234.00,75.20,39.20,27.26,10.00,9.72,0.00,30.03,M,6.21,M,M,M,M,M,M,M,M,M,M,M,M,M,M,M,M,73.70,UMMM 081200Z 01005MPS CAVOK 24/04 Q1017 RMK QFE743
UMMM,2018-05-08 13:00,27.5397,53.8645,234.00,77.00,41.00,27.53,350.00,7.78,0.00,30.00,M,6.21,M,M,M,M,M,M,M,M,M,M,M,M,M,M,M,M,75.69,UMMM 081300Z 35004MPS CAVOK 25/05 Q1016 RMK QFE742
UMMM,2018-05-08 14:00,27.5397,53.8645,234.00,75.20,41.00,29.23,350.00,7.78,0.00,29.97,M,6.21,M,M,M,M,M,M,M,M,M,M,M,M,M,M,M,M,73.79,UMMM 081400Z 35004MPS CAVOK 24/05 Q1015 RMK QFE742
UMMM,2018-05-10 05:30,27.5397,53.8645,234.00,59.00,41.00,51.18,100.00,7.78,0.00,30.06,M,6.21,M,M,M,M,M,M,M,M,M,M,M,M,M,M,M,M,59.00,UMMM 100530Z 10004MPS CAVOK 15/05 Q1018 RMK QFE743
UMMM,2018-05-10 06:00,27.5397,53.8645,234.00,60.80,39.20,44.76,90.00,7.78,0.00,30.09,M,6.21,M,M,M,M,M,M,M,M,M,M,M,M,M,M,M,M,60.80,UMMM 100600Z 09004MPS CAVOK 16/04 Q1019 RMK QFE744
UMMM,2018-05-10 07:00,27.5397,53.8645,234.00,62.60,41.00,45.04,70.00,7.78,0.00,30.09,M,6.21,M,M,M,M,M,M,M,M,M,M,M,M,M,M,M,M,62.60,UMMM 100700Z 07004MPS CAVOK 17/05 Q1019 RMK QFE744
UMMM,2018-05-10 08:00,27.5397,53.8645,234.00,68.00,44.60,42.85,80.00,7.78,0.00,30.09,M,6.21,M,M,M,M,M,M,M,M,M,M,M,M,M,M,M,M,68.00,UMMM 100800Z 08004MPS CAVOK 20/07 Q1019 RMK QFE744
UMMM,2018-05-10 09:00,27.5397,53.8645,234.00,68.00,46.40,45.88,80.00,5.83,0.00,30.09,M,6.21,M,M,M,M,M,M,M,M,M,M,M,M,M,M,M,M,68.00,UMMM 100900Z 08003MPS CAVOK 20/08 Q1019 RMK QFE744
UMMM,2018-05-10 10:00,27.5397,53.8645,234.00,73.40,46.40,38.18,100.00,9.72,0.00,30.09,M,6.21,M,M,M,M,M,M,M,M,M,M,M,M,M,M,M,M,72.23,UMMM 101000Z 10005MPS CAVOK 23/08 Q1019 RMK QFE744
UMMM,2018-05-10 11:00,27.5397,53.8645,234.00,73.40,46.40,38.18,50.00,7.78,0.00,30.09,M,6.21,M,M,M,M,M,M,M,M,M,M,M,M,M,M,M,M,72.23,UMMM 101100Z 05004MPS CAVOK 23/08 Q1019 RMK QFE744
UMMM,2018-05-10 12:00,27.5397,53.8645,234.00,73.40,46.40,38.18,50.00,5.83,0.00,30.09,M,6.21,M,M,M,M,M,M,M,M,M,M,M,M,M,M,M,M,72.23,UMMM 101200Z 05003MPS CAVOK 23/08 Q1019 RMK QFE744
UMMM,2018-05-10 13:00,27.5397,53.8645,234.00,73.40,44.60,35.66,30.00,7.78,0.00,30.09,M,6.21,M,M,M,M,M,M,M,M,M,M,M,M,M,M,M,M,72.12,UMMM 101300Z 03004MPS CAVOK 23/07 Q1019 RMK QFE744
UMMM,2018-05-10 14:00,27.5397,53.8645,234.00,73.40,44.60,35.66,40.00,9.72,0.00,30.06,M,6.21,M,M,M,M,M,M,M,M,M,M,M,M,M,M,M,M,72.12,UMMM 101400Z 04005MPS CAVOK 23/07 Q1018 RMK QFE743
UMMM,2018-05-11 05:30,27.5397,53.8645,234.00,53.60,35.60,50.36,110.00,7.78,0.00,30.24,M,6.21,M,M,M,M,M,M,M,M,M,M,M,M,M,M,M,M,53.60,UMMM 110530Z 11004MPS CAVOK 12/02 Q1024 NOSIG RMK QFE747
UMMM,2018-05-11 06:00,27.5397,53.8645,234.00,55.40,37.40,50.64,100.00,5.83,0.00,30.24,M,6.21,M,M,M,M,M,M,M,M,M,M,M,M,M,M,M,M,55.40,UMMM 110600Z 10003MPS CAVOK 13/03 Q1024 NOSIG RMK QFE747
UMMM,2018-05-11 06:30,27.5397,53.8645,234.00,55.40,37.40,50.64,120.00,5.83,0.00,30.24,M,6.21,M,M,M,M,M,M,M,M,M,M,M,M,M,M,M,M,55.40,UMMM 110630Z 12003MPS CAVOK 13/03 Q1024 NOSIG R12/CLRD// RMK QFE747
UMMM,2018-05-11 07:00,27.5397,53.8645,234.00,59.00,39.20,47.72,100.00,5.83,0.00,30.24,M,6.21,M,M,M,M,M,M,M,M,M,M,M,M,M,M,M,M,59.00,UMMM 110700Z 10003MPS CAVOK 15/04 Q1024 R12/CLRD// NOSIG RMK QFE748
UMMM,2018-05-11 07:30,27.5397,53.8645,234.00,59.00,39.20,47.72,130.00,5.83,0.00,30.24,M,6.21,M,M,M,M,M,M,M,M,M,M,M,M,M,M,M,M,59.00,UMMM 110730Z 13003MPS CAVOK 15/04 Q1024 R12/CLRD// NOSIG RMK QFE748
UMMM,2018-05-11 08:00,27.5397,53.8645,234.00,62.60,37.40,39.14,130.00,7.78,0.00,30.24,M,6.21,M,M,M,M,M,M,M,M,M,M,M,M,M,M,M,M,62.60,UMMM 110800Z 13004MPS CAVOK 17/03 Q1024 R12/CLRD// NOSIG RMK QFE748
UMMM,2018-05-11 08:30,27.5397,53.8645,234.00,62.60,37.40,39.14,110.00,9.72,0.00,30.24,M,6.21,M,M,M,M,M,M,M,M,M,M,M,M,M,M,M,M,62.60,UMMM 110830Z 11005MPS CAVOK 17/03 Q1024 R12/CLRD// NOSIG RMK QFE748
UMMM,2018-05-11 09:00,27.5397,53.8645,234.00,64.40,35.60,34.22,70.00,7.78,0.00,30.24,M,6.21,M,M,M,M,M,M,M,M,M,M,M,M,M,M,M,M,64.40,UMMM 110900Z 07004MPS CAVOK 18/02 Q1024 R12/CLRD// NOSIG RMK QFE747
UMMM,2018-05-11 09:30,27.5397,53.8645,234.00,64.40,35.60,34.22,90.00,9.72,0.00,30.24,M,6.21,15.55,M,M,M,M,M,M,M,M,M,M,M,M,M,M,M,64.40,UMMM 110930Z 09005G08MPS CAVOK 18/02 Q1024 R12/CLRD// NOSIG RMK QFE747
UMMM,2018-05-11 10:00,27.5397,53.8645,234.00,66.20,35.60,32.14,120.00,9.72,0.00,30.24,M,6.21,M,M,M,M,M,M,M,M,M,M,M,M,M,M,M,M,66.20,UMMM 111000Z 12005MPS CAVOK 19/02 Q1024 R12/CLRD// NOSIG RMK QFE747
UMMM,2018-05-11 10:30,27.5397,53.8645,234.00,66.20,35.60,32.14,110.00,9.72,0.00,30.24,M,6.21,15.55,M,M,M,M,M,M,M,M,M,M,M,M,M,M,M,66.20,UMMM 111030Z 11005G08MPS CAVOK 19/02 Q1024 R12/CLRD// NOSIG RMK QFE747
UMMM,2018-05-11 11:00,27.5397,53.8645,234.00,68.00,32.00,26.15,120.00,9.72,0.00,30.24,M,6.21,M,M,M,M,M,M,M,M,M,M,M,M,M,M,M,M,68.00,UMMM 111100Z 12005MPS CAVOK 20/00 Q1024 RMK QFE747
UMMM,2018-05-11 12:00,27.5397,53.8645,234.00,68.00,32.00,26.15,120.00,9.72,0.00,30.21,M,6.21,15.55,M,M,M,M,M,M,M,M,M,M,M,M,M,M,M,68.00,UMMM 111200Z 12005G08MPS CAVOK 20/00 Q1023 RMK QFE747
UMMM,2018-05-11 13:00,27.5397,53.8645,234.00,66.20,32.00,27.83,100.00,7.78,0.00,30.21,M,6.21,M,M,M,M,M,M,M,M,M,M,M,M,M,M,M,M,66.20,UMMM 111300Z 10004MPS CAVOK 19/00 Q1023 RMK QFE747
UMMM,2018-05-11 14:00,27.5397,53.8645,234.00,68.00,32.00,26.15,120.00,7.78,0.00,30.18,M,6.21,M,M,M,M,M,M,M,M,M,M,M,M,M,M,M,M,68.00,UMMM 111400Z 12004MPS CAVOK 20/00 Q1022 RMK QFE746
UMMM,2018-05-14 05:30,27.5397,53.8645,234.00,57.20,42.80,58.52,50.00,5.83,0.00,30.12,M,6.21,M,M,M,M,M,M,M,M,M,M,M,M,M,M,M,M,57.20,UMMM 140530Z 05003MPS CAVOK 14/06 Q1020 NOSIG RMK QFE746
UMMM,2018-05-14 06:00,27.5397,53.8645,234.00,57.20,42.80,58.52,80.00,5.83,0.00,30.12,M,6.21,M,M,M,M,M,M,M,M,M,M,M,M,M,M,M,M,57.20,UMMM 140600Z 08003MPS CAVOK 14/06 Q1020 NOSIG RMK QFE745
UMMM,2018-05-14 06:12,27.5397,53.8645,234.00,57.20,42.80,58.52,80.00,5.83,0.00,30.12,M,6.21,M,M,M,M,M,M,M,M,M,M,M,M,M,M,M,M,57.20,UMMM 140612Z 08003MPS CAVOK 14/06 Q1020 R12/CLRD55 NOSIG RMK QFE745
UMMM,2018-05-14 06:30,27.5397,53.8645,234.00,57.20,42.80,58.52,80.00,7.78,0.00,30.12,M,6.21,M,M,M,M,M,M,M,M,M,M,M,M,M,M,M,M,57.20,UMMM 140630Z 08004MPS CAVOK 14/06 Q1020 R12/CLRD55 NOSIG RMK QFE745
UMMM,2018-05-14 07:00,27.5397,53.8645,234.00,59.00,42.80,54.86,100.00,5.83,0.00,30.15,M,6.21,M,M,M,M,M,M,M,M,M,M,M,M,M,M,M,M,59.00,UMMM 140700Z 10003MPS CAVOK 15/06 Q1021 R12/CLRD55 NOSIG RMK QFE745
UMMM,2018-05-14 07:30,27.5397,53.8645,234.00,59.00,42.80,54.86,100.00,5.83,0.00,30.12,M,6.21,M,M,M,M,M,M,M,M,M,M,M,M,M,M,M,M,59.00,UMMM 140730Z 10003MPS CAVOK 15/06 Q1020 R12/CLRD55 NOSIG RMK QFE745
UMMM,2018-05-14 08:00,27.5397,53.8645,234.00,62.60,42.80,48.28,100.00,7.78,0.00,30.12,M,6.21,M,FEW,M,M,M,3300.00,M,M,M,M,M,M,M,M,M,M,62.60,UMMM 140800Z 10004MPS 9999 FEW033 17/06 Q1020 R12/CLRD55 NOSIG RMK QFE745
UMMM,2018-05-14 08:30,27.5397,53.8645,234.00,62.60,42.80,48.28,100.00,9.72,0.00,30.12,M,6.21,15.55,FEW,M,M,M,3300.00,M,M,M,M,M,M,M,M,M,M,62.60,UMMM 140830Z 10005G08MPS 9999 FEW033 17/06 Q1020 R12/CLRD55 NOSIG RMK QFE745
UMMM,2018-05-14 09:00,27.5397,53.8645,234.00,66.20,42.80,42.57,80.00,9.72,0.00,30.12,M,6.21,15.55,SCT,BKN,M,M,3300.00,10000.00,M,M,M,M,M,M,M,M,M,66.20,UMMM 140900Z 08005G08MPS 9999 SCT033 BKN100 19/06 Q1020 R12/CLRD55 NOSIG RMK QFE745
UMMM,2018-05-14 09:30,27.5397,53.8645,234.00,66.20,42.80,42.57,80.00,9.72,0.00,30.12,M,6.21,15.55,SCT,BKN,M,M,3300.00,10000.00,M,M,M,M,M,M,M,M,M,66.20,UMMM 140930Z 08005G08MPS 9999 SCT033 BKN100 19/06 Q1020 R12/CLRD55 NOSIG RMK QFE745
UMMM,2018-05-14 10:00,27.5397,53.8645,234.00,68.00,42.80,40.00,120.00,11.66,0.00,30.12,M,6.21,17.49,BKN,M,M,M,3300.00,M,M,M,M,M,M,M,M,M,M,68.00,UMMM 141000Z 12006G09MPS 9999 BKN033 20/06 Q1020 R12/CLRD55 NOSIG RMK QFE745
UMMM,2018-05-14 10:30,27.5397,53.8645,234.00,68.00,42.80,40.00,110.00,11.66,0.00,30.12,M,6.21,17.49,BKN,M,M,M,4000.00,M,M,M,M,M,M,M,M,M,M,68.00,UMMM 141030Z 11006G09MPS 9999 BKN040 20/06 Q1020 R12/CLRD55 NOSIG RMK QFE745
UMMM,2018-05-14 11:00,27.5397,53.8645,234.00,68.00,44.60,42.85,110.00,13.61,0.00,30.12,M,6.21,19.44,BKN,M,M,M,4000.00,M,M,M,M,M,M,M,M,M,M,68.00,UMMM 141100Z 11007G10MPS 9999 BKN040 20/07 Q1020 R12/CLRD55 NOSIG RMK QFE745
UMMM,2018-05-14 11:30,27.5397,53.8645,234.00,68.00,44.60,42.85,110.00,13.61,0.00,30.12,M,6.21,19.44,BKN,M,M,M,4000.00,M,M,M,M,M,M,M,M,M,M,68.00,UMMM 141130Z 11007G10MPS 9999 BKN040 20/07 Q1020 R12/CLRD55 NOSIG RMK QFE745
UMMM,2018-05-14 12:00,27.5397,53.8645,234.00,69.80,44.60,40.29,120.00,13.61,0.00,30.12,M,6.21,19.44,BKN,M,M,M,4000.00,M,M,M,M,M,M,M,M,M,M,69.80,UMMM 141200Z 12007G10MPS 9999 BKN040 21/07 Q1020 R12/CLRD55 NOSIG RMK QFE744
UMMM,2018-05-14 12:30,27.5397,53.8645,234.00,69.80,44.60,40.29,120.00,13.61,0.00,30.12,M,6.21,19.44,BKN,M,M,M,4000.00,M,M,M,M,M,M,M,M,M,M,69.80,UMMM 141230Z 12007G10MPS 9999 BKN040 21/07 Q1020 R12/CLRD55 NOSIG RMK QFE744
UMMM,2018-05-14 13:00,27.5397,53.8645,234.00,69.80,44.60,40.29,120.00,13.61,0.00,30.12,M,6.21,19.44,BKN,M,M,M,4000.00,M,M,M,M,M,M,M,M,M,M,69.80,UMMM 141300Z 12007G10MPS 9999 BKN040 21/07 Q1020 R12/CLRD55 NOSIG RMK QFE745
UMMM,2018-05-14 14:00,27.5397,53.8645,234.00,68.00,44.60,42.85,120.00,11.66,0.00,30.12,M,6.21,17.49,BKN,M,M,M,4000.00,M,M,M,M,M,M,M,M,M,M,68.00,UMMM 141400Z 12006G09MPS 9999 BKN040 20/07 Q1020 RMK QFE745
UMMM,2018-05-15 05:30,27.5397,53.8645,234.00,55.40,50.00,81.99,130.00,5.83,0.00,30.06,M,6.21,M,OVC,M,M,M,1200.00,M,M,M,M,M,M,M,M,M,M,55.40,UMMM 150530Z 13003MPS 9999 OVC012 13/10 Q1018 RMK QFE743
UMMM,2018-05-15 06:00,27.5397,53.8645,234.00,57.20,50.00,76.82,130.00,5.83,0.00,30.06,M,6.21,M,OVC,M,M,M,1200.00,M,M,M,M,M,M,M,M,M,M,57.20,UMMM 150600Z 13003MPS 9999 OVC012 14/10 Q1018 RMK QFE743
UMMM,2018-05-15 07:00,27.5397,53.8645,234.00,57.20,50.00,76.82,150.00,7.78,0.00,30.06,M,6.21,M,BKN,BKN,M,M,1700.00,10000.00,M,M,M,M,M,M,M,M,M,57.20,UMMM 150700Z 15004MPS 9999 BKN017 BKN100 14/10 Q1018 RMK QFE743
UMMM,2018-05-15 08:00,27.5397,53.8645,234.00,59.00,50.00,72.01,200.00,7.78,0.00,30.06,M,6.21,M,BKN,BKN,M,M,2400.00,10000.00,M,M,M,M,M,M,M,M,M,59.00,UMMM 150800Z 20004MPS 9999 BKN024 BKN100 15/10 Q1018 RMK QFE743
UMMM,2018-05-15 09:00,27.5397,53.8645,234.00,60.80,46.40,59.01,160.00,7.78,0.00,30.06,M,6.21,M,BKN,M,M,M,2600.00,M,M,M,M,M,M,M,M,M,M,60.80,UMMM 150900Z 16004MPS 9999 BKN026 16/08 Q1018 RMK QFE743
UMMM,2018-05-15 10:00,27.5397,53.8645,234.00,62.60,46.40,55.37,210.00,7.78,0.00,30.06,M,6.21,M,BKN,M,M,M,3300.00,M,M,M,M,M,M,M,M,M,M,62.60,UMMM 151000Z 21004MPS 9999 BKN033CB 17/08 Q1018 RMK QFE743
UMMM,2018-05-15 11:00,27.5397,53.8645,234.00,62.60,48.20,59.26,170.00,7.78,0.00,30.06,M,6.21,M,BKN,M,M,M,4000.00,M,M,M,M,M,M,M,M,M,M,62.60,UMMM 151100Z 17004MPS 9999 BKN040CB 17/09 Q1018 RMK QFE743
UMMM,2018-05-15 12:00,27.5397,53.8645,234.00,60.80,48.20,63.15,130.00,3.89,0.00,30.06,M,6.21,M,BKN,M,M,M,4000.00,M,M,M,M,M,M,M,M,M,M,60.80,UMMM 151200Z 13002MPS 9999 BKN040CB 16/09 Q1018 RMK QFE743
UMMM,2018-05-15 14:00,27.5397,53.8645,234.00,66.20,48.20,52.25,160.00,5.83,0.00,30.06,M,6.21,M,BKN,M,M,M,4300.00,M,M,M,M,M,M,M,M,M,M,66.20,UMMM 151400Z 16003MPS 9999 BKN043 19/09 Q1018 RMK QFE743
UMMM,2018-05-16 05:30,27.5397,53.8645,234.00,59.00,50.00,72.01,90.00,5.83,0.00,29.97,M,6.21,M,BKN,BKN,M,M,4000.00,10000.00,M,M,M,M,M,M,M,M,M,59.00,UMMM 160530Z 09003MPS 9999 BKN040 BKN100 15/10 Q1015 RMK QFE741
UMMM,2018-05-16 06:00,27.5397,53.8645,234.00,60.80,51.80,72.20,110.00,5.83,0.00,29.97,M,6.21,M,BKN,BKN,M,M,3600.00,10000.00,M,M,M,M,M,M,M,M,M,60.80,UMMM 160600Z 11003MPS 9999 BKN036 BKN100 16/11 Q1015 RMK QFE741
UMMM,2018-05-16 07:00,27.5397,53.8645,234.00,59.00,51.80,76.98,110.00,7.78,0.00,29.97,M,6.21,M,OVC,M,M,M,3200.00,M,M,M,M,M,M,M,M,M,M,59.00,UMMM 160700Z 11004MPS 9999 OVC032 15/11 Q1015 RMK QFE741
UMMM,2018-05-16 08:00,27.5397,53.8645,234.00,59.00,51.80,76.98,100.00,7.78,0.00,29.97,M,6.21,M,BKN,OVC,M,M,2600.00,10000.00,M,M,M,M,M,M,M,M,M,59.00,UMMM 160800Z 10004MPS 9999 BKN026 OVC100 15/11 Q1015 RMK QFE741
UMMM,2018-05-16 09:00,27.5397,53.8645,234.00,62.60,51.80,67.75,110.00,7.78,0.00,29.97,M,6.21,M,SCT,BKN,M,M,1800.00,10000.00,M,M,M,M,M,M,M,M,M,62.60,UMMM 160900Z 11004MPS 9999 SCT018 BKN100 17/11 Q1015 RMK QFE741
UMMM,2018-05-16 10:00,27.5397,53.8645,234.00,64.40,51.80,63.60,110.00,7.78,0.00,29.94,M,6.21,M,BKN,OVC,M,M,2900.00,10000.00,M,M,M,M,M,M,M,M,M,64.40,UMMM 161000Z 11004MPS 9999 BKN029 OVC100 18/11 Q1014 RMK QFE741
UMMM,2018-05-16 11:00,27.5397,53.8645,234.00,66.20,55.40,68.15,90.00,9.72,0.00,29.94,M,6.21,M,BKN,BKN,M,M,2500.00,10000.00,M,M,M,M,M,M,M,M,M,66.20,UMMM 161100Z 09005MPS 9999 BKN025 BKN100 19/13 Q1014 RMK QFE740
UMMM,2018-05-16 12:00,27.5397,53.8645,234.00,66.20,53.60,63.82,90.00,7.78,0.00,29.94,M,6.21,M,BKN,OVC,M,M,4300.00,10000.00,M,M,M,M,M,M,M,M,M,66.20,UMMM 161200Z 09004MPS 9999 BKN043 OVC100 19/12 Q1014 RMK QFE740
UMMM,2018-05-16 13:00,27.5397,53.8645,234.00,68.00,53.60,59.97,100.00,7.78,0.00,29.91,M,6.21,M,SCT,BKN,M,M,4600.00,10000.00,M,M,M,M,M,M,M,M,M,68.00,UMMM 161300Z 10004MPS 9999 SCT046 BKN100 20/12 Q1013 RMK QFE740
UMMM,2018-05-16 14:00,27.5397,53.8645,234.00,69.80,55.40,60.21,90.00,7.78,0.00,29.91,M,6.21,M,BKN,BKN,M,M,3600.00,10000.00,M,M,M,M,M,M,M,M,M,69.80,UMMM 161400Z 09004MPS 9999 BKN036 BKN100 21/13 Q1013 RMK QFE740
UMMM,2018-05-17 05:30,27.5397,53.8645,234.00,60.80,53.60,77.14,190.00,7.78,0.00,29.80,M,6.21,M,FEW,SCT,M,M,1000.00,10000.00,M,M,M,M,M,M,M,M,M,60.80,UMMM 170530Z 19004MPS 9999 FEW010 SCT100 16/12 Q1009 NOSIG RMK QFE736
UMMM,2018-05-17 06:00,27.5397,53.8645,234.00,60.80,53.60,77.14,160.00,5.83,0.00,29.80,M,6.21,M,SCT,M,M,M,1300.00,M,M,M,M,M,M,M,M,M,M,60.80,UMMM 170600Z 16003MPS 9999 SCT013 16/12 Q1009 NOSIG RMK QFE736
UMMM,2018-05-17 06:30,27.5397,53.8645,234.00,60.80,53.60,77.14,190.00,7.78,0.00,29.80,M,6.21,M,OVC,M,M,M,1400.00,M,M,M,M,M,M,M,M,M,M,60.80,UMMM 170630Z 19004MPS 9999 OVC014 16/12 Q1009 R12/150050 NOSIG RMK QFE736
UMMM,2018-05-17 07:00,27.5397,53.8645,234.00,57.20,50.00,76.82,180.00,9.72,0.00,29.80,M,6.21,M,OVC,M,M,M,1000.00,M,M,M,M,M,M,M,M,M,M,57.20,UMMM 170700Z 18005MPS 9999 OVC010 14/10 Q1009 R12/150050 NOSIG RMK QFE737
UMMM,2018-05-17 09:00,27.5397,53.8645,234.00,57.20,51.80,82.12,180.00,9.72,0.00,29.83,M,6.21,M,OVC,M,M,M,1400.00,M,M,M,M,M,M,M,M,M,M,57.20,UMMM 170900Z 18005MPS 9999 OVC014 14/11 Q1010 RMK QFE737
UMMM,2018-05-17 10:00,27.5397,53.8645,234.00,60.80,53.60,77.14,170.00,9.72,0.00,29.85,M,6.21,M,OVC,M,M,M,2200.00,M,M,M,M,M,M,M,M,M,M,60.80,UMMM 171000Z 17005MPS 9999 OVC022 16/12 Q1011 RMK QFE738
UMMM,2018-05-17 11:00,27.5397,53.8645,234.00,62.60,50.00,63.38,170.00,7.78,0.00,29.85,M,6.21,M,BKN,BKN,M,M,2600.00,10000.00,M,M,M,M,M,M,M,M,M,62.60,UMMM 171100Z 17004MPS 9999 BKN026 BKN100 17/10 Q1011 RMK QFE738
UMMM,2018-05-17 12:00,27.5397,53.8645,234.00,64.40,51.80,63.60,160.00,9.72,0.00,29.85,M,6.21,M,BKN,M,M,M,4000.00,M,M,M,M,M,M,M,M,M,M,64.40,UMMM 171200Z 16005MPS 9999 BKN040 18/11 Q1011 RMK QFE738
UMMM,2018-05-17 13:00,27.5397,53.8645,234.00,66.20,48.20,52.25,170.00,7.78,0.00,29.83,M,6.21,M,BKN,M,M,M,4000.00,M,M,M,M,M,M,M,M,M,M,66.20,UMMM 171300Z 17004MPS 9999 BKN040 19/09 Q1010 RMK QFE737
UMMM,2018-05-17 14:00,27.5397,53.8645,234.00,66.20,48.20,52.25,180.00,5.83,0.00,29.83,M,6.21,M,SCT,M,M,M,4300.00,M,M,M,M,M,M,M,M,M,M,66.20,UMMM 171400Z 18003MPS 9999 SCT043 19/09 Q1010 RMK QFE737
UMMM,2018-05-18 05:30,27.5397,53.8645,234.00,59.00,51.80,76.98,90.00,1.94,0.00,29.77,M,6.21,M,M,M,M,M,M,M,M,M,M,M,M,M,M,M,M,59.00,UMMM 180530Z 09001MPS CAVOK 15/11 Q1008 NOSIG RMK QFE736
UMMM,2018-05-18 06:00,27.5397,53.8645,234.00,62.60,53.60,72.38,90.00,3.89,0.00,29.77,M,6.21,M,M,M,M,M,M,M,M,M,M,M,M,M,M,M,M,62.60,UMMM 180600Z 09002MPS CAVOK 17/12 Q1008 R12/150050 NOSIG RMK QFE736
UMMM,2018-05-18 06:30,27.5397,53.8645,234.00,62.60,53.60,72.38,90.00,3.89,0.00,29.77,M,6.21,M,M,M,M,M,M,M,M,M,M,M,M,M,M,M,M,62.60,UMMM 180630Z 09002MPS CAVOK 17/12 Q1008 R12/150050 NOSIG RMK QFE736
UMMM,2018-05-18 07:00,27.5397,53.8645,234.00,66.20,50.00,55.88,120.00,5.83,0.00,29.77,M,6.21,M,M,M,M,M,M,M,M,M,M,M,M,M,M,M,M,66.20,UMMM 180700Z 12003MPS CAVOK 19/10 Q1008 R12/150050 NOSIG RMK QFE736
UMMM,2018-05-18 08:00,27.5397,53.8645,234.00,66.20,50.00,55.88,130.00,7.78,0.00,29.77,M,6.21,M,FEW,BKN,M,M,3300.00,20000.00,M,M,M,M,M,M,M,M,M,66.20,UMMM 180800Z 13004MPS 9999 FEW033 BKN200 19/10 Q1008 R12/150050 NOSIG RMK QFE736
UMMM,2018-05-18 08:30,27.5397,53.8645,234.00,68.00,48.20,49.10,170.00,7.78,0.00,29.77,M,6.21,M,FEW,BKN,M,M,3300.00,20000.00,M,M,M,M,M,M,M,M,M,68.00,UMMM 180830Z 17004MPS 9999 FEW033 BKN200 20/09 Q1008 R12/150050 NOSIG RMK QFE736
UMMM,2018-05-18 09:00,27.5397,53.8645,234.00,69.80,50.00,49.37,170.00,7.78,0.00,29.77,M,6.21,M,FEW,BKN,M,M,3300.00,20000.00,M,M,M,M,M,M,M,M,M,69.80,UMMM 180900Z 17004MPS 9999 FEW033 BKN200 21/10 Q1008 R12/150050 NOSIG RMK QFE736
UMMM,2018-05-18 10:00,27.5397,53.8645,234.00,71.60,50.00,46.43,170.00,7.78,0.00,29.77,M,6.21,M,SCT,BKN,M,M,3300.00,20000.00,M,M,M,M,M,M,M,M,M,71.60,UMMM 181000Z 17004MPS 9999 SCT033 BKN200 22/10 Q1008 RMK QFE736
UMMM,2018-05-18 11:00,27.5397,53.8645,234.00,73.40,53.60,49.90,150.00,7.78,0.00,29.74,M,6.21,M,BKN,M,M,M,3300.00,M,M,M,M,M,M,M,M,M,M,73.40,UMMM 181100Z 15004MPS 9999 BKN033 23/12 Q1007 RMK QFE735
UMMM,2018-05-18 12:00,27.5397,53.8645,234.00,75.20,51.80,43.97,210.00,5.83,0.00,29.74,M,6.21,M,BKN,M,M,M,4000.00,M,M,M,M,M,M,M,M,M,M,75.20,UMMM 181200Z 21003MPS 9999 BKN040 24/11 Q1007 RMK QFE735
UMMM,2018-05-18 13:00,27.5397,53.8645,234.00,73.40,46.40,38.18,210.00,3.89,0.00,29.74,M,6.21,M,BKN,M,M,M,4000.00,M,M,M,M,M,M,M,M,M,M,72.23,UMMM 181300Z 21002MPS 9999 BKN040 23/08 Q1007 RMK QFE735
UMMM,2018-05-18 14:00,27.5397,53.8645,234.00,68.00,51.80,56.13,30.00,15.55,0.00,29.71,M,6.21,23.33,OVC,M,M,M,3300.00,M,M,M,M,M,M,M,M,M,M,68.00,UMMM 181400Z 03008G12MPS 9999 OVC033CB 20/11 Q1006 RMK QFE735
UMMM,2018-05-21 05:30,27.5397,53.8645,234.00,51.80,35.60,53.81,340.00,3.89,0.00,30.30,M,6.21,M,M,M,M,M,M,M,M,M,M,M,M,M,M,M,M,51.80,UMMM 210530Z 34002MPS CAVOK 11/02 Q1026 NOSIG RMK QFE750
UMMM,2018-05-21 06:00,27.5397,53.8645,234.00,55.40,37.40,50.64,20.00,7.78,0.00,30.30,M,6.21,M,M,M,M,M,M,M,M,M,M,M,M,M,M,M,M,55.40,UMMM 210600Z 02004MPS CAVOK 13/03 Q1026 R30/CLRD55 NOSIG RMK QFE750
UMMM,2018-05-21 06:30,27.5397,53.8645,234.00,55.40,37.40,50.64,20.00,9.72,0.00,30.33,M,6.21,M,M,M,M,M,M,M,M,M,M,M,M,M,M,M,M,55.40,UMMM 210630Z 02005MPS CAVOK 13/03 Q1027 R30/CLRD55 NOSIG RMK QFE750
UMMM,2018-05-21 07:00,27.5397,53.8645,234.00,59.00,37.40,44.47,50.00,11.66,0.00,30.30,M,6.21,17.49,M,M,M,M,M,M,M,M,M,M,M,M,M,M,M,59.00,UMMM 210700Z 05006G09MPS CAVOK 15/03 Q1026 R12/CLRD55 NOSIG RMK QFE749
UMMM,2018-05-21 07:30,27.5397,53.8645,234.00,59.00,37.40,44.47,50.00,9.72,0.00,30.30,M,6.21,15.55,M,M,M,M,M,M,M,M,M,M,M,M,M,M,M,59.00,UMMM 210730Z 05005G08MPS CAVOK 15/03 Q1026 R12/CLRD55 NOSIG RMK QFE749
UMMM,2018-05-21 08:00,27.5397,53.8645,234.00,60.80,35.60,38.85,40.00,11.66,0.00,30.30,M,6.21,17.49,M,M,M,M,M,M,M,M,M,M,M,M,M,M,M,60.80,UMMM 210800Z 04006G09MPS CAVOK 16/02 Q1026 R12/CLRD55 NOSIG RMK QFE749
UMMM,2018-05-21 08:30,27.5397,53.8645,234.00,60.80,35.60,38.85,40.00,13.61,0.00,30.30,M,6.21,19.44,FEW,BKN,M,M,4000.00,10000.00,M,M,M,M,M,M,M,M,M,60.80,UMMM 210830Z 04007G10MPS 9999 FEW040 BKN100 16/02 Q1026 R12/CLRD55 NOSIG RMK QFE749
UMMM,2018-05-21 09:00,27.5397,53.8645,234.00,64.40,37.40,36.74,30.00,13.61,0.00,30.27,M,6.21,19.44,FEW,BKN,M,M,4000.00,10000.00,M,M,M,M,M,M,M,M,M,64.40,UMMM 210900Z 03007G10MPS 9999 FEW040 BKN100 18/03 Q1025 R12/CLRD55 NOSIG RMK QFE749
UMMM,2018-05-21 09:30,27.5397,53.8645,234.00,64.40,37.40,36.74,30.00,11.66,0.00,30.27,M,6.21,17.49,FEW,BKN,M,M,3600.00,10000.00,M,M,M,M,M,M,M,M,M,64.40,UMMM 210930Z 03006G09MPS 9999 FEW036 BKN100 18/03 Q1025 R12/CLRD55 NOSIG RMK QFE749
UMMM,2018-05-21 10:00,27.5397,53.8645,234.00,66.20,35.60,32.14,50.00,9.72,0.00,30.27,M,6.21,15.55,SCT,BKN,M,M,3600.00,10000.00,M,M,M,M,M,M,M,M,M,66.20,UMMM 211000Z 05005G08MPS 9999 SCT036 BKN100 19/02 Q1025 R12/CLRD55 NOSIG RMK QFE748
UMMM,2018-05-21 10:30,27.5397,53.8645,234.00,66.20,35.60,32.14,60.00,11.66,0.00,30.27,M,6.21,17.49,BKN,BKN,M,M,3300.00,10000.00,M,M,M,M,M,M,M,M,M,66.20,UMMM 211030Z 06006G09MPS 9999 BKN033 BKN100 19/02 Q1025 R12/CLRD55 NOSIG RMK QFE749
UMMM,2018-05-21 11:00,27.5397,53.8645,234.00,66.20,37.40,34.51,80.00,11.66,0.00,30.27,M,6.21,17.49,SCT,OVC,M,M,4600.00,10000.00,M,M,M,M,M,M,M,M,M,66.20,UMMM 211100Z 08006G09MPS 9999 SCT046 OVC100 19/03 Q1025 R12/CLRD55 NOSIG RMK QFE748
UMMM,2018-05-21 11:30,27.5397,53.8645,234.00,66.20,37.40,34.51,70.00,9.72,0.00,30.27,M,6.21,15.55,SCT,BKN,M,M,4600.00,10000.00,M,M,M,M,M,M,M,M,M,66.20,UMMM 211130Z 07005G08MPS 9999 SCT046 BKN100 19/03 Q1025 R12/CLRD55 NOSIG RMK QFE748
UMMM,2018-05-21 12:00,27.5397,53.8645,234.00,66.20,39.20,37.03,30.00,9.72,0.00,30.27,M,6.21,15.55,FEW,BKN,M,M,4800.00,10000.00,M,M,M,M,M,M,M,M,M,66.20,UMMM 211200Z 03005G08MPS 9999 FEW048 BKN100 19/04 Q1025 R12/CLRD55 NOSIG RMK QFE748
UMMM,2018-05-21 12:30,27.5397,53.8645,234.00,66.20,39.20,37.03,30.00,9.72,0.00,30.24,M,6.21,15.55,FEW,BKN,M,M,4800.00,10000.00,M,M,M,M,M,M,M,M,M,66.20,UMMM 211230Z 03005G08MPS 9999 FEW048 BKN100 19/04 Q1024 R12/CLRD55 NOSIG RMK QFE748
UMMM,2018-05-21 13:00,27.5397,53.8645,234.00,68.00,37.40,32.43,50.00,9.72,0.00,30.24,M,6.21,15.55,M,M,M,M,M,M,M,M,M,M,M,M,M,M,M,68.00,UMMM 211300Z 05005G08MPS CAVOK 20/03 Q1024 R12/CLRD55 NOSIG RMK QFE748
UMMM,2018-05-21 13:30,27.5397,53.8645,234.00,68.00,37.40,32.43,30.00,9.72,0.00,30.24,M,6.21,15.55,M,M,M,M,M,M,M,M,M,M,M,M,M,M,M,68.00,UMMM 211330Z 03005G08MPS CAVOK 20/03 Q1024 R12/CLRD55 NOSIG RMK QFE748
UMMM,2018-05-21 14:00,27.5397,53.8645,234.00,66.20,37.40,34.51,60.00,9.72,0.00,30.24,M,6.21,M,M,M,M,M,M,M,M,M,M,M,M,M,M,M,M,66.20,UMMM 211400Z 06005MPS CAVOK 19/03 Q1024 R12/CLRD55 NOSIG RMK QFE748
UMMM,2018-05-21 14:30,27.5397,53.8645,234.00,66.20,37.40,34.51,60.00,9.72,0.00,30.24,M,6.21,15.55,M,M,M,M,M,M,M,M,M,M,M,M,M,M,M,66.20,UMMM 211430Z 06005G08MPS CAVOK 19/03 Q1024 R12/CLRD55 NOSIG RMK QFE747
UMMM,2018-05-22 05:30,27.5397,53.8645,234.00,57.20,48.20,71.83,290.00,3.89,0.00,30.18,M,6.21,M,SCT,OVC,M,M,2000.00,10000.00,M,M,M,M,M,M,M,M,M,57.20,UMMM 220530Z 29002MPS 9999 SCT020 OVC100 14/09 Q1022 RMK QFE747
UMMM,2018-05-22 06:00,27.5397,53.8645,234.00,57.20,50.00,76.82,260.00,3.89,0.00,30.18,M,6.21,M,SCT,OVC,M,M,2200.00,10000.00,M,M,M,M,M,M,M,M,M,57.20,UMMM 220600Z 26002MPS 9999 SCT022 OVC100 14/10 Q1022 RMK QFE747
UMMM,2018-05-22 07:00,27.5397,53.8645,234.00,57.20,50.00,76.82,320.00,3.89,0.00,30.18,M,6.21,M,BKN,OVC,M,M,2600.00,10000.00,M,M,M,M,M,M,M,M,M,57.20,UMMM 220700Z 32002MPS 9999 BKN026 OVC100 14/10 Q1022 RMK QFE747
UMMM,2018-05-22 08:00,27.5397,53.8645,234.00,59.00,50.00,72.01,0.00,0.00,0.00,30.18,M,6.21,M,OVC,M,M,M,4800.00,M,M,M,M,M,M,M,M,M,M,59.00,UMMM 220800Z 00000MPS 9999 OVC048 15/10 Q1022 RMK QFE747
UMMM,2018-05-22 09:00,27.5397,53.8645,234.00,60.80,50.00,67.54,240.00,1.94,0.00,30.18,M,6.21,M,BKN,OVC,M,M,2500.00,10000.00,M,M,M,M,M,M,M,M,M,60.80,UMMM 220900Z 24001MPS 9999 BKN025 OVC100 16/10 Q1022 RMK QFE747
UMMM,2018-05-22 10:00,27.5397,53.8645,234.00,60.80,50.00,67.54,220.00,3.89,0.00,30.18,M,6.21,M,BKN,OVC,M,M,3300.00,10000.00,M,M,M,M,M,M,M,M,M,60.80,UMMM 221000Z 22002MPS 9999 BKN033CB OVC100 16/10 Q1022 RMK QFE747
UMMM,2018-05-22 11:00,27.5397,53.8645,234.00,60.80,50.00,67.54,310.00,1.94,0.00,30.18,M,6.21,M,OVC,M,M,M,4000.00,M,M,M,M,M,M,M,M,M,M,60.80,UMMM 221100Z 31001MPS 9999 OVC040 16/10 Q1022 RMK QFE747
UMMM,2018-05-22 12:00,27.5397,53.8645,234.00,60.80,50.00,67.54,120.00,1.94,0.00,30.18,M,6.21,M,OVC,M,M,M,4600.00,M,M,M,M,M,M,M,M,M,M,60.80,UMMM 221200Z 12001MPS 9999 OVC046 16/10 Q1022 RMK QFE747
UMMM,2018-05-22 13:00,27.5397,53.8645,234.00,62.60,51.80,67.75,140.00,3.89,0.00,30.18,M,6.21,M,OVC,M,M,M,3600.00,M,M,M,M,M,M,M,M,M,M,62.60,UMMM 221300Z 14002MPS 9999 OVC036 17/11 Q1022 RMK QFE746
UMMM,2018-05-22 14:00,27.5397,53.8645,234.00,60.80,51.80,72.20,150.00,1.94,0.00,30.15,M,6.21,M,OVC,M,M,M,3600.00,M,M,M,M,M,M,M,M,M,M,60.80,UMMM 221400Z 15001MPS 9999 OVC036 16/11 Q1021 RMK QFE746
UMMM,2018-05-23 05:30,27.5397,53.8645,234.00,55.40,51.80,87.65,160.00,5.83,0.00,30.15,M,6.21,M,M,M,M,M,M,M,M,M,M,M,M,M,M,M,M,55.40,UMMM 230530Z 16003MPS CAVOK 13/11 Q1021 RMK QFE745
UMMM,2018-05-23 06:00,27.5397,53.8645,234.00,59.00,53.60,82.25,160.00,5.83,0.00,30.15,M,6.21,M,M,M,M,M,M,M,M,M,M,M,M,M,M,M,M,59.00,UMMM 230600Z 16003MPS CAVOK 15/12 Q1021 RMK QFE745
UMMM,2018-05-23 07:00,27.5397,53.8645,234.00,62.60,53.60,72.38,140.00,9.72,0.00,30.15,M,6.21,M,M,M,M,M,M,M,M,M,M,M,M,M,M,M,M,62.60,UMMM 230700Z 14005MPS CAVOK 17/12 Q1021 RMK QFE745
UMMM,2018-05-23 08:00,27.5397,53.8645,234.00,64.40,53.60,67.95,160.00,5.83,0.00,30.15,M,6.21,M,M,M,M,M,M,M,M,M,M,M,M,M,M,M,M,64.40,UMMM 230800Z 16003MPS CAVOK 18/12 Q1021 RMK QFE745
UMMM,2018-05-23 09:00,27.5397,53.8645,234.00,68.00,51.80,56.13,140.00,5.83,0.00,30.15,M,6.21,M,FEW,BKN,M,M,3300.00,20000.00,M,M,M,M,M,M,M,M,M,68.00,UMMM 230900Z 14003MPS 9999 FEW033 BKN200 20/11 Q1021 RMK QFE745
UMMM,2018-05-23 10:00,27.5397,53.8645,234.00,71.60,53.60,53.03,160.00,7.78,0.00,30.15,M,6.21,M,BKN,M,M,M,3300.00,M,M,M,M,M,M,M,M,M,M,71.60,UMMM 231000Z 16004MPS 9999 BKN033 22/12 Q1021 RMK QFE745
UMMM,2018-05-23 11:00,27.5397,53.8645,234.00,73.40,53.60,49.90,160.00,9.72,0.00,30.12,M,6.21,M,BKN,M,M,M,3300.00,M,M,M,M,M,M,M,M,M,M,73.40,UMMM 231100Z 16005MPS 9999 BKN033 23/12 Q1020 RMK QFE745
UMMM,2018-05-23 12:00,27.5397,53.8645,234.00,69.80,55.40,60.21,300.00,9.72,0.00,30.12,M,6.21,M,BKN,M,M,M,3600.00,M,M,M,M,M,M,M,M,M,M,69.80,UMMM 231200Z 30005MPS 9999 BKN036CB 21/13 Q1020 RMK QFE745
UMMM,2018-05-23 13:00,27.5397,53.8645,234.00,66.20,51.80,59.74,280.00,9.72,0.00,30.12,M,6.21,M,BKN,M,M,M,3600.00,M,M,M,M,M,M,M,M,M,M,66.20,UMMM 231300Z 28005MPS 9999 BKN036CB 19/11 Q1020 RMK QFE745
UMMM,2018-05-23 14:00,27.5397,53.8645,234.00,66.20,51.80,59.74,280.00,7.78,0.00,30.12,M,6.21,M,BKN,M,M,M,3600.00,M,M,M,M,M,M,M,M,M,M,66.20,UMMM 231400Z 28004MPS 9999 BKN036 19/11 Q1020 RMK QFE745
UMMM,2018-05-24 05:30,27.5397,53.8645,234.00,53.60,51.80,93.60,20.00,5.83,0.00,30.21,M,6.21,M,OVC,M,M,M,500.00,M,M,M,M,M,M,M,M,M,M,53.60,UMMM 240530Z 02003MPS 9999 OVC005 12/11 Q1023 RMK QFE747 QBB160
UMMM,2018-05-24 06:00,27.5397,53.8645,234.00,55.40,51.80,87.65,350.00,5.83,0.00,30.21,M,6.21,M,OVC,M,M,M,600.00,M,M,M,M,M,M,M,M,M,M,55.40,UMMM 240600Z 35003MPS 9999 OVC006 13/11 Q1023 RMK QFE747 QBB190
UMMM,2018-05-24 07:00,27.5397,53.8645,234.00,59.00,51.80,76.98,340.00,7.78,0.00,30.21,M,6.21,M,BKN,M,M,M,1000.00,M,M,M,M,M,M,M,M,M,M,59.00,UMMM 240700Z 34004MPS 9999 BKN010 15/11 Q1023 RMK QFE747
UMMM,2018-05-24 08:00,27.5397,53.8645,234.00,60.80,51.80,72.20,340.00,7.78,0.00,30.21,M,6.21,M,BKN,M,M,M,1500.00,M,M,M,M,M,M,M,M,M,M,60.80,UMMM 240800Z 34004MPS 9999 BKN015 16/11 Q1023 RMK QFE747
UMMM,2018-05-24 09:00,27.5397,53.8645,234.00,62.60,50.00,63.38,10.00,9.72,0.00,30.21,M,6.21,M,BKN,M,M,M,2000.00,M,M,M,M,M,M,M,M,M,M,62.60,UMMM 240900Z 01005MPS 9999 BKN020 17/10 Q1023 RMK QFE747
UMMM,2018-05-24 10:00,27.5397,53.8645,234.00,62.60,50.00,63.38,20.00,9.72,0.00,30.21,M,6.21,M,BKN,M,M,M,3300.00,M,M,M,M,M,M,M,M,M,M,62.60,UMMM 241000Z 02005MPS 9999 BKN033 17/10 Q1023 RMK QFE748
UMMM,2018-05-24 11:00,27.5397,53.8645,234.00,66.20,50.00,55.88,20.00,9.72,0.00,30.21,M,6.21,M,BKN,M,M,M,3300.00,M,M,M,M,M,M,M,M,M,M,66.20,UMMM 241100Z 02005MPS 9999 BKN033 19/10 Q1023 RMK QFE747
UMMM,2018-05-24 12:00,27.5397,53.8645,234.00,68.00,51.80,56.13,20.00,7.78,0.00,30.18,M,6.21,M,BKN,M,M,M,3300.00,M,M,M,M,M,M,M,M,M,M,68.00,UMMM 241200Z 02004MPS 9999 BKN033 20/11 Q1022 RMK QFE747
UMMM,2018-05-24 13:00,27.5397,53.8645,234.00,69.80,50.00,49.37,20.00,9.72,0.00,30.15,M,6.21,M,BKN,M,M,M,3600.00,M,M,M,M,M,M,M,M,M,M,69.80,UMMM 241300Z 02005MPS 9999 BKN036 21/10 Q1021 RMK QFE746
UMMM,2018-05-24 14:00,27.5397,53.8645,234.00,62.60,51.80,67.75,340.00,9.72,0.00,30.18,M,6.21,M,OVC,M,M,M,2600.00,M,M,M,-SHRA,M,M,M,M,M,M,62.60,UMMM 241400Z 34005MPS 9999 -SHRA OVC026CB 17/11 Q1022 RMK QFE747
UMMM,2018-05-25 05:30,27.5397,53.8645,234.00,62.60,53.60,72.38,70.00,5.83,0.00,30.21,M,6.21,M,FEW,BKN,M,M,4000.00,10000.00,M,M,M,M,M,M,M,M,M,62.60,UMMM 250530Z 07003MPS 9999 FEW040 BKN100 17/12 Q1023 RMK QFE747
UMMM,2018-05-25 06:00,27.5397,53.8645,234.00,64.40,53.60,67.95,60.00,5.83,0.00,30.21,M,6.21,M,FEW,BKN,M,M,4000.00,10000.00,M,M,M,M,M,M,M,M,M,64.40,UMMM 250600Z 06003MPS 9999 FEW040 BKN100 18/12 Q1023 RMK QFE747
UMMM,2018-05-25 07:00,27.5397,53.8645,234.00,64.40,55.40,72.56,70.00,7.78,0.00,30.21,M,6.21,M,M,M,M,M,M,M,M,M,M,M,M,M,M,M,M,64.40,UMMM 250700Z 07004MPS CAVOK 18/13 Q1023 RMK QFE747
UMMM,2018-05-25 08:00,27.5397,53.8645,234.00,71.60,57.20,60.44,60.00,5.83,0.00,30.21,M,6.21,M,M,M,M,M,M,M,M,M,M,M,M,M,M,M,M,71.60,UMMM 250800Z 06003MPS CAVOK 22/14 Q1023 RMK QFE747
UMMM,2018-05-25 09:00,27.5397,53.8645,234.00,73.40,55.40,53.29,100.00,9.72,0.00,30.24,M,6.21,M,BKN,BKN,M,M,4000.00,10000.00,M,M,M,M,M,M,M,M,M,73.40,UMMM 250900Z 10005MPS 9999 BKN040 BKN100 23/13 Q1024 RMK QFE747
UMMM,2018-05-25 10:00,27.5397,53.8645,234.00,73.40,55.40,53.29,90.00,9.72,0.00,30.24,M,6.21,15.55,BKN,BKN,M,M,4500.00,10000.00,M,M,M,M,M,M,M,M,M,73.40,UMMM 251000Z 09005G08MPS 9999 BKN045 BKN100 23/13 Q1024 RMK QFE747
UMMM,2018-05-25 11:00,27.5397,53.8645,234.00,77.00,55.40,47.25,60.00,11.66,0.00,30.24,M,6.21,17.49,SCT,BKN,M,M,4600.00,10000.00,M,M,M,M,M,M,M,M,M,77.00,UMMM 251100Z 06006G09MPS 9999 SCT046 BKN100 25/13 Q1024 RMK QFE747
UMMM,2018-05-25 12:00,27.5397,53.8645,234.00,75.20,53.60,46.98,60.00,11.66,0.00,30.24,M,6.21,17.49,BKN,BKN,M,M,4800.00,10000.00,M,M,M,M,M,M,M,M,M,75.20,UMMM 251200Z 06006G09MPS 9999 BKN048 BKN100 24/12 Q1024 RMK QFE747
UMMM,2018-05-25 13:00,27.5397,53.8645,234.00,78.80,51.80,39.02,50.00,9.72,0.00,30.24,M,6.21,M,SCT,BKN,M,M,4900.00,10000.00,M,M,M,M,M,M,M,M,M,78.80,UMMM 251300Z 05005MPS 9999 SCT049 BKN100 26/11 Q1024 RMK QFE747
UMMM,2018-05-25 14:00,27.5397,53.8645,234.00,77.00,50.00,38.74,70.00,9.72,0.00,30.24,M,6.21,M,SCT,BKN,M,M,4300.00,10000.00,M,M,M,M,M,M,M,M,M,77.00,UMMM 251400Z 07005MPS 9999 SCT043 BKN100 25/10 Q1024 RMK QFE747
UMMM,2018-05-28 05:30,27.5397,53.8645,234.00,68.00,50.00,52.51,10.00,3.89,0.00,30.33,M,6.21,M,M,M,M,M,M,M,M,M,M,M,M,M,M,M,M,68.00,UMMM 280530Z 01002MPS CAVOK 20/10 Q1027 RMK QFE750
UMMM,2018-05-28 06:00,27.5397,53.8645,234.00,69.80,50.00,49.37,10.00,3.89,0.00,30.33,M,6.21,M,M,M,M,M,M,M,M,M,M,M,M,M,M,M,M,69.80,UMMM 280600Z 01002MPS CAVOK 21/10 Q1027 RMK QFE750
UMMM,2018-05-28 07:00,27.5397,53.8645,234.00,75.20,50.00,41.14,50.00,7.78,0.00,30.36,M,6.21,M,M,M,M,M,M,M,M,M,M,M,M,M,M,M,M,75.20,UMMM 280700Z 05004MPS CAVOK 24/10 Q1028 RMK QFE751
UMMM,2018-05-28 08:00,27.5397,53.8645,234.00,77.00,48.20,36.22,50.00,7.78,0.00,30.33,M,6.21,M,M,M,M,M,M,M,M,M,M,M,M,M,M,M,M,77.00,UMMM 280800Z 05004MPS CAVOK 25/09 Q1027 RMK QFE751
UMMM,2018-05-28 09:00,27.5397,53.8645,234.00,78.80,48.20,34.13,90.00,5.83,0.00,30.33,M,6.21,M,M,M,M,M,M,M,M,M,M,M,M,M,M,M,M,78.80,UMMM 280900Z 09003MPS CAVOK 26/09 Q1027 RMK QFE751
UMMM,2018-05-28 10:00,27.5397,53.8645,234.00,78.80,50.00,36.51,100.00,5.83,0.00,30.33,M,6.21,M,SCT,M,M,M,3300.00,M,M,M,M,M,M,M,M,M,M,78.80,UMMM 281000Z 10003MPS 9999 SCT033 26/10 Q1027 RMK QFE751
UMMM,2018-05-28 11:00,27.5397,53.8645,234.00,78.80,51.80,39.02,70.00,5.83,0.00,30.33,M,6.21,M,SCT,M,M,M,3300.00,M,M,M,M,M,M,M,M,M,M,78.80,UMMM 281100Z 07003MPS 9999 SCT033 26/11 Q1027 RMK QFE750
UMMM,2018-05-28 12:00,27.5397,53.8645,234.00,80.60,50.00,34.41,40.00,5.83,0.00,30.33,M,6.21,M,SCT,M,M,M,3300.00,M,M,M,M,M,M,M,M,M,M,80.60,UMMM 281200Z 04003MPS 9999 SCT033 27/10 Q1027 RMK QFE750
UMMM,2018-05-28 13:00,27.5397,53.8645,234.00,80.60,50.00,34.41,50.00,7.78,0.00,30.33,M,6.21,M,SCT,M,M,M,3300.00,M,M,M,M,M,M,M,M,M,M,80.60,UMMM 281300Z 05004MPS 9999 SCT033 27/10 Q1027 RMK QFE749
UMMM,2018-05-28 14:00,27.5397,53.8645,234.00,80.60,50.00,34.41,70.00,3.89,0.00,30.30,M,6.21,M,SCT,M,M,M,3300.00,M,M,M,M,M,M,M,M,M,M,80.60,UMMM 281400Z 07002MPS 9999 SCT033 27/10 Q1026 RMK QFE749
UMMM,2018-05-29 05:30,27.5397,53.8645,234.00,64.40,55.40,72.56,100.00,3.89,0.00,30.36,M,6.21,M,M,M,M,M,M,M,M,M,M,M,M,M,M,M,M,64.40,UMMM 290530Z 10002MPS CAVOK 18/13 Q1028 RMK QFE751
UMMM,2018-05-29 06:00,27.5397,53.8645,234.00,66.20,55.40,68.15,100.00,3.89,0.00,30.36,M,6.21,M,M,M,M,M,M,M,M,M,M,M,M,M,M,M,M,66.20,UMMM 290600Z 10002MPS CAVOK 19/13 Q1028 RMK QFE751
UMMM,2018-05-29 07:00,27.5397,53.8645,234.00,69.80,57.20,64.26,120.00,3.89,0.00,30.36,M,6.21,M,M,M,M,M,M,M,M,M,M,M,M,M,M,M,M,69.80,UMMM 290700Z 12002MPS CAVOK 21/14 Q1028 RMK QFE750
UMMM,2018-05-29 08:00,27.5397,53.8645,234.00,73.40,55.40,53.29,130.00,3.89,0.00,30.36,M,6.21,M,M,M,M,M,M,M,M,M,M,M,M,M,M,M,M,73.40,UMMM 290800Z 13002MPS CAVOK 23/13 Q1028 RMK QFE750
UMMM,2018-05-29 09:00,27.5397,53.8645,234.00,78.80,55.40,44.52,140.00,1.94,0.00,30.36,M,6.21,M,M,M,M,M,M,M,M,M,M,M,M,M,M,M,M,78.80,UMMM 290900Z 14001MPS CAVOK 26/13 Q1028 RMK QFE750
UMMM,2018-05-29 10:00,27.5397,53.8645,234.00,78.80,53.60,41.69,210.00,1.94,0.00,30.33,M,6.21,M,M,M,M,M,M,M,M,M,M,M,M,M,M,M,M,78.80,UMMM 291000Z 21001MPS CAVOK 26/12 Q1027 RMK QFE750
UMMM,2018-05-29 11:00,27.5397,53.8645,234.00,80.60,50.00,34.41,210.00,5.83,0.00,30.30,M,6.21,M,SCT,BKN,M,M,3300.00,20000.00,M,M,M,M,M,M,M,M,M,80.60,UMMM 291100Z 21003MPS 9999 SCT033 BKN200 27/10 Q1026 RMK QFE750
UMMM,2018-05-29 12:00,27.5397,53.8645,234.00,82.40,53.60,37.07,170.00,5.83,0.00,30.30,M,6.21,M,SCT,BKN,M,M,3300.00,20000.00,M,M,M,M,M,M,M,M,M,82.40,UMMM 291200Z 17003MPS 9999 SCT033 BKN200 28/12 Q1026 RMK QFE749
UMMM,2018-05-29 13:00,27.5397,53.8645,234.00,80.60,55.40,41.97,200.00,3.89,0.00,30.27,M,6.21,M,SCT,BKN,M,M,3300.00,10000.00,M,M,M,M,M,M,M,M,M,80.53,UMMM 291300Z 20002MPS 9999 SCT033 BKN100 27/13 Q1025 RMK QFE748
UMMM,2018-05-29 14:00,27.5397,53.8645,234.00,80.60,55.40,41.97,180.00,3.89,0.00,30.27,M,6.21,M,FEW,BKN,M,M,3300.00,10000.00,M,M,M,M,M,M,M,M,M,80.53,UMMM 291400Z 18002MPS 9999 FEW033 BKN100 27/13 Q1025 RMK QFE748
UMMM,2018-05-30 05:30,27.5397,53.8645,234.00,73.40,55.40,53.29,290.00,3.89,0.00,30.15,M,6.21,M,M,M,M,M,M,M,M,M,M,M,M,M,M,M,M,73.40,UMMM 300530Z 29002MPS CAVOK 23/13 Q1021 RMK QFE746
UMMM,2018-05-30 06:00,27.5397,53.8645,234.00,73.40,55.40,53.29,290.00,3.89,0.00,30.15,M,6.21,M,M,M,M,M,M,M,M,M,M,M,M,M,M,M,M,73.40,UMMM 300600Z 29002MPS CAVOK 23/13 Q1021 RMK QFE746
UMMM,2018-05-30 07:00,27.5397,53.8645,234.00,78.80,55.40,44.52,300.00,5.83,0.00,30.15,M,6.21,M,M,M,M,M,M,M,M,M,M,M,M,M,M,M,M,78.80,UMMM 300700Z 30003MPS CAVOK 26/13 Q1021 RMK QFE746
UMMM,2018-05-30 08:00,27.5397,53.8645,234.00,78.80,53.60,41.69,310.00,3.89,0.00,30.12,M,6.21,M,M,M,M,M,M,M,M,M,M,M,M,M,M,M,M,78.80,UMMM 300800Z 31002MPS CAVOK 26/12 Q1020 RMK QFE746
UMMM,2018-05-30 09:00,27.5397,53.8645,234.00,80.60,53.60,39.30,340.00,5.83,0.00,30.12,M,6.21,M,FEW,M,M,M,4000.00,M,M,M,M,M,M,M,M,M,M,80.60,UMMM 300900Z 34003MPS 9999 FEW040 27/12 Q1020 RMK QFE746
UMMM,2018-05-30 10:00,27.5397,53.8645,234.00,84.20,50.00,30.62,250.00,5.83,0.00,30.12,M,6.21,M,BKN,M,M,M,3300.00,M,M,M,M,M,M,M,M,M,M,82.24,UMMM 301000Z 25003MPS 9999 BKN033 29/10 Q1020 RMK QFE746
UMMM,2018-05-30 11:00,27.5397,53.8645,234.00,84.20,50.00,30.62,300.00,7.78,0.00,30.12,M,6.21,M,BKN,M,M,M,3100.00,M,M,M,M,M,M,M,M,M,M,82.24,UMMM 301100Z 30004MPS 9999 BKN031 29/10 Q1020 RMK QFE745
UMMM,2018-05-30 12:00,27.5397,53.8645,234.00,86.00,50.00,28.90,310.00,7.78,0.00,30.09,M,6.21,M,SCT,M,M,M,3300.00,M,M,M,M,M,M,M,M,M,M,83.62,UMMM 301200Z 31004MPS 9999 SCT033 30/10 Q1019 RMK QFE745
UMMM,2018-05-30 13:00,27.5397,53.8645,234.00,84.20,53.60,34.97,300.00,9.72,0.00,30.09,M,6.21,15.55,BKN,M,M,M,4300.00,M,M,M,M,M,M,M,M,M,M,82.76,UMMM 301300Z 30005G08MPS 9999 BKN043 29/12 Q1019 RMK QFE744
UMMM,2018-05-30 14:00,27.5397,53.8645,234.00,84.20,51.80,32.73,320.00,9.72,0.00,30.09,M,6.21,M,SCT,M,M,M,4600.00,M,M,M,M,M,M,M,M,M,M,82.48,UMMM 301400Z 32005MPS 9999 SCT046 29/11 Q1019 RMK QFE744
UMMM,2018-05-31 05:30,27.5397,53.8645,234.00,66.20,51.80,59.74,20.00,3.89,0.00,30.06,M,6.21,M,M,M,M,M,M,M,M,M,M,M,M,M,M,M,M,66.20,UMMM 310530Z 02002MPS CAVOK 19/11 Q1018 RMK QFE744
UMMM,2018-05-31 06:00,27.5397,53.8645,234.00,66.20,51.80,59.74,20.00,7.78,0.00,30.06,M,6.21,M,M,M,M,M,M,M,M,M,M,M,M,M,M,M,M,66.20,UMMM 310600Z 02004MPS CAVOK 19/11 Q1018 RMK QFE744
UMMM,2018-05-31 07:00,27.5397,53.8645,234.00,68.00,46.40,45.88,330.00,9.72,0.00,30.06,M,6.21,M,M,M,M,M,M,M,M,M,M,M,M,M,M,M,M,68.00,UMMM 310700Z 33005MPS CAVOK 20/08 Q1018 RMK QFE744
UMMM,2018-05-31 08:00,27.5397,53.8645,234.00,71.60,44.60,37.89,340.00,9.72,0.00,30.06,M,6.21,M,M,M,M,M,M,M,M,M,M,M,M,M,M,M,M,70.24,UMMM 310800Z 34005MPS CAVOK 22/07 Q1018 RMK QFE744
UMMM,2018-05-31 09:00,27.5397,53.8645,234.00,71.60,44.60,37.89,350.00,9.72,0.00,30.06,M,6.21,M,M,M,M,M,M,M,M,M,M,M,M,M,M,M,M,70.24,UMMM 310900Z 35005MPS CAVOK 22/07 Q1018 RMK QFE744
UMMM,2018-05-31 10:00,27.5397,53.8645,234.00,71.60,44.60,37.89,30.00,11.66,0.00,30.09,M,6.21,17.49,M,M,M,M,M,M,M,M,M,M,M,M,M,M,M,70.24,UMMM 311000Z 03006G09MPS CAVOK 22/07 Q1019 RMK QFE744
UMMM,2018-05-31 11:00,27.5397,53.8645,234.00,73.40,46.40,38.18,20.00,11.66,0.00,30.09,M,6.21,17.49,M,M,M,M,M,M,M,M,M,M,M,M,M,M,M,72.23,UMMM 311100Z 02006G09MPS CAVOK 23/08 Q1019 RMK QFE744
UMMM,2018-05-31 12:00,27.5397,53.8645,234.00,73.40,46.40,38.18,10.00,9.72,0.00,30.09,M,6.21,15.55,FEW,SCT,M,M,4600.00,20000.00,M,M,M,M,M,M,M,M,M,72.23,UMMM 311200Z 01005G08MPS 9999 FEW046 SCT200 23/08 Q1019 RMK QFE744
UMMM,2018-05-31 13:00,27.5397,53.8645,234.00,73.40,44.60,35.66,30.00,9.72,0.00,30.09,M,6.21,15.55,SCT,BKN,M,M,3600.00,20000.00,M,M,M,M,M,M,M,M,M,72.12,UMMM 311300Z 03005G08MPS 9999 SCT036 BKN200 23/07 Q1019 RMK QFE744
UMMM,2018-05-31 14:00,27.5397,53.8645,234.00,71.60,42.80,35.37,340.00,7.78,0.00,30.06,M,6.21,M,SCT,BKN,M,M,4600.00,20000.00,M,M,M,M,M,M,M,M,M,70.12,UMMM 311400Z 34004MPS 9999 SCT046 BKN200 22/06 Q1018 RMK QFE744
UMMM,2018-06-01 05:30,27.5397,53.8645,234.00,55.40,78.80,M,100.00,3.89,0.00,30.24,M,6.21,M,M,M,M,M,M,M,M,M,M,M,M,M,M,M,M,M,UMMM 010530Z 10002MPS CAVOK 13/026 Q1024 RMK QFE747
UMMM,2018-06-01 06:00,27.5397,53.8645,234.00,57.20,35.60,44.19,120.00,1.94,0.00,30.24,M,6.21,M,M,M,M,M,M,M,M,M,M,M,M,M,M,M,M,57.20,UMMM 010600Z 12001MPS CAVOK 14/02 Q1024 RMK QFE747
UMMM,2018-06-01 07:00,27.5397,53.8645,234.00,60.80,32.00,33.64,0.00,0.00,0.00,30.24,M,6.21,M,M,M,M,M,M,M,M,M,M,M,M,M,M,M,M,60.80,UMMM 010700Z 00000MPS CAVOK 16/00 Q1024 RMK QFE747
UMMM,2018-06-01 08:00,27.5397,53.8645,234.00,62.60,33.80,33.93,160.00,3.89,0.00,30.24,M,6.21,M,M,M,M,M,M,M,M,M,M,M,M,M,M,M,M,62.60,UMMM 010800Z 16002MPS CAVOK 17/01 Q1024 RMK QFE747
UMMM,2018-06-01 09:00,27.5397,53.8645,234.00,64.40,33.80,31.85,140.00,3.89,0.00,30.21,M,6.21,M,M,M,M,M,M,M,M,M,M,M,M,M,M,M,M,64.40,UMMM 010900Z 14002MPS CAVOK 18/01 Q1023 RMK QFE747
UMMM,2018-06-01 10:00,27.5397,53.8645,234.00,66.20,33.80,29.92,140.00,3.89,0.00,30.21,M,6.21,M,M,M,M,M,M,M,M,M,M,M,M,M,M,M,M,66.20,UMMM 011000Z 14002MPS CAVOK 19/01 Q1023 RMK QFE747
UMMM,2018-06-01 12:00,27.5397,53.8645,234.00,69.80,32.00,24.59,160.00,3.89,0.00,30.18,M,6.21,M,M,M,M,M,M,M,M,M,M,M,M,M,M,M,M,69.80,UMMM 011200Z 16002MPS CAVOK 21/00 Q1022 RMK QFE746
UMMM,2018-06-01 13:00,27.5397,53.8645,234.00,69.80,32.00,24.59,140.00,3.89,0.00,30.15,M,6.21,M,M,M,M,M,M,M,M,M,M,M,M,M,M,M,M,69.80,UMMM 011300Z 14002MPS CAVOK 21/M00 Q1021 RMK QFE746
UMMM,2018-06-01 14:00,27.5397,53.8645,234.00,71.60,30.20,21.50,120.00,3.89,0.00,30.15,M,6.21,M,M,M,M,M,M,M,M,M,M,M,M,M,M,M,M,69.47,UMMM 011400Z 12002MPS CAVOK 22/M01 Q1021 RMK QFE745
UMMM,2018-06-04 05:30,27.5397,53.8645,234.00,68.00,51.80,56.13,220.00,3.89,0.00,29.77,M,6.21,M,M,M,M,M,M,M,M,M,M,M,M,M,M,M,M,68.00,UMMM 040530Z 22002MPS CAVOK 20/11 Q1008 RMK QFE737
UMMM,2018-06-04 06:00,27.5397,53.8645,234.00,69.80,51.80,52.77,240.00,3.89,0.00,29.77,M,6.21,M,M,M,M,M,M,M,M,M,M,M,M,M,M,M,M,69.80,UMMM 040600Z 24002MPS CAVOK 21/11 Q1008 RMK QFE737
UMMM,2018-06-04 07:00,27.5397,53.8645,234.00,73.40,51.80,46.71,240.00,5.83,0.00,29.77,M,6.21,M,M,M,M,M,M,M,M,M,M,M,M,M,M,M,M,73.40,UMMM 040700Z 24003MPS CAVOK 23/11 Q1008 RMK QFE737
UMMM,2018-06-04 09:00,27.5397,53.8645,234.00,78.80,48.20,34.13,240.00,9.72,0.00,29.74,M,6.21,M,M,M,M,M,M,M,M,M,M,M,M,M,M,M,M,78.80,UMMM 040900Z 24005MPS CAVOK 26/09 Q1007 RMK QFE736
UMMM,2018-06-04 10:00,27.5397,53.8645,234.00,80.60,46.40,30.07,240.00,9.72,0.00,29.74,M,6.21,15.55,M,M,M,M,M,M,M,M,M,M,M,M,M,M,M,79.56,UMMM 041000Z 24005G08MPS CAVOK 27/08 Q1007 RMK QFE736
UMMM,2018-06-04 11:00,27.5397,53.8645,234.00,80.60,46.40,30.07,260.00,11.66,0.00,29.71,M,6.21,17.49,SCT,BKN,M,M,3300.00,20000.00,M,M,M,M,M,M,M,M,M,79.56,UMMM 041100Z 26006G09MPS 9999 SCT033 BKN200 27/08 Q1006 RMK QFE736
UMMM,2018-06-04 12:00,27.5397,53.8645,234.00,82.40,44.60,26.49,250.00,11.66,0.00,29.68,M,6.21,17.49,BKN,BKN,M,M,3300.00,20000.00,M,M,M,M,M,M,M,M,M,80.50,UMMM 041200Z 25006G09MPS 9999 BKN033 BKN200 28/07 Q1005 RMK QFE734
UMMM,2018-06-04 13:00,27.5397,53.8645,234.00,84.20,50.00,30.62,280.00,13.61,0.00,29.65,M,6.21,19.44,BKN,BKN,M,M,3700.00,20000.00,M,M,M,M,M,M,M,M,M,82.24,UMMM 041300Z 28007G10MPS 9999 BKN037 BKN200 29/10 Q1004 RMK QFE734
UMMM,2018-06-04 14:00,27.5397,53.8645,234.00,82.40,50.00,32.46,250.00,11.66,0.00,29.62,M,6.21,17.49,BKN,M,M,M,3700.00,M,M,M,M,M,M,M,M,M,M,80.99,UMMM 041400Z 25006G09MPS 9999 BKN037CB 28/10 Q1003 RMK QFE733
UMMM,2018-06-05 05:30,27.5397,53.8645,234.00,55.40,28.40,35.28,10.00,11.66,0.00,29.68,M,6.21,21.38,M,M,M,M,M,M,M,M,M,M,M,M,M,M,M,55.40,UMMM 050530Z 01006G11MPS CAVOK 13/M02 Q1005 RMK QFE735
UMMM,2018-06-05 06:00,27.5397,53.8645,234.00,57.20,30.20,35.57,350.00,13.61,0.00,29.68,M,6.21,19.44,M,M,M,M,M,M,M,M,M,M,M,M,M,M,M,57.20,UMMM 050600Z 35007G10MPS CAVOK 14/M01 Q1005 RMK QFE735
UMMM,2018-06-05 07:00,27.5397,53.8645,234.00,57.20,28.40,33.05,330.00,15.55,0.00,29.68,M,6.21,21.38,M,M,M,M,M,M,M,M,M,M,M,M,M,M,M,57.20,UMMM 050700Z 33008G11MPS CAVOK 14/M02 Q1005 RMK QFE735
UMMM,2018-06-05 08:00,27.5397,53.8645,234.00,59.00,32.00,35.87,320.00,11.66,0.00,29.68,M,6.21,21.38,M,M,M,M,M,M,M,M,M,M,M,M,M,M,M,59.00,UMMM 050800Z 32006G11MPS CAVOK 15/M00 Q1005 RMK QFE734
UMMM,2018-06-05 09:00,27.5397,53.8645,234.00,60.80,28.40,29.06,320.00,13.61,0.00,29.68,M,6.21,23.33,M,M,M,M,M,M,M,M,M,M,M,M,M,M,M,60.80,UMMM 050900Z 32007G12MPS CAVOK 16/M02 Q1005 RMK QFE735
UMMM,2018-06-05 10:00,27.5397,53.8645,234.00,60.80,30.20,31.28,320.00,17.49,0.00,29.71,M,6.21,27.21,M,M,M,M,M,M,M,M,M,M,M,M,M,M,M,60.80,UMMM 051000Z 32009G14MPS CAVOK 16/M01 Q1006 RMK QFE735
UMMM,2018-06-05 11:00,27.5397,53.8645,234.00,60.80,28.40,29.06,300.00,15.55,0.00,29.71,M,6.21,25.27,M,M,M,M,M,M,M,M,M,M,M,M,M,M,M,60.80,UMMM 051100Z 30008G13MPS CAVOK 16/M02 Q1006 RMK QFE735
UMMM,2018-06-05 12:00,27.5397,53.8645,234.00,62.60,30.20,29.35,310.00,13.61,0.00,29.71,M,6.21,23.33,BKN,BKN,M,M,4000.00,10000.00,M,M,M,M,M,M,M,M,M,62.60,UMMM 051200Z 31007G12MPS 9999 BKN040 BKN100 17/M01 Q1006 RMK QFE735
UMMM,2018-06-05 13:00,27.5397,53.8645,234.00,62.60,32.00,31.56,310.00,13.61,0.00,29.71,M,6.21,23.33,BKN,BKN,M,M,4600.00,20000.00,M,M,M,M,M,M,M,M,M,62.60,UMMM 051300Z 31007G12MPS 9999 BKN046 BKN200 17/M00 Q1006 RMK QFE735
UMMM,2018-06-05 14:00,27.5397,53.8645,234.00,60.80,30.20,31.28,290.00,15.55,0.00,29.71,M,6.21,25.27,BKN,M,M,M,4800.00,M,M,M,M,M,M,M,M,M,M,60.80,UMMM 051400Z 29008G13MPS 9999 BKN048 16/M01 Q1006 RMK QFE735
UMMM,2018-06-06 05:30,27.5397,53.8645,234.00,46.40,33.80,61.28,300.00,7.78,0.00,29.97,M,6.21,M,M,M,M,M,M,M,M,M,M,M,M,M,M,M,M,41.95,UMMM 060530Z 30004MPS CAVOK 08/01 Q1015 RMK QFE742
UMMM,2018-06-06 06:00,27.5397,53.8645,234.00,50.00,35.60,57.52,300.00,9.72,0.00,29.97,M,6.21,15.55,SCT,M,M,M,3300.00,M,M,M,M,M,M,M,M,M,M,45.64,UMMM 060600Z 30005G08MPS 9999 SCT033 10/02 Q1015 RMK QFE742
UMMM,2018-06-06 07:00,27.5397,53.8645,234.00,51.80,35.60,53.81,320.00,11.66,0.00,30.00,M,6.21,17.49,BKN,M,M,M,3200.00,M,M,M,M,M,M,M,M,M,M,51.80,UMMM 060700Z 32006G09MPS 9999 BKN032 11/02 Q1016 RMK QFE743
UMMM,2018-06-06 08:00,27.5397,53.8645,234.00,53.60,37.40,54.07,320.00,11.66,0.00,30.03,M,6.21,17.49,BKN,M,M,M,4000.00,M,M,M,M,M,M,M,M,M,M,53.60,UMMM 060800Z 32006G09MPS 9999 BKN040 12/03 Q1017 RMK QFE743
UMMM,2018-06-06 09:00,27.5397,53.8645,234.00,53.60,33.80,46.88,340.00,11.66,0.00,30.06,M,6.21,17.49,BKN,M,M,M,4000.00,M,M,M,M,M,M,M,M,M,M,53.60,UMMM 060900Z 34006G09MPS 9999 BKN040 12/01 Q1018 RMK QFE744
UMMM,2018-06-06 10:00,27.5397,53.8645,234.00,53.60,33.80,46.88,320.00,9.72,0.00,30.09,M,6.21,M,BKN,M,M,M,4600.00,M,M,M,M,M,M,M,M,M,M,53.60,UMMM 061000Z 32005MPS 9999 BKN046 12/01 Q1019 RMK QFE744
UMMM,2018-06-06 11:00,27.5397,53.8645,234.00,55.40,32.00,40.84,290.00,9.72,0.00,30.09,M,6.21,15.55,BKN,M,M,M,4600.00,M,M,M,M,M,M,M,M,M,M,55.40,UMMM 061100Z 29005G08MPS 9999 BKN046 13/00 Q1019 RMK QFE744
UMMM,2018-06-06 12:00,27.5397,53.8645,234.00,57.20,33.80,41.13,290.00,9.72,0.00,30.09,M,6.21,15.55,BKN,BKN,M,M,4600.00,10000.00,M,M,M,M,M,M,M,M,M,57.20,UMMM 061200Z 29005G08MPS 9999 BKN046 BKN100 14/01 Q1019 RMK QFE744
UMMM,2018-06-06 13:00,27.5397,53.8645,234.00,59.00,32.00,35.87,300.00,11.66,0.00,30.09,M,6.21,17.49,SCT,BKN,M,M,4600.00,10000.00,M,M,M,M,M,M,M,M,M,59.00,UMMM 061300Z 30006G09MPS 9999 SCT046 BKN100 15/M00 Q1019 RMK QFE745
UMMM,2018-06-06 14:00,27.5397,53.8645,234.00,57.20,32.00,38.26,310.00,9.72,0.00,30.09,M,6.21,15.55,SCT,BKN,M,M,4600.00,10000.00,M,M,M,M,M,M,M,M,M,57.20,UMMM 061400Z 31005G08MPS 9999 SCT046 BKN100 14/00 Q1019 RMK QFE745
UMMM,2018-06-07 05:30,27.5397,53.8645,234.00,53.60,39.20,58.02,340.00,7.78,0.00,30.21,M,6.21,M,M,M,M,M,M,M,M,M,M,M,M,M,M,M,M,53.60,UMMM 070530Z 34004MPS CAVOK 12/04 Q1023 RMK QFE748
UMMM,2018-06-07 06:00,27.5397,53.8645,234.00,55.40,39.20,54.34,350.00,7.78,0.00,30.21,M,6.21,M,M,M,M,M,M,M,M,M,M,M,M,M,M,M,M,55.40,UMMM 070600Z 35004MPS CAVOK 13/04 Q1023 RMK QFE748
UMMM,2018-06-07 07:00,27.5397,53.8645,234.00,55.40,41.00,58.27,270.00,3.89,0.00,30.21,M,6.21,M,M,M,M,M,M,M,M,M,M,M,M,M,M,M,M,55.40,UMMM 070700Z 27002MPS CAVOK 13/05 Q1023 RMK QFE748
UMMM,2018-06-07 08:00,27.5397,53.8645,234.00,57.20,37.40,47.44,250.00,3.89,0.00,30.21,M,6.21,M,SCT,BKN,M,M,4000.00,10000.00,M,M,M,M,M,M,M,M,M,57.20,UMMM 070800Z 25002MPS 9999 SCT040 BKN100 14/03 Q1023 RMK QFE748
UMMM,2018-06-07 09:00,27.5397,53.8645,234.00,57.20,37.40,47.44,290.00,5.83,0.00,30.21,M,6.21,M,SCT,BKN,M,M,4000.00,10000.00,M,M,M,M,M,M,M,M,M,57.20,UMMM 070900Z 29003MPS 9999 SCT040 BKN100 14/03 Q1023 RMK QFE748
UMMM,2018-06-07 10:00,27.5397,53.8645,234.00,59.00,37.40,44.47,290.00,9.72,0.00,30.21,M,6.21,M,BKN,M,M,M,4800.00,M,M,M,M,M,M,M,M,M,M,59.00,UMMM 071000Z 29005MPS 9999 BKN048 15/03 Q1023 RMK QFE748
UMMM,2018-06-07 12:00,27.5397,53.8645,234.00,62.60,37.40,39.14,260.00,5.83,0.00,30.21,M,6.21,M,M,M,M,M,M,M,M,M,M,M,M,M,M,M,M,62.60,UMMM 071200Z 26003MPS CAVOK 17/03 Q1023 RMK QFE747
UMMM,2018-06-07 13:00,27.5397,53.8645,234.00,62.60,37.40,39.14,280.00,7.78,0.00,30.18,M,6.21,M,M,M,M,M,M,M,M,M,M,M,M,M,M,M,M,62.60,UMMM 071300Z 28004MPS CAVOK 17/03 Q1022 RMK QFE747
UMMM,2018-06-07 14:00,27.5397,53.8645,234.00,62.60,37.40,39.14,290.00,5.83,0.00,30.18,M,6.21,M,M,M,M,M,M,M,M,M,M,M,M,M,M,M,M,62.60,UMMM 071400Z 29003MPS CAVOK 17/03 Q1022 RMK QFE747
UMMM,2018-06-08 05:30,27.5397,53.8645,234.00,60.80,39.20,44.76,240.00,5.83,0.00,30.09,M,6.21,M,M,M,M,M,M,M,M,M,M,M,M,M,M,M,M,60.80,UMMM 080530Z 24003MPS CAVOK 16/04 Q1019 RMK QFE745
UMMM,2018-06-08 06:00,27.5397,53.8645,234.00,62.60,41.00,45.04,240.00,7.78,0.00,30.09,M,6.21,M,M,M,M,M,M,M,M,M,M,M,M,M,M,M,M,62.60,UMMM 080600Z 24004MPS CAVOK 17/05 Q1019 RMK QFE745
UMMM,2018-06-08 07:00,27.5397,53.8645,234.00,64.40,41.00,42.28,240.00,9.72,0.00,30.09,M,6.21,M,M,M,M,M,M,M,M,M,M,M,M,M,M,M,M,64.40,UMMM 080700Z 24005MPS CAVOK 18/05 Q1019 RMK QFE745
UMMM,2018-06-08 09:00,27.5397,53.8645,234.00,71.60,42.80,35.37,270.00,7.78,0.00,30.06,M,6.21,M,M,M,M,M,M,M,M,M,M,M,M,M,M,M,M,70.12,UMMM 080900Z 27004MPS CAVOK 22/06 Q1018 RMK QFE744
UMMM,2018-06-08 10:00,27.5397,53.8645,234.00,73.40,41.00,31.05,280.00,11.66,0.00,30.06,M,6.21,17.49,M,M,M,M,M,M,M,M,M,M,M,M,M,M,M,71.90,UMMM 081000Z 28006G09MPS CAVOK 23/05 Q1018 RMK QFE744
UMMM,2018-06-08 11:00,27.5397,53.8645,234.00,73.40,41.00,31.05,250.00,9.72,0.00,30.03,M,6.21,15.55,M,M,M,M,M,M,M,M,M,M,M,M,M,M,M,71.90,UMMM 081100Z 25005G08MPS CAVOK 23/05 Q1017 RMK QFE743
UMMM,2018-06-08 12:00,27.5397,53.8645,234.00,75.20,41.00,29.23,270.00,9.72,0.00,30.00,M,6.21,15.55,M,M,M,M,M,M,M,M,M,M,M,M,M,M,M,73.79,UMMM 081200Z 27005G08MPS CAVOK 24/05 Q1016 RMK QFE743
UMMM,2018-06-08 13:00,27.5397,53.8645,234.00,77.00,41.00,27.53,230.00,9.72,0.00,30.00,M,6.21,15.55,M,M,M,M,M,M,M,M,M,M,M,M,M,M,M,75.69,UMMM 081300Z 23005G08MPS CAVOK 25/05 Q1016 RMK QFE742
UMMM,2018-06-08 14:00,27.5397,53.8645,234.00,77.00,42.80,29.51,270.00,9.72,0.00,29.97,M,6.21,15.55,M,M,M,M,M,M,M,M,M,M,M,M,M,M,M,75.79,UMMM 081400Z 27005G08MPS CAVOK 25/06 Q1015 RMK QFE742
UMMM,2018-06-11 05:30,27.5397,53.8645,234.00,66.20,44.60,45.60,150.00,3.89,0.00,29.85,M,6.21,M,M,M,M,M,M,M,M,M,M,M,M,M,M,M,M,66.20,UMMM 110530Z 15002MPS CAVOK 19/07 Q1011 NOSIG RMK QFE738
UMMM,2018-06-11 06:00,27.5397,53.8645,234.00,68.00,46.40,45.88,150.00,3.89,0.00,29.85,M,6.21,M,M,M,M,M,M,M,M,M,M,M,M,M,M,M,M,68.00,UMMM 110600Z 15002MPS CAVOK 20/08 Q1011 R12/CLRD55 NOSIG RMK QFE738
UMMM,2018-06-11 06:30,27.5397,53.8645,234.00,68.00,46.40,45.88,150.00,3.89,0.00,29.85,M,6.21,M,M,M,M,M,M,M,M,M,M,M,M,M,M,M,M,68.00,UMMM 110630Z 15002MPS CAVOK 20/08 Q1011 R12/CLRD55 NOSIG RMK QFE738
UMMM,2018-06-11 07:00,27.5397,53.8645,234.00,71.60,48.20,43.42,140.00,7.78,0.00,29.85,M,6.21,M,M,M,M,M,M,M,M,M,M,M,M,M,M,M,M,70.50,UMMM 110700Z 14004MPS CAVOK 22/09 Q1011 R12/CLRD55 NOSIG RMK QFE738
UMMM,2018-06-11 07:30,27.5397,53.8645,234.00,71.60,48.20,43.42,160.00,7.78,0.00,29.85,M,6.21,M,M,M,M,M,M,M,M,M,M,M,M,M,M,M,M,70.50,UMMM 110730Z 16004MPS CAVOK 22/09 Q1011 R12/CLRD55 NOSIG RMK QFE738
UMMM,2018-06-11 08:00,27.5397,53.8645,234.00,75.20,46.40,35.94,160.00,9.72,0.00,29.85,M,6.21,M,M,M,M,M,M,M,M,M,M,M,M,M,M,M,M,74.11,UMMM 110800Z 16005MPS CAVOK 24/08 Q1011 R12/CLRD55 NOSIG RMK QFE738
UMMM,2018-06-11 08:30,27.5397,53.8645,234.00,75.20,46.40,35.94,180.00,9.72,0.00,29.85,M,6.21,M,M,M,M,M,M,M,M,M,M,M,M,M,M,M,M,74.11,UMMM 110830Z 18005MPS CAVOK 24/08 Q1011 R12/CLRD55 NOSIG RMK QFE738
UMMM,2018-06-11 09:00,27.5397,53.8645,234.00,77.00,44.60,31.62,160.00,9.72,0.00,29.83,M,6.21,15.55,M,M,M,M,M,M,M,M,M,M,M,M,M,M,M,75.89,UMMM 110900Z 16005G08MPS CAVOK 25/07 Q1010 R12/CLRD55 NOSIG RMK QFE737
UMMM,2018-06-11 09:30,27.5397,53.8645,234.00,77.00,44.60,31.62,180.00,9.72,0.00,29.83,M,6.21,15.55,M,M,M,M,M,M,M,M,M,M,M,M,M,M,M,75.89,UMMM 110930Z 18005G08MPS CAVOK 25/07 Q1010 R12/CLRD55 NOSIG RMK QFE737
UMMM,2018-06-11 10:00,27.5397,53.8645,234.00,80.60,44.60,28.08,140.00,9.72,0.00,29.83,M,6.21,15.55,M,M,M,M,M,M,M,M,M,M,M,M,M,M,M,79.42,UMMM 111000Z 14005G08MPS CAVOK 27/07 Q1010 R12/CLRD55 NOSIG RMK QFE737
UMMM,2018-06-11 10:30,27.5397,53.8645,234.00,80.60,44.60,28.08,140.00,9.72,0.00,29.83,M,6.21,15.55,M,M,M,M,M,M,M,M,M,M,M,M,M,M,M,79.42,UMMM 111030Z 14005G08MPS CAVOK 27/07 Q1010 R12/CLRD55 NOSIG RMK QFE737
UMMM,2018-06-11 11:00,27.5397,53.8645,234.00,80.60,44.60,28.08,140.00,9.72,0.00,29.80,M,6.21,15.55,M,M,M,M,M,M,M,M,M,M,M,M,M,M,M,79.42,UMMM 111100Z 14005G08MPS CAVOK 27/07 Q1009 R12/CLRD55 NOSIG RMK QFE737
UMMM,2018-06-11 11:30,27.5397,53.8645,234.00,80.60,44.60,28.08,170.00,9.72,0.00,29.80,M,6.21,15.55,M,M,M,M,M,M,M,M,M,M,M,M,M,M,M,79.42,UMMM 111130Z 17005G08MPS CAVOK 27/07 Q1009 R12/CLRD55 NOSIG RMK QFE736
UMMM,2018-06-11 12:00,27.5397,53.8645,234.00,82.40,44.60,26.49,200.00,9.72,0.00,29.77,M,6.21,M,M,M,M,M,M,M,M,M,M,M,M,M,M,M,M,80.50,UMMM 111200Z 20005MPS CAVOK 28/07 Q1008 RMK QFE736
UMMM,2018-06-11 13:00,27.5397,53.8645,234.00,82.40,46.40,28.36,160.00,7.78,0.00,29.74,M,6.21,M,M,M,M,M,M,M,M,M,M,M,M,M,M,M,M,80.64,UMMM 111300Z 16004MPS CAVOK 28/08 Q1007 RMK QFE735
UMMM,2018-06-11 14:00,27.5397,53.8645,234.00,82.40,48.20,30.35,160.00,7.78,0.00,29.74,M,6.21,M,SCT,BKN,M,M,4000.00,20000.00,M,M,M,M,M,M,M,M,M,80.80,UMMM 111400Z 16004MPS 9999 SCT040 BKN200 28/09 Q1007 RMK QFE735
UMMM,2018-06-12 05:30,27.5397,53.8645,234.00,62.60,57.20,82.50,270.00,7.78,0.00,29.65,M,6.21,M,SCT,BKN,M,M,1600.00,20000.00,M,M,M,M,M,M,M,M,M,62.60,UMMM 120530Z 27004MPS 9999 SCT016 BKN200 17/14 Q1004 RMK QFE733
UMMM,2018-06-12 06:00,27.5397,53.8645,234.00,62.60,57.20,82.50,270.00,9.72,0.00,29.65,M,6.21,15.55,SCT,BKN,M,M,1600.00,20000.00,M,M,M,M,M,M,M,M,M,62.60,UMMM 120600Z 27005G08MPS 9999 SCT016 BKN200 17/14 Q1004 NOSIG RMK QFE733
UMMM,2018-06-12 06:30,27.5397,53.8645,234.00,64.40,55.40,72.56,270.00,9.72,0.00,29.65,M,6.21,15.55,SCT,BKN,M,M,1600.00,20000.00,M,M,M,M,M,M,M,M,M,64.40,UMMM 120630Z 27005G08MPS 9999 SCT016 BKN200 18/13 Q1004 R30/CLRD55 NOSIG RMK QFE733
UMMM,2018-06-12 07:00,27.5397,53.8645,234.00,66.20,57.20,72.74,270.00,9.72,0.00,29.65,M,6.21,15.55,SCT,BKN,M,M,2000.00,20000.00,M,M,M,M,M,M,M,M,M,66.20,UMMM 120700Z 27005G08MPS 9999 SCT020 BKN200 19/14 Q1004 R30/CLRD55 NOSIG RMK QFE733
UMMM,2018-06-12 07:30,27.5397,53.8645,234.00,66.20,57.20,72.74,270.00,9.72,0.00,29.65,M,6.21,15.55,SCT,BKN,M,M,2000.00,20000.00,M,M,M,M,M,M,M,M,M,66.20,UMMM 120730Z 27005G08MPS 9999 SCT020 BKN200 19/14 Q1004 R30/CLRD55 NOSIG RMK QFE733
UMMM,2018-06-12 08:00,27.5397,53.8645,234.00,68.00,46.40,45.88,280.00,9.72,0.00,29.65,M,6.21,15.55,FEW,BKN,M,M,2600.00,20000.00,M,M,M,M,M,M,M,M,M,68.00,UMMM 120800Z 28005G08MPS 9999 FEW026 BKN200 20/08 Q1004 R30/CLRD55 NOSIG RMK QFE733
UMMM,2018-06-12 08:30,27.5397,53.8645,234.00,68.00,46.40,45.88,280.00,9.72,0.00,29.65,M,6.21,15.55,FEW,BKN,M,M,2600.00,20000.00,M,M,M,M,M,M,M,M,M,68.00,UMMM 120830Z 28005G08MPS 9999 FEW026 BKN200 20/08 Q1004 R30/CLRD55 NOSIG RMK QFE733
UMMM,2018-06-12 09:00,27.5397,53.8645,234.00,69.80,48.20,46.16,250.00,11.66,0.00,29.65,M,6.21,17.49,FEW,BKN,M,M,3000.00,20000.00,M,M,M,M,M,M,M,M,M,69.80,UMMM 120900Z 25006G09MPS 9999 FEW030 BKN200 21/09 Q1004 R30/CLRD55 NOSIG RMK QFE733
UMMM,2018-06-12 09:30,27.5397,53.8645,234.00,69.80,48.20,46.16,260.00,13.61,0.00,29.62,M,6.21,19.44,FEW,BKN,M,M,2100.00,20000.00,M,M,M,M,M,M,M,M,M,69.80,UMMM 120930Z 26007G10MPS 9999 FEW021 BKN200 21/09 Q1003 R30/CLRD55 NOSIG RMK QFE733
UMMM,2018-06-12 10:00,27.5397,53.8645,234.00,71.60,46.40,40.57,240.00,13.61,0.00,29.62,M,6.21,19.44,M,M,M,M,M,M,M,M,M,M,M,M,M,M,M,70.37,UMMM 121000Z 24007G10MPS CAVOK 22/08 Q1003 R30/CLRD55 NOSIG RMK QFE733
UMMM,2018-06-12 10:30,27.5397,53.8645,234.00,71.60,46.40,40.57,250.00,13.61,0.00,29.62,M,6.21,19.44,M,M,M,M,M,M,M,M,M,M,M,M,M,M,M,70.37,UMMM 121030Z 25007G10MPS CAVOK 22/08 Q1003 R30/CLRD55 NOSIG RMK QFE733
UMMM,2018-06-12 11:00,27.5397,53.8645,234.00,73.40,46.40,38.18,270.00,13.61,0.00,29.62,M,6.21,19.44,M,M,M,M,M,M,M,M,M,M,M,M,M,M,M,72.23,UMMM 121100Z 27007G10MPS CAVOK 23/08 Q1003 R30/CLRD55 NOSIG RMK QFE733
UMMM,2018-06-12 12:00,27.5397,53.8645,234.00,73.40,44.60,35.66,280.00,13.61,0.00,29.62,M,6.21,19.44,SCT,BKN,M,M,2600.00,20000.00,M,M,M,M,M,M,M,M,M,72.12,UMMM 121200Z 28007G10MPS 9999 SCT026 BKN200 23/07 Q1003 RMK QFE733
UMMM,2018-06-12 13:00,27.5397,53.8645,234.00,73.40,44.60,35.66,260.00,13.61,0.00,29.62,M,6.21,19.44,SCT,BKN,M,M,3000.00,20000.00,M,M,M,M,M,M,M,M,M,72.12,UMMM 121300Z 26007G10MPS 9999 SCT030 BKN200 23/07 Q1003 RMK QFE733
UMMM,2018-06-13 05:30,27.5397,53.8645,234.00,60.80,53.60,77.14,340.00,5.83,0.00,29.74,M,6.21,M,SCT,M,M,M,2600.00,M,M,M,M,M,M,M,M,M,M,60.80,UMMM 130530Z 34003MPS 9999 SCT026 16/12 Q1007 RMK QFE736
UMMM,2018-06-13 06:00,27.5397,53.8645,234.00,62.60,53.60,72.38,360.00,5.83,0.00,29.74,M,6.21,M,SCT,M,M,M,2600.00,M,M,M,M,M,M,M,M,M,M,62.60,UMMM 130600Z 36003MPS 9999 SCT026 17/12 Q1007 RMK QFE736
UMMM,2018-06-13 07:00,27.5397,53.8645,234.00,66.20,51.80,59.74,320.00,5.83,0.00,29.74,M,6.21,M,SCT,M,M,M,2300.00,M,M,M,M,M,M,M,M,M,M,66.20,UMMM 130700Z 32003MPS 9999 SCT023 19/11 Q1007 RMK QFE736
UMMM,2018-06-13 09:00,27.5397,53.8645,234.00,71.60,55.40,56.63,310.00,5.83,0.00,29.74,M,6.21,M,BKN,BKN,M,M,3600.00,20000.00,M,M,M,M,M,M,M,M,M,71.60,UMMM 130900Z 31003MPS 9999 BKN036 BKN200 22/13 Q1007 RMK QFE736
UMMM,2018-06-13 10:00,27.5397,53.8645,234.00,73.40,55.40,53.29,320.00,7.78,0.00,29.74,M,6.21,M,BKN,BKN,M,M,4000.00,20000.00,M,M,M,M,M,M,M,M,M,73.40,UMMM 131000Z 32004MPS 9999 BKN040 BKN200 23/13 Q1007 RMK QFE736
UMMM,2018-06-13 11:00,27.5397,53.8645,234.00,71.60,50.00,46.43,310.00,7.78,0.00,29.74,M,6.21,M,SCT,BKN,M,M,4000.00,10000.00,M,M,M,M,M,M,M,M,M,71.60,UMMM 131100Z 31004MPS 9999 SCT040 BKN100 22/10 Q1007 RMK QFE736
UMMM,2018-06-13 12:00,27.5397,53.8645,234.00,71.60,50.00,46.43,300.00,7.78,0.00,29.74,M,6.21,M,SCT,BKN,M,M,4300.00,10000.00,M,M,M,M,M,M,M,M,M,71.60,UMMM 131200Z 30004MPS 9999 SCT043 BKN100 22/10 Q1007 RMK QFE736
UMMM,2018-06-13 13:00,27.5397,53.8645,234.00,73.40,53.60,49.90,320.00,5.83,0.00,29.74,M,6.21,M,BKN,BKN,M,M,4000.00,10000.00,M,M,M,M,M,M,M,M,M,73.40,UMMM 131300Z 32003MPS 9999 BKN040 BKN100 23/12 Q1007 RMK QFE736
UMMM,2018-06-13 14:00,27.5397,53.8645,234.00,73.40,53.60,49.90,300.00,3.89,0.00,29.74,M,6.21,M,SCT,BKN,M,M,4600.00,10000.00,M,M,M,M,M,M,M,M,M,73.40,UMMM 131400Z 30002MPS 9999 SCT046 BKN100 23/12 Q1007 RMK QFE736
UMMM,2018-06-14 05:30,27.5397,53.8645,234.00,66.20,51.80,59.74,60.00,5.83,0.00,29.83,M,6.21,M,BKN,BKN,M,M,3300.00,10000.00,M,M,M,M,M,M,M,M,M,66.20,UMMM 140530Z 06003MPS 9999 BKN033 BKN100 19/11 Q1010 NOSIG RMK QFE737
UMMM,2018-06-14 06:00,27.5397,53.8645,234.00,66.20,51.80,59.74,50.00,7.78,0.00,29.83,M,6.21,M,BKN,BKN,M,M,3300.00,10000.00,M,M,M,M,M,M,M,M,M,66.20,UMMM 140600Z 05004MPS 9999 BKN033 BKN100 19/11 Q1010 NOSIG RMK QFE737
UMMM,2018-06-14 06:30,27.5397,53.8645,234.00,66.20,51.80,59.74,40.00,5.83,0.00,29.83,M,6.21,M,BKN,BKN,M,M,3300.00,10000.00,M,M,M,M,M,M,M,M,M,66.20,UMMM 140630Z 04003MPS 9999 BKN033 BKN100 19/11 Q1010 R12/CLRD55 NOSIG RMK QFE737
UMMM,2018-06-14 07:00,27.5397,53.8645,234.00,68.00,53.60,59.97,50.00,7.78,0.00,29.83,M,6.21,M,BKN,BKN,M,M,3000.00,10000.00,M,M,M,M,M,M,M,M,M,68.00,UMMM 140700Z 05004MPS 9999 BKN030 BKN100 20/12 Q1010 R12/CLRD55 NOSIG RMK QFE737
UMMM,2018-06-14 07:30,27.5397,53.8645,234.00,68.00,53.60,59.97,50.00,7.78,0.00,29.83,M,6.21,M,BKN,BKN,M,M,3000.00,10000.00,M,M,M,M,M,M,M,M,M,68.00,UMMM 140730Z 05004MPS 9999 BKN030 BKN100 20/12 Q1010 R12/CLRD55 NOSIG RMK QFE737
UMMM,2018-06-14 08:00,27.5397,53.8645,234.00,69.80,51.80,52.77,70.00,7.78,0.00,29.83,M,6.21,M,SCT,BKN,M,M,4000.00,10000.00,M,M,M,M,M,M,M,M,M,69.80,UMMM 140800Z 07004MPS 9999 SCT040 BKN100 21/11 Q1010 R12/CLRD55 NOSIG RMK QFE737
UMMM,2018-06-14 08:30,27.5397,53.8645,234.00,69.80,51.80,52.77,40.00,5.83,0.00,29.85,M,6.21,M,FEW,BKN,M,M,4300.00,10000.00,M,M,M,M,M,M,M,M,M,69.80,UMMM 140830Z 04003MPS 9999 FEW043 BKN100 21/11 Q1011 R12/CLRD55 NOSIG RMK QFE738
UMMM,2018-06-14 09:00,27.5397,53.8645,234.00,71.60,51.80,49.64,30.00,5.83,0.00,29.85,M,6.21,M,FEW,OVC,M,M,4600.00,10000.00,M,M,M,M,M,M,M,M,M,71.60,UMMM 140900Z 03003MPS 9999 FEW046 OVC100 22/11 Q1011 R12/CLRD55 NOSIG RMK QFE738
UMMM,2018-06-14 09:30,27.5397,53.8645,234.00,71.60,51.80,49.64,340.00,7.78,0.00,29.85,M,6.21,M,FEW,OVC,M,M,4600.00,10000.00,M,M,M,M,M,M,M,M,M,71.60,UMMM 140930Z 34004MPS 9999 FEW046 OVC100 22/11 Q1011 R30/CLRD55 NOSIG RMK QFE738
UMMM,2018-06-14 10:00,27.5397,53.8645,234.00,71.60,53.60,53.03,20.00,7.78,0.00,29.85,M,6.21,M,BKN,OVC,M,M,4000.00,10000.00,M,M,M,M,M,M,M,M,M,71.60,UMMM 141000Z 02004MPS 9999 BKN040CB OVC100 22/12 Q1011 R30/CLRD55 NOSIG RMK QFE738
UMMM,2018-06-14 10:30,27.5397,53.8645,234.00,71.60,53.60,53.03,20.00,7.78,0.00,29.85,M,3.73,M,OVC,M,M,M,4000.00,M,M,M,-SHRA,M,M,M,M,M,M,71.60,UMMM 141030Z 02004MPS 6000 -SHRA OVC040CB 22/12 Q1011 R30/190050 NOSIG RMK QFE738
UMMM,2018-06-14 11:00,27.5397,53.8645,234.00,64.40,59.00,82.62,10.00,9.72,0.00,29.85,M,6.21,M,BKN,OVC,M,M,4600.00,10000.00,M,M,M,M,M,M,M,M,M,64.40,UMMM 141100Z 01005MPS 9999 BKN046CB OVC100 18/15 Q1011 RMK QFE739
UMMM,2018-06-14 12:00,27.5397,53.8645,234.00,66.20,59.00,77.60,10.00,7.78,0.00,29.88,M,3.73,M,SCT,OVC,M,M,4000.00,10000.00,M,M,-SHRA,M,M,M,M,M,M,66.20,UMMM 141200Z 01004MPS 6000 -SHRA SCT040CB OVC100 19/15 Q1012 RMK QFE739
UMMM,2018-06-14 13:00,27.5397,53.8645,234.00,64.40,57.20,77.45,20.00,7.78,0.00,29.88,M,6.21,M,BKN,OVC,M,M,1300.00,10000.00,M,M,M,M,M,M,M,M,M,64.40,UMMM 141300Z 02004MPS 9999 BKN013CB OVC100 18/14 Q1012 RMK QFE739
UMMM,2018-06-14 14:00,27.5397,53.8645,234.00,62.60,55.40,77.29,50.00,9.72,0.00,29.88,M,6.21,M,SCT,OVC,M,M,1100.00,10000.00,M,M,M,M,M,M,M,M,M,62.60,UMMM 141400Z 05005MPS 9999 SCT011CB OVC100 17/13 Q1012 RMK QFE739
UMMM,2018-06-15 05:30,27.5397,53.8645,234.00,59.00,53.60,82.25,20.00,5.83,0.00,29.91,M,6.21,M,OVC,M,M,M,700.00,M,M,M,M,M,M,M,M,M,M,59.00,UMMM 150530Z 02003MPS 9999 OVC007 15/12 Q1013 RMK QFE740
UMMM,2018-06-15 06:00,27.5397,53.8645,234.00,59.00,53.60,82.25,20.00,9.72,0.00,29.91,M,6.21,M,OVC,M,M,M,700.00,M,M,M,M,M,M,M,M,M,M,59.00,UMMM 150600Z 02005MPS 9999 OVC007 15/12 Q1013 RMK QFE740
UMMM,2018-06-15 07:00,27.5397,53.8645,234.00,60.80,53.60,77.14,30.00,9.72,0.00,29.91,M,6.21,M,OVC,M,M,M,1200.00,M,M,M,M,M,M,M,M,M,M,60.80,UMMM 150700Z 03005MPS 9999 OVC012 16/12 Q1013 RMK QFE740
UMMM,2018-06-15 08:00,27.5397,53.8645,234.00,60.80,53.60,77.14,20.00,9.72,0.00,29.91,M,3.73,M,OVC,M,M,M,1200.00,M,M,M,-RA,M,M,M,M,M,M,60.80,UMMM 150800Z 02005MPS 6000 -RA OVC012 16/12 Q1013 RMK QFE740
UMMM,2018-06-15 09:00,27.5397,53.8645,234.00,59.00,57.20,93.74,350.00,7.78,0.00,29.91,M,3.11,M,OVC,M,M,M,1200.00,M,M,M,-RA,M,M,M,M,M,M,59.00,UMMM 150900Z 35004MPS 5000 -RA OVC012 15/14 Q1013 RMK QFE740
UMMM,2018-06-15 10:00,27.5397,53.8645,234.00,59.00,57.20,93.74,20.00,9.72,0.00,29.91,M,3.73,15.55,OVC,M,M,M,1100.00,M,M,M,-RA,M,M,M,M,M,M,59.00,UMMM 151000Z 02005G08MPS 6000 -RA OVC011 15/14 Q1013 RMK QFE740
UMMM,2018-06-15 11:00,27.5397,53.8645,234.00,59.00,57.20,93.74,20.00,9.72,0.00,29.94,M,6.21,15.55,OVC,M,M,M,1100.00,M,M,M,-RA,M,M,M,M,M,M,59.00,UMMM 151100Z 02005G08MPS 9999 -RA OVC011 15/14 Q1014 RMK QFE741
UMMM,2018-06-15 12:00,27.5397,53.8645,234.00,59.00,57.20,93.74,20.00,9.72,0.00,29.94,M,6.21,15.55,OVC,M,M,M,1400.00,M,M,M,M,M,M,M,M,M,M,59.00,UMMM 151200Z 02005G08MPS 9999 OVC014 15/14 Q1014 RMK QFE741
UMMM,2018-06-15 13:00,27.5397,53.8645,234.00,59.00,57.20,93.74,20.00,9.72,0.00,29.94,M,2.49,M,OVC,M,M,M,1200.00,M,M,M,-SHRA,M,M,M,M,M,M,59.00,UMMM 151300Z 02005MPS 4000 -SHRA OVC012CB 15/14 Q1014 RMK QFE741
UMMM,2018-06-15 14:00,27.5397,53.8645,234.00,59.00,57.20,93.74,20.00,7.78,0.00,29.94,M,3.11,M,OVC,M,M,M,1000.00,M,M,M,-SHRA,M,M,M,M,M,M,59.00,UMMM 151400Z 02004MPS 5000 -SHRA OVC010CB 15/14 Q1014 RMK QFE741
UMMM,2018-06-18 05:30,27.5397,53.8645,234.00,68.00,57.20,68.35,240.00,1.94,0.00,30.03,M,6.21,M,M,M,M,M,M,M,M,M,M,M,M,M,M,M,M,68.00,UMMM 180530Z 24001MPS CAVOK 20/14 Q1017 RMK QFE743
UMMM,2018-06-18 06:00,27.5397,53.8645,234.00,68.00,55.40,64.04,210.00,1.94,0.00,30.03,M,6.21,M,M,M,M,M,M,M,M,M,M,M,M,M,M,M,M,68.00,UMMM 180600Z 21001MPS CAVOK 20/13 Q1017 RMK QFE743
UMMM,2018-06-18 07:00,27.5397,53.8645,234.00,71.60,57.20,60.44,210.00,1.94,0.00,30.03,M,6.21,M,M,M,M,M,M,M,M,M,M,M,M,M,M,M,M,71.60,UMMM 180700Z 21001MPS CAVOK 22/14 Q1017 RMK QFE743
UMMM,2018-06-18 08:00,27.5397,53.8645,234.00,73.40,57.20,56.88,220.00,3.89,0.00,30.03,M,6.21,M,M,M,M,M,M,M,M,M,M,M,M,M,M,M,M,73.40,UMMM 180800Z 22002MPS CAVOK 23/14 Q1017 RMK QFE743
UMMM,2018-06-18 09:00,27.5397,53.8645,234.00,75.20,55.40,50.17,230.00,7.78,0.00,30.03,M,6.21,M,M,M,M,M,M,M,M,M,M,M,M,M,M,M,M,75.20,UMMM 180900Z 23004MPS CAVOK 24/13 Q1017 RMK QFE743
UMMM,2018-06-18 10:00,27.5397,53.8645,234.00,75.20,55.40,50.17,260.00,5.83,0.00,30.03,M,6.21,M,M,M,M,M,M,M,M,M,M,M,M,M,M,M,M,75.20,UMMM 181000Z 26003MPS CAVOK 24/13 Q1017 RMK QFE743
UMMM,2018-06-18 11:00,27.5397,53.8645,234.00,77.00,57.20,50.43,260.00,5.83,0.00,30.03,M,6.21,M,M,M,M,M,M,M,M,M,M,M,M,M,M,M,M,77.00,UMMM 181100Z 26003MPS CAVOK 25/14 Q1017 RMK QFE743
UMMM,2018-06-18 12:00,27.5397,53.8645,234.00,78.80,57.20,47.52,240.00,3.89,0.00,30.03,M,6.21,M,FEW,BKN,M,M,3000.00,20000.00,M,M,M,M,M,M,M,M,M,78.80,UMMM 181200Z 24002MPS 9999 FEW030 BKN200 26/14 Q1017 RMK QFE743
UMMM,2018-06-18 13:00,27.5397,53.8645,234.00,80.60,55.40,41.97,290.00,3.89,0.00,30.00,M,6.21,M,SCT,BKN,M,M,3000.00,20000.00,M,M,M,M,M,M,M,M,M,80.53,UMMM 181300Z 29002MPS 9999 SCT030 BKN200 27/13 Q1016 RMK QFE743
UMMM,2018-06-18 14:00,27.5397,53.8645,234.00,80.60,55.40,41.97,290.00,3.89,0.00,30.00,M,6.21,M,FEW,BKN,M,M,3300.00,20000.00,M,M,M,M,M,M,M,M,M,80.53,UMMM 181400Z 29002MPS 9999 FEW033 BKN200 27/13 Q1016 RMK QFE743
UMMM,2018-06-19 05:30,27.5397,53.8645,234.00,66.20,57.20,72.74,340.00,3.89,0.00,30.03,M,6.21,M,BKN,OVC,M,M,4600.00,10000.00,M,M,M,M,M,M,M,M,M,66.20,UMMM 190530Z 34002MPS 9999 BKN046 OVC100 19/14 Q1017 RMK QFE743
UMMM,2018-06-19 06:00,27.5397,53.8645,234.00,66.20,57.20,72.74,340.00,1.94,0.00,30.06,M,6.21,M,SCT,BKN,M,M,4600.00,10000.00,M,M,M,M,M,M,M,M,M,66.20,UMMM 190600Z 34001MPS 9999 SCT046 BKN100 19/14 Q1018 RMK QFE744
UMMM,2018-06-19 07:00,27.5397,53.8645,234.00,69.80,57.20,64.26,90.00,1.94,0.00,30.03,M,6.21,M,M,M,M,M,M,M,M,M,M,M,M,M,M,M,M,69.80,UMMM 190700Z 09001MPS CAVOK 21/14 Q1017 RMK QFE743
UMMM,2018-06-19 08:00,27.5397,53.8645,234.00,71.60,57.20,60.44,0.00,0.00,0.00,30.03,M,6.21,M,M,M,M,M,M,M,M,M,M,M,M,M,M,M,M,71.60,UMMM 190800Z 00000MPS CAVOK 22/14 Q1017 RMK QFE742
UMMM,2018-06-19 09:00,27.5397,53.8645,234.00,77.00,57.20,50.43,180.00,1.94,0.00,30.03,M,6.21,M,M,M,M,M,M,M,M,M,M,M,M,M,M,M,M,77.00,UMMM 190900Z 18001MPS CAVOK 25/14 Q1017 RMK QFE742
UMMM,2018-06-19 10:00,27.5397,53.8645,234.00,77.00,55.40,47.25,250.00,7.78,0.00,30.00,M,6.21,M,SCT,M,M,M,4000.00,M,M,M,M,M,M,M,M,M,M,77.00,UMMM 191000Z 25004MPS 9999 SCT040 25/13 Q1016 RMK QFE743
UMMM,2018-06-19 11:00,27.5397,53.8645,234.00,77.00,57.20,50.43,250.00,11.66,0.00,30.00,M,6.21,M,BKN,BKN,M,M,3300.00,10000.00,M,M,M,M,M,M,M,M,M,77.00,UMMM 191100Z 25006MPS 9999 BKN033 BKN100 25/14 Q1016 RMK QFE742
UMMM,2018-06-19 12:00,27.5397,53.8645,234.00,78.80,57.20,47.52,250.00,7.78,0.00,30.00,M,6.21,M,BKN,BKN,M,M,4000.00,10000.00,M,M,M,M,M,M,M,M,M,78.80,UMMM 191200Z 25004MPS 9999 BKN040 BKN100 26/14 Q1016 RMK QFE742
UMMM,2018-06-19 13:00,27.5397,53.8645,234.00,80.60,57.20,44.80,230.00,13.61,0.00,29.97,M,6.21,19.44,FEW,SCT,M,M,4000.00,20000.00,M,M,M,M,M,M,M,M,M,80.81,UMMM 191300Z 23007G10MPS 9999 FEW040 SCT200 27/14 Q1015 RMK QFE742
UMMM,2018-06-19 14:00,27.5397,53.8645,234.00,78.80,55.40,44.52,280.00,9.72,0.00,29.97,M,6.21,15.55,BKN,BKN,M,M,4000.00,20000.00,M,M,M,M,M,M,M,M,M,78.80,UMMM 191400Z 28005G08MPS 9999 BKN040 BKN200 26/13 Q1015 RMK QFE741
UMMM,2018-06-20 05:30,27.5397,53.8645,234.00,62.60,53.60,72.38,290.00,11.66,0.00,30.06,M,6.21,17.49,BKN,M,M,M,2300.00,M,M,M,M,M,M,M,M,M,M,62.60,UMMM 200530Z 29006G09MPS 9999 BKN023 17/12 Q1018 RMK QFE744
UMMM,2018-06-20 06:00,27.5397,53.8645,234.00,64.40,53.60,67.95,270.00,13.61,0.00,30.06,M,6.21,19.44,BKN,M,M,M,2600.00,M,M,M,M,M,M,M,M,M,M,64.40,UMMM 200600Z 27007G10MPS 9999 BKN026 18/12 Q1018 RMK QFE744
UMMM,2018-06-20 07:00,27.5397,53.8645,234.00,66.20,53.60,63.82,270.00,11.66,0.00,30.06,M,6.21,17.49,BKN,M,M,M,3500.00,M,M,M,M,M,M,M,M,M,M,66.20,UMMM 200700Z 27006G09MPS 9999 BKN035 19/12 Q1018 RMK QFE744
UMMM,2018-06-20 08:00,27.5397,53.8645,234.00,68.00,51.80,56.13,250.00,13.61,0.00,30.06,M,6.21,19.44,FEW,M,M,M,4000.00,M,M,M,M,M,M,M,M,M,M,68.00,UMMM 200800Z 25007G10MPS 9999 FEW040 20/11 Q1018 RMK QFE744
UMMM,2018-06-20 09:00,27.5397,53.8645,234.00,69.80,51.80,52.77,260.00,11.66,0.00,30.06,M,6.21,17.49,M,M,M,M,M,M,M,M,M,M,M,M,M,M,M,69.80,UMMM 200900Z 26006G09MPS CAVOK 21/11 Q1018 RMK QFE744
UMMM,2018-06-20 10:00,27.5397,53.8645,234.00,71.60,50.00,46.43,270.00,13.61,0.00,30.06,M,6.21,23.33,M,M,M,M,M,M,M,M,M,M,M,M,M,M,M,71.60,UMMM 201000Z 27007G12MPS CAVOK 22/10 Q1018 RMK QFE744
UMMM,2018-06-20 11:00,27.5397,53.8645,234.00,75.20,46.40,35.94,270.00,13.61,0.00,30.03,M,6.21,23.33,M,M,M,M,M,M,M,M,M,M,M,M,M,M,M,74.11,UMMM 201100Z 27007G12MPS CAVOK 24/08 Q1017 RMK QFE743
UMMM,2018-06-20 12:00,27.5397,53.8645,234.00,77.00,46.40,33.85,240.00,11.66,0.00,30.03,M,6.21,21.38,M,M,M,M,M,M,M,M,M,M,M,M,M,M,M,75.99,UMMM 201200Z 24006G11MPS CAVOK 25/08 Q1017 RMK QFE743
UMMM,2018-06-20 13:00,27.5397,53.8645,234.00,77.00,42.80,29.51,270.00,11.66,0.00,30.03,M,6.21,17.49,M,M,M,M,M,M,M,M,M,M,M,M,M,M,M,75.79,UMMM 201300Z 27006G09MPS CAVOK 25/06 Q1017 RMK QFE743
UMMM,2018-06-20 14:00,27.5397,53.8645,234.00,77.00,44.60,31.62,270.00,11.66,0.00,30.00,M,6.21,21.38,M,M,M,M,M,M,M,M,M,M,M,M,M,M,M,75.89,UMMM 201400Z 27006G11MPS CAVOK 25/07 Q1016 RMK QFE743
UMMM,2018-06-21 05:30,27.5397,53.8645,234.00,66.20,51.80,59.74,160.00,3.89,0.00,30.03,M,6.21,M,M,M,M,M,M,M,M,M,M,M,M,M,M,M,M,66.20,UMMM 210530Z 16002MPS CAVOK 19/11 Q1017 RMK QFE742
UMMM,2018-06-21 06:00,27.5397,53.8645,234.00,68.00,53.60,59.97,160.00,7.78,0.00,30.03,M,6.21,M,M,M,M,M,M,M,M,M,M,M,M,M,M,M,M,68.00,UMMM 210600Z 16004MPS CAVOK 20/12 Q1017 RMK QFE742
UMMM,2018-06-21 07:00,27.5397,53.8645,234.00,69.80,51.80,52.77,160.00,7.78,0.00,29.97,M,6.21,M,M,M,M,M,M,M,M,M,M,M,M,M,M,M,M,69.80,UMMM 210700Z 16004MPS CAVOK 21/11 Q1015 RMK QFE741
UMMM,2018-06-21 08:00,27.5397,53.8645,234.00,73.40,53.60,49.90,190.00,7.78,0.00,29.97,M,6.21,M,M,M,M,M,M,M,M,M,M,M,M,M,M,M,M,73.40,UMMM 210800Z 19004MPS CAVOK 23/12 Q1015 RMK QFE741
UMMM,2018-06-21 09:00,27.5397,53.8645,234.00,77.00,50.00,38.74,170.00,7.78,0.00,29.97,M,6.21,M,M,M,M,M,M,M,M,M,M,M,M,M,M,M,M,77.00,UMMM 210900Z 17004MPS CAVOK 25/10 Q1015 RMK QFE741
UMMM,2018-06-21 10:00,27.5397,53.8645,234.00,77.00,50.00,38.74,190.00,9.72,0.00,29.91,M,6.21,15.55,SCT,BKN,M,M,3300.00,10000.00,M,M,M,M,M,M,M,M,M,77.00,UMMM 211000Z 19005G08MPS 9999 SCT033 BKN100 25/10 Q1013 RMK QFE741
UMMM,2018-06-21 11:00,27.5397,53.8645,234.00,80.60,50.00,34.41,210.00,13.61,0.00,29.88,M,6.21,19.44,BKN,M,M,M,10000.00,M,M,M,M,M,M,M,M,M,M,80.60,UMMM 211100Z 21007G10MPS 9999 BKNT033 BKN100 27/10 Q1012 RMK QFE739
UMMM,2018-06-21 12:00,27.5397,53.8645,234.00,80.60,50.00,34.41,210.00,9.72,0.00,29.88,M,6.21,15.55,BKN,M,M,M,10000.00,M,M,M,M,M,M,M,M,M,M,80.60,UMMM 211200Z 21005G08MPS 9999 BKNT040 BKN100 27/10 Q1012 RMK QFE739
UMMM,2018-06-21 13:00,27.5397,53.8645,234.00,82.40,51.80,34.69,200.00,9.72,0.00,29.85,M,6.21,15.55,BKN,M,M,M,4000.00,M,M,M,M,M,M,M,M,M,M,81.20,UMMM 211300Z 20005G08MPS 9999 BKN040 28/11 Q1011 RMK QFE738
UMMM,2018-06-21 14:00,27.5397,53.8645,234.00,80.60,51.80,36.79,200.00,9.72,0.00,29.83,M,6.21,15.55,BKN,M,M,M,4000.00,M,M,M,M,M,M,M,M,M,M,80.60,UMMM 211400Z 20005G08MPS 9999 BKN040 27/11 Q1010 RMK QFE737
UMMM,2018-06-22 05:30,27.5397,53.8645,234.00,55.40,50.00,81.99,290.00,9.72,0.00,29.77,M,6.21,M,BKN,OVC,M,M,1500.00,10000.00,M,M,M,M,M,M,M,M,M,55.40,UMMM 220530Z 29005MPS 9999 BKN015 OVC100 13/10 Q1008 RMK QFE737
UMMM,2018-06-22 06:00,27.5397,53.8645,234.00,57.20,50.00,76.82,270.00,9.72,0.00,29.77,M,6.21,15.55,BKN,OVC,M,M,1800.00,10000.00,M,M,M,M,M,M,M,M,M,57.20,UMMM 220600Z 27005G08MPS 9999 BKN018 OVC100 14/10 Q1008 RMK QFE737
UMMM,2018-06-22 07:00,27.5397,53.8645,234.00,57.20,50.00,76.82,290.00,9.72,0.00,29.80,M,6.21,15.55,BKN,OVC,M,M,2500.00,10000.00,M,M,M,M,M,M,M,M,M,57.20,UMMM 220700Z 29005G08MPS 9999 BKN025 OVC100 14/10 Q1009 RMK QFE737
UMMM,2018-06-22 08:00,27.5397,53.8645,234.00,59.00,50.00,72.01,280.00,9.72,0.00,29.80,M,6.21,M,BKN,OVC,M,M,2600.00,10000.00,M,M,M,M,M,M,M,M,M,59.00,UMMM 220800Z 28005MPS 9999 BKN026 OVC100 15/10 Q1009 RMK QFE737
UMMM,2018-06-22 09:00,27.5397,53.8645,234.00,59.00,48.20,67.33,280.00,11.66,0.00,29.83,M,6.21,17.49,BKN,OVC,M,M,2500.00,10000.00,M,M,M,M,M,M,M,M,M,59.00,UMMM 220900Z 28006G09MPS 9999 BKN025 OVC100 15/09 Q1010 RMK QFE738
UMMM,2018-06-22 10:00,27.5397,53.8645,234.00,59.00,50.00,72.01,280.00,7.78,0.00,29.85,M,6.21,M,BKN,OVC,M,M,2600.00,10000.00,M,M,-RA,M,M,M,M,M,M,59.00,UMMM 221000Z 28004MPS 9999 -RA BKN026 OVC100 15/10 Q1011 RMK QFE738
UMMM,2018-06-22 11:00,27.5397,53.8645,234.00,60.80,50.00,67.54,230.00,9.72,0.00,29.85,M,6.21,15.55,BKN,BKN,M,M,3600.00,10000.00,M,M,M,M,M,M,M,M,M,60.80,UMMM 221100Z 23005G08MPS 9999 BKN036 BKN100 16/10 Q1011 RMK QFE739
UMMM,2018-06-22 12:00,27.5397,53.8645,234.00,62.60,44.60,51.72,260.00,11.66,0.00,29.83,M,6.21,17.49,BKN,BKN,M,M,4000.00,20000.00,M,M,M,M,M,M,M,M,M,62.60,UMMM 221200Z 26006G09MPS 9999 BKN040 BKN200 17/07 Q1010 RMK QFE738
UMMM,2018-06-22 13:00,27.5397,53.8645,234.00,64.40,46.40,51.98,290.00,11.66,0.00,29.85,M,6.21,17.49,SCT,BKN,M,M,4600.00,10000.00,M,M,M,M,M,M,M,M,M,64.40,UMMM 221300Z 29006G09MPS 9999 SCT046 BKN100 18/08 Q1011 RMK QFE738
UMMM,2018-06-22 14:00,27.5397,53.8645,234.00,66.20,48.20,52.25,300.00,11.66,0.00,29.85,M,6.21,17.49,M,M,M,M,M,M,M,M,M,M,M,M,M,M,M,66.20,UMMM 221400Z 30006G09MPS CAVOK 19/09 Q1011 RMK QFE739
UMMM,2018-06-25 05:30,27.5397,53.8645,234.00,53.60,48.20,81.87,200.00,5.83,0.00,29.97,M,6.21,M,BKN,M,M,M,1100.00,M,M,M,M,M,M,M,M,M,M,53.60,UMMM 250530Z 20003MPS 9999 BKN011 12/09 Q1015 RMK QFE741
UMMM,2018-06-25 06:00,27.5397,53.8645,234.00,53.60,48.20,81.87,180.00,5.83,0.00,29.97,M,6.21,M,BKN,M,M,M,1200.00,M,M,M,M,M,M,M,M,M,M,53.60,UMMM 250600Z 18003MPS 9999 BKN012 12/09 Q1015 RMK QFE741
UMMM,2018-06-25 07:00,27.5397,53.8645,234.00,57.20,48.20,71.83,160.00,7.78,0.00,29.97,M,6.21,M,BKN,M,M,M,1600.00,M,M,M,M,M,M,M,M,M,M,57.20,UMMM 250700Z 16004MPS 9999 BKN016 14/09 Q1015 RMK QFE741
UMMM,2018-06-25 08:00,27.5397,53.8645,234.00,59.00,48.20,67.33,160.00,7.78,0.00,29.97,M,6.21,M,BKN,M,M,M,1600.00,M,M,M,M,M,M,M,M,M,M,59.00,UMMM 250800Z 16004MPS 9999 BKN016 15/09 Q1015 RMK QFE741
UMMM,2018-06-25 09:00,27.5397,53.8645,234.00,60.80,48.20,63.15,170.00,9.72,0.00,29.97,M,6.21,M,BKN,M,M,M,2600.00,M,M,M,M,M,M,M,M,M,M,60.80,UMMM 250900Z 17005MPS 9999 BKN026 16/09 Q1015 RMK QFE741
UMMM,2018-06-25 10:00,27.5397,53.8645,234.00,62.60,48.20,59.26,160.00,9.72,0.00,29.97,M,6.21,M,BKN,M,M,M,3000.00,M,M,M,M,M,M,M,M,M,M,62.60,UMMM 251000Z 16005MPS 9999 BKN030 17/09 Q1015 RMK QFE741
UMMM,2018-06-25 11:00,27.5397,53.8645,234.00,62.60,46.40,55.37,160.00,9.72,0.00,29.97,M,6.21,15.55,OVC,M,M,M,3000.00,M,M,M,M,M,M,M,M,M,M,62.60,UMMM 251100Z 16005G08MPS 9999 OVC030CB 17/08 Q1015 RMK QFE741
UMMM,2018-06-25 12:00,27.5397,53.8645,234.00,60.80,48.20,63.15,240.00,9.72,0.00,30.00,M,6.21,M,OVC,M,M,M,3000.00,M,M,M,M,M,M,M,M,M,M,60.80,UMMM 251200Z 24005MPS 9999 OVC030CB 16/09 Q1016 RMK QFE742
UMMM,2018-06-25 13:00,27.5397,53.8645,234.00,59.00,50.00,72.01,180.00,9.72,0.00,30.00,M,6.21,M,BKN,M,M,M,3000.00,M,M,M,M,M,M,M,M,M,M,59.00,UMMM 251300Z 18005MPS 9999 BKN030CB 15/10 Q1016 RMK QFE742
UMMM,2018-06-25 14:00,27.5397,53.8645,234.00,59.00,50.00,72.01,210.00,5.83,0.00,30.00,M,6.21,M,BKN,M,M,M,4000.00,M,M,M,M,M,M,M,M,M,M,59.00,UMMM 251400Z 21003MPS 9999 BKN040 15/10 Q1016 RMK QFE742
UMMM,2018-06-26 05:30,27.5397,53.8645,234.00,57.20,50.00,76.82,100.00,3.89,0.00,30.18,M,6.21,M,M,M,M,M,M,M,M,M,M,M,M,M,M,M,M,57.20,UMMM 260530Z 10002MPS CAVOK 14/10 Q1022 NOSIG RMK QFE746
UMMM,2018-06-26 06:00,27.5397,53.8645,234.00,59.00,50.00,72.01,120.00,3.89,0.00,30.18,M,6.21,M,M,M,M,M,M,M,M,M,M,M,M,M,M,M,M,59.00,UMMM 260600Z 12002MPS CAVOK 15/10 Q1022 NOSIG RMK QFE746
UMMM,2018-06-26 07:00,27.5397,53.8645,234.00,62.60,50.00,63.38,120.00,3.89,0.00,30.18,M,6.21,M,M,M,M,M,M,M,M,M,M,M,M,M,M,M,M,62.60,UMMM 260700Z 12002MPS CAVOK 17/10 Q1022 NOSIG RMK QFE746
UMMM,2018-06-26 08:00,27.5397,53.8645,234.00,66.20,50.00,55.88,120.00,7.78,0.00,30.18,M,6.21,M,SCT,M,M,M,3300.00,M,M,M,M,M,M,M,M,M,M,66.20,UMMM 260800Z 12004MPS 9999 SCT033 19/10 Q1022 RMK QFE746
UMMM,2018-06-26 09:00,27.5397,53.8645,234.00,68.00,48.20,49.10,120.00,7.78,0.00,30.21,M,6.21,M,BKN,M,M,M,3300.00,M,M,M,M,M,M,M,M,M,M,68.00,UMMM 260900Z 12004MPS 9999 BKN033 20/09 Q1023 RMK QFE747
UMMM,2018-06-26 10:00,27.5397,53.8645,234.00,69.80,48.20,46.16,100.00,7.78,0.00,30.21,M,6.21,M,BKN,M,M,M,4000.00,M,M,M,M,M,M,M,M,M,M,69.80,UMMM 261000Z 10004MPS 9999 BKN040 21/09 Q1023 RMK QFE747
UMMM,2018-06-26 11:00,27.5397,53.8645,234.00,69.80,46.40,43.13,130.00,7.78,0.00,30.21,M,6.21,M,BKN,M,M,M,4000.00,M,M,M,M,M,M,M,M,M,M,69.80,UMMM 261100Z 13004MPS 9999 BKN040CB 21/08 Q1023 RMK QFE747
UMMM,2018-06-26 12:00,27.5397,53.8645,234.00,71.60,50.00,46.43,40.00,5.83,0.00,30.21,M,6.21,M,BKN,M,M,M,4000.00,M,M,M,M,M,M,M,M,M,M,71.60,UMMM 261200Z 04003MPS 9999 BKN040 22/10 Q1023 RMK QFE747
UMMM,2018-06-26 13:00,27.5397,53.8645,234.00,71.60,51.80,49.64,80.00,7.78,0.00,30.21,M,6.21,M,BKN,M,M,M,4000.00,M,M,M,M,M,M,M,M,M,M,71.60,UMMM 261300Z 08004MPS 9999 BKN040 22/11 Q1023 RMK QFE747
UMMM,2018-06-26 14:00,27.5397,53.8645,234.00,69.80,53.60,56.38,210.00,7.78,0.00,30.18,M,6.21,M,BKN,M,M,M,4000.00,M,M,M,M,M,M,M,M,M,M,69.80,UMMM 261400Z 21004MPS 9999 BKN040CB 21/12 Q1022 RMK QFE746
UMMM,2018-06-27 05:30,27.5397,53.8645,234.00,66.20,55.40,68.15,30.00,3.89,0.00,30.27,M,6.21,M,M,M,M,M,M,M,M,M,M,M,M,M,M,M,M,66.20,UMMM 270530Z 03002MPS CAVOK 19/13 Q1025 NOSIG RMK QFE749
UMMM,2018-06-27 06:00,27.5397,53.8645,234.00,66.20,53.60,63.82,60.00,5.83,0.00,30.27,M,6.21,M,M,M,M,M,M,M,M,M,M,M,M,M,M,M,M,66.20,UMMM 270600Z 06003MPS CAVOK 19/12 Q1025 R12/150055 NOSIG RMK QFE749
UMMM,2018-06-27 06:30,27.5397,53.8645,234.00,66.20,53.60,63.82,50.00,7.78,0.00,30.27,M,6.21,M,M,M,M,M,M,M,M,M,M,M,M,M,M,M,M,66.20,UMMM 270630Z 05004MPS CAVOK 19/12 Q1025 R12/150055 NOSIG RMK QFE748
UMMM,2018-06-27 07:00,27.5397,53.8645,234.00,69.80,51.80,52.77,50.00,7.78,0.00,30.27,M,6.21,M,M,M,M,M,M,M,M,M,M,M,M,M,M,M,M,69.80,UMMM 270700Z 05004MPS CAVOK 21/11 Q1025 R12/150055 NOSIG RMK QFE748
UMMM,2018-06-27 07:30,27.5397,53.8645,234.00,69.80,51.80,52.77,50.00,7.78,0.00,30.27,M,6.21,M,M,M,M,M,M,M,M,M,M,M,M,M,M,M,M,69.80,UMMM 270730Z 05004MPS CAVOK 21/11 Q1025 R12/150055 NOSIG RMK QFE748
UMMM,2018-06-27 08:00,27.5397,53.8645,234.00,73.40,51.80,46.71,60.00,11.66,0.00,30.27,M,6.21,17.49,FEW,BKN,M,M,3300.00,20000.00,M,M,M,M,M,M,M,M,M,73.40,UMMM 270800Z 06006G09MPS 9999 FEW033 BKN200 23/11 Q1025 R12/150055 NOSIG RMK QFE749
UMMM,2018-06-27 08:30,27.5397,53.8645,234.00,73.40,51.80,46.71,80.00,11.66,0.00,30.27,M,6.21,17.49,BKN,BKN,M,M,3000.00,20000.00,M,M,M,M,M,M,M,M,M,73.40,UMMM 270830Z 08006G09MPS 9999 BKN030 BKN200 23/11 Q1025 R12/150055 NOSIG RMK QFE748
UMMM,2018-06-27 09:00,27.5397,53.8645,234.00,75.20,51.80,43.97,50.00,9.72,0.00,30.27,M,6.21,19.44,BKN,BKN,M,M,2600.00,20000.00,M,M,M,M,M,M,M,M,M,75.20,UMMM 270900Z 05005G10MPS 9999 BKN026 BKN200 24/11 Q1025 R12/150055 NOSIG RMK QFE748
UMMM,2018-06-27 09:30,27.5397,53.8645,234.00,75.20,51.80,43.97,60.00,9.72,0.00,30.27,M,6.21,19.44,BKN,BKN,M,M,2600.00,20000.00,M,M,M,M,M,M,M,M,M,75.20,UMMM 270930Z 06005G10MPS 9999 BKN026 BKN200 24/11 Q1025 R12/150055 NOSIG RMK QFE748
UMMM,2018-06-27 10:00,27.5397,53.8645,234.00,77.00,51.80,41.42,50.00,11.66,0.00,30.27,M,6.21,17.49,BKN,BKN,M,M,2300.00,20000.00,M,M,M,M,M,M,M,M,M,77.00,UMMM 271000Z 05006G09MPS 9999 BKN023 BKN200 25/11 Q1025 R12/150055 NOSIG RMK QFE748
UMMM,2018-06-27 10:30,27.5397,53.8645,234.00,77.00,51.80,41.42,50.00,11.66,0.00,30.24,M,6.21,17.49,BKN,BKN,M,M,2600.00,20000.00,M,M,M,M,M,M,M,M,M,77.00,UMMM 271030Z 05006G09MPS 9999 BKN026 BKN200 25/11 Q1024 R12/150055 NOSIG RMK QFE748
UMMM,2018-06-27 11:00,27.5397,53.8645,234.00,75.20,50.00,41.14,60.00,11.66,0.00,30.24,M,6.21,17.49,BKN,BKN,M,M,3000.00,20000.00,M,M,M,M,M,M,M,M,M,75.20,UMMM 271100Z 06006G09MPS 9999 BKN030 BKN200 24/10 Q1024 R12/150055 NOSIG RMK QFE748
UMMM,2018-06-27 11:30,27.5397,53.8645,234.00,75.20,50.00,41.14,70.00,11.66,0.00,30.24,M,6.21,17.49,BKN,BKN,M,M,3000.00,20000.00,M,M,M,M,M,M,M,M,M,75.20,UMMM 271130Z 07006G09MPS 9999 BKN030 BKN200 24/10 Q1024 R12/150055 NOSIG RMK QFE748
UMMM,2018-06-27 12:00,27.5397,53.8645,234.00,78.80,50.00,36.51,50.00,9.72,0.00,30.24,M,6.21,19.44,BKN,BKN,M,M,3300.00,20000.00,M,M,M,M,M,M,M,M,M,78.80,UMMM 271200Z 05005G10MPS 9999 BKN033 BKN200 26/10 Q1024 RMK QFE748
UMMM,2018-06-27 13:00,27.5397,53.8645,234.00,77.00,48.20,36.22,60.00,11.66,0.00,30.24,M,6.21,17.49,SCT,BKN,M,M,4000.00,20000.00,M,M,M,M,M,M,M,M,M,77.00,UMMM 271300Z 06006G09MPS 9999 SCT040 BKN200 25/09 Q1024 RMK QFE747
UMMM,2018-06-27 14:00,27.5397,53.8645,234.00,75.20,48.20,38.46,50.00,9.72,0.00,30.24,M,6.21,15.55,BKN,BKN,M,M,4600.00,10000.00,M,M,M,M,M,M,M,M,M,75.20,UMMM 271400Z 05005G08MPS 9999 BKN046 BKN100 24/09 Q1024 RMK QFE747
UMMM,2018-06-28 05:30,27.5397,53.8645,234.00,69.80,53.60,56.38,40.00,5.83,0.00,30.18,M,6.21,M,M,M,M,M,M,M,M,M,M,M,M,M,M,M,M,69.80,UMMM 280530Z 04003MPS CAVOK 21/12 Q1022 NOSIG RMK QFE746
UMMM,2018-06-28 06:00,27.5397,53.8645,234.00,69.80,53.60,56.38,70.00,7.78,0.00,30.18,M,6.21,M,M,M,M,M,M,M,M,M,M,M,M,M,M,M,M,69.80,UMMM 280600Z 07004MPS CAVOK 21/12 Q1022 R12/CLRD55 NOSIG RMK QFE746
UMMM,2018-06-28 06:30,27.5397,53.8645,234.00,69.80,53.60,56.38,70.00,7.78,0.00,30.18,M,6.21,M,M,M,M,M,M,M,M,M,M,M,M,M,M,M,M,69.80,UMMM 280630Z 07004MPS CAVOK 21/12 Q1022 R12/CLRD55 NOSIG RMK QFE746
UMMM,2018-06-28 07:00,27.5397,53.8645,234.00,73.40,55.40,53.29,70.00,9.72,0.00,30.18,M,6.21,15.55,M,M,M,M,M,M,M,M,M,M,M,M,M,M,M,73.40,UMMM 280700Z 07005G08MPS CAVOK 23/13 Q1022 R12/CLRD55 NOSIG RMK QFE746
UMMM,2018-06-28 07:30,27.5397,53.8645,234.00,73.40,55.40,53.29,70.00,9.72,0.00,30.18,M,6.21,M,M,M,M,M,M,M,M,M,M,M,M,M,M,M,M,73.40,UMMM 280730Z 07005MPS CAVOK 23/13 Q1022 R12/CLRD55 NOSIG RMK QFE746
UMMM,2018-06-28 08:00,27.5397,53.8645,234.00,77.00,53.60,44.25,80.00,9.72,0.00,30.18,M,6.21,15.55,M,M,M,M,M,M,M,M,M,M,M,M,M,M,M,77.00,UMMM 280800Z 08005G08MPS CAVOK 25/12 Q1022 R12/CLRD55 NOSIG RMK QFE746
UMMM,2018-06-28 08:30,27.5397,53.8645,234.00,77.00,53.60,44.25,70.00,9.72,0.00,30.18,M,6.21,19.44,M,M,M,M,M,M,M,M,M,M,M,M,M,M,M,77.00,UMMM 280830Z 07005G10MPS CAVOK 25/12 Q1022 R12/CLRD55 NOSIG RMK QFE746
UMMM,2018-06-28 09:00,27.5397,53.8645,234.00,77.00,51.80,41.42,70.00,9.72,0.00,30.15,M,6.21,15.55,M,M,M,M,M,M,M,M,M,M,M,M,M,M,M,77.00,UMMM 280900Z 07005G08MPS CAVOK 25/11 Q1021 RMK QFE746
UMMM,2018-06-28 10:00,27.5397,53.8645,234.00,77.00,50.00,38.74,80.00,11.66,0.00,30.15,M,6.21,17.49,M,M,M,M,M,M,M,M,M,M,M,M,M,M,M,77.00,UMMM 281000Z 08006G09MPS CAVOK 25/10 Q1021 RMK QFE746
UMMM,2018-06-28 11:00,27.5397,53.8645,234.00,78.80,53.60,41.69,90.00,11.66,0.00,30.15,M,6.21,17.49,M,M,M,M,M,M,M,M,M,M,M,M,M,M,M,78.80,UMMM 281100Z 09006G09MPS CAVOK 26/12 Q1021 RMK QFE745
UMMM,2018-06-28 12:00,27.5397,53.8645,234.00,78.80,51.80,39.02,70.00,9.72,0.00,30.12,M,6.21,15.55,M,M,M,M,M,M,M,M,M,M,M,M,M,M,M,78.80,UMMM 281200Z 07005G08MPS CAVOK 26/11 Q1020 RMK QFE744
UMMM,2018-06-28 13:00,27.5397,53.8645,234.00,78.80,53.60,41.69,100.00,11.66,0.00,30.09,M,6.21,17.49,M,M,M,M,M,M,M,M,M,M,M,M,M,M,M,78.80,UMMM 281300Z 10006G09MPS CAVOK 26/12 Q1019 RMK QFE744
UMMM,2018-06-28 14:00,27.5397,53.8645,234.00,78.80,51.80,39.02,70.00,11.66,0.00,30.09,M,6.21,17.49,M,M,M,M,M,M,M,M,M,M,M,M,M,M,M,78.80,UMMM 281400Z 07006G09MPS CAVOK 26/11 Q1019 RMK QFE744
UMMM,2018-06-29 05:30,27.5397,53.8645,234.00,68.00,51.80,56.13,0.00,0.00,0.00,29.85,M,6.21,M,M,M,M,M,M,M,M,M,M,M,M,M,M,M,M,68.00,UMMM 290530Z 00000MPS CAVOK 20/11 Q1011 RMK QFE738
UMMM,2018-06-29 06:00,27.5397,53.8645,234.00,69.80,51.80,52.77,350.00,3.89,0.00,29.85,M,6.21,M,M,M,M,M,M,M,M,M,M,M,M,M,M,M,M,69.80,UMMM 290600Z 35002MPS CAVOK 21/11 Q1011 RMK QFE739
UMMM,2018-06-29 07:00,27.5397,53.8645,234.00,73.40,55.40,53.29,350.00,3.89,0.00,29.83,M,6.21,M,M,M,M,M,M,M,M,M,M,M,M,M,M,M,M,73.40,UMMM 290700Z 35002MPS CAVOK 23/13 Q1010 RMK QFE738
UMMM,2018-06-29 08:00,27.5397,53.8645,234.00,75.20,57.20,53.55,350.00,3.89,0.00,29.83,M,6.21,M,M,M,M,M,M,M,M,M,M,M,M,M,M,M,M,75.20,UMMM 290800Z 35002MPS CAVOK 24/14 Q1010 RMK QFE738
UMMM,2018-06-29 09:00,27.5397,53.8645,234.00,77.00,57.20,50.43,240.00,3.89,0.00,29.80,M,6.21,M,M,M,M,M,M,M,M,M,M,M,M,M,M,M,M,77.00,UMMM 290900Z 24002MPS CAVOK 25/14 Q1009 RMK QFE737
UMMM,2018-06-29 10:00,27.5397,53.8645,234.00,78.80,51.80,39.02,20.00,5.83,0.00,29.77,M,6.21,M,FEW,BKN,M,M,3300.00,20000.00,M,M,M,M,M,M,M,M,M,78.80,UMMM 291000Z 02003MPS 9999 FEW033 BKN200 26/11 Q1008 RMK QFE737
UMMM,2018-06-29 11:00,27.5397,53.8645,234.00,80.60,53.60,39.30,300.00,5.83,0.00,29.77,M,6.21,M,BKN,BKN,M,M,3300.00,20000.00,M,M,M,M,M,M,M,M,M,80.60,UMMM 291100Z 30003MPS 9999 BKN033 BKN200 27/12 Q1008 RMK QFE736
UMMM,2018-06-29 12:00,27.5397,53.8645,234.00,80.60,51.80,36.79,310.00,5.83,0.00,29.74,M,6.21,M,FEW,BKN,M,M,4000.00,20000.00,M,M,M,M,M,M,M,M,M,80.60,UMMM 291200Z 31003MPS 9999 FEW040 BKN200 27/11 Q1007 RMK QFE736
UMMM,2018-06-29 13:00,27.5397,53.8645,234.00,80.60,51.80,36.79,300.00,5.83,0.00,29.74,M,6.21,M,FEW,BKN,M,M,4000.00,20000.00,M,M,M,M,M,M,M,M,M,80.60,UMMM 291300Z 30003MPS 9999 FEW040 BKN200 27/11 Q1007 RMK QFE736
UMMM,2018-06-29 14:00,27.5397,53.8645,234.00,80.60,51.80,36.79,300.00,5.83,0.00,29.74,M,6.21,M,FEW,BKN,M,M,4000.00,20000.00,M,M,M,M,M,M,M,M,M,80.60,UMMM 291400Z 30003MPS 9999 FEW040 BKN200 27/11 Q1007 RMK QFE735
,,,,,,,,,,,,,,,,,,,,,,,,,,,,,,,
